"airport","airport_name","countryCode","date","datetime","raw_metar","visibility","wind","precipitation","freezing","dangerous","VMC_IMC","latitude","longitude"
"EGUO","COLERNE","GBR","19-02-14","""2019-02-14T22:50:00.000Z""","EGUO 142250Z 06001KT CAVOK 01/00 Q1029 BLU NOSIG 19-02-14",0,0,0,2.5,0,0,51.44107777777777,-2.2790805555555553
"KEUF","WEEDON FIELD","USA","19-03-04","""2019-03-04T18:58:00.000Z""","KEUF 041858Z AUTO A3010 RMK AO2 RAEMM TSB02B32 SLPNO PWINO FZRANO TSNO $ 19-03-04",0,0,0,0,0,0,31.951305555555553,-85.12891666666665
"LLET","EILAT/J. HOZMAN AIRPORT","ISR","19-03-18","""2019-03-18T15:50:00.000Z""","LLET 181550Z 02016KT CAVOK 24/M01 Q1016 19-03-18",0,2,0,0,0,0,29.558333333333334,34.95888888888889
"KLBT","LUMBERTON RGNL","USA","19-03-28","""2019-03-28T13:55:00.000Z""","KLBT 281355Z MKT MSM M M M M A0000 M M RMK TEST 19-03-28",0,0,0,0,0,0,34.60980555555556,-79.05955555555555
"EDOP","SCHWERIN-PARCHIM","DEU","19-03-31","""2019-03-31T14:50:00.000Z""","EDOP 311450Z 35010KT 310V020 CAVOK 09/M06 Q1025 19-03-31",0,0,0,0,0,0,53.42699722222222,11.783436111111111
"EGDX","ST ATHAN","GBR","19-04-01","""2019-04-01T12:50:00.000Z""","EGDX 011250Z AUTO 10008KT 9999 NCD 11/05 Q1019 19-04-01",0,0,0,0,0,0,51.40475277777777,-3.435752777777778
"HLLM","TRIPOLI (MITIGA INTL)","LBY","19-04-04","""2019-04-04T11:50:00.000Z""","HLLM 041150Z 20008KT 8000 BKN080 29/07 Q1005 19-04-04",0,0,0,0,0,0,32.894444444444446,13.277777777777779
"SVCU","CUMANA, SUCRE","VEN","19-06-24","""2019-06-24T18:04:00.000Z""","SVCU 241804Z 10025KT 9999 CB/NE 19-06-24",0,4,0,0,0,0,10.449166666666667,-64.13222222222221
"LLSD","TEL-AVIV/SDE-DOV AIRPORT","ISR","19-06-30","""2019-06-30T20:50:00.000Z""","LLSD 302050Z VRB03KT 9999 SCT017 27/23 Q1007 19-06-30",0,0,0,0,0,0,32.11416666666667,34.78194444444444
"LHUD","SZEGED","HUN","19-07-03","""2019-07-03T22:45:00.000Z""","LHUD 032245Z 33007KT CAVOK 19/14 Q1018 19-07-03",0,0,0,0,0,0,46.25083333333333,20.089166666666664
"SBQV","VITORIA DA CONQUISTA/VITORIA DA CONQUISTA,BA","BRA","19-07-24","""2019-07-24T23:00:00.000Z""","SBQV 242300Z 15009KT 9999 SCT006 17/16 Q1023 19-07-24",0,0,0,0,0,0,-14.86361111111111,-40.863055555555555
"SVPM","PARAMILLO, TACHIRA","VEN","19-08-01","null","SVPM 011000ZZ NIL 19-08-01",0,0,0,0,0,0,7.804722222222222,-72.20055555555555
"PAKF","FALSE PASS","USA","19-08-01","""2019-08-01T20:11:00.000Z""","PAKF 012011Z 01003KT 9SM OVC016 13/11 A3013 RMK NOSPECI 19-08-01",0,0,0,0,0,0,54.847861111111115,-163.4071111111111
"UWSS","SARATOV/TSENTRALNY","RUS","19-08-20","""2019-08-20T03:00:00.000Z""","UWSS 200300Z 33003MPS CAVOK 20/15 Q1018 R30/010095 NOSIG RMK QFE750 19-08-20",0,0,0,0,0,0,51.565555555555555,46.04555555555555
"LIMT","PASSO DELLA CISA","ITA","19-09-23","""2019-09-23T11:55:00.000Z""","LIMT 231155Z 00000KT 0000 FG VV/// 10/10 Q1014 RMK MON INVIS VAL INVIS VIS MIN 0000 19-09-23",0,0,0,0,0,0,44.4333333,9.9333333
"SBUG","URUGUAIANA/RUBEM BERTA, RS","BRA","19-09-23","""2019-09-23T13:00:00.000Z""","SBUG 231300Z 08015KT CAVOK 16/05 Q1025 19-09-23",0,0,0,0,0,0,-29.783333333333335,-57.036944444444444
"PANT","ANNETTE ISLAND","USA","19-10-01","""2019-10-01T12:53:00.000Z""","PANT 011253Z AUTO 14010KT 10SM OVC055 12/05 A3001 RMK SLP162 T01170050 TSNO VIA AUTODIAL 19-10-01",0,0,0,0,0,0,55.042291666666664,-131.57089722222221
"SPZA","NASCA/MARIA REICHE NEUMAN","PER","19-10-10","""2019-10-10T13:18:00.000Z""","SPZA 101318Z VRB01KT 8000 SCT020 14/10 Q1015 19-10-10",0,0,0,0,0,0,-14.854138888888889,-74.96177222222222
"KISN","SLOULIN FLD INTL","USA","19-10-18","""2019-10-18T12:52:00.000Z""","KISN 181252Z AUTO 28012KT 10SM FEW120 08/01 A2948 RMK AO2 SLP836 T00780006 TSNO 19-10-18",0,0,0,0,0,0,48.17793888888889,-103.64234722222223
"PAEM","EMMONAK","USA","19-10-22","""2019-10-22T01:52:00.000Z""","PAEM 220152Z 02007KT 10SM OVC044 02/00 A2959 19-10-22",0,0,0,2.5,0,0,62.786138888888885,-164.49075
"SVJC","JOSEFA CAMEJO, FALCON","VEN","19-10-22","""2019-10-22T22:00:00.000Z""","SVJC 222200Z 2300/2400 09014KT 9999 FEW013 TX32/19Z TN25/08Z TEMPO 2300/2304 06015G18KT 9999 SCT013 SCT090 19-10-22",0,2,0,0,0,0,11.780555555555557,-70.15166666666667
"SVSA","SAN ANTONIO DEL TACHIRA, TACHIRA","VEN","19-10-22","""2019-10-22T22:00:00.000Z""","SVSA 222200Z 2300/2400 15008KT 9999 BKN020 TX32/19Z TN23/08Z TEMPO 2300/2304 15012KT 9000 DZ 05006KT 9999 BKN020 19-10-22",0,0,3.3,0,0,0,7.8405555555555555,-72.43972222222223
"PAHY","HYDABURG","USA","19-10-30","""2019-10-30T18:09:00.000Z""","PAHY 301809Z AUTO 00000KT 10SM FEW010 OVC018 09/08 A3029 RMK AO2 $ 19-10-30",0,0,0,0,0,0,55.206306,-132.828305666667
"SAVE","ESQUEL/BRIG. ANTONIO PARODI (CHT)","ARG","19-11-15","""2019-11-15T15:23:00.000Z""","SAVE 151523Z 27014G24KT 230V330 9999 SCT035 11/06 Q1005 RERA 19-11-15",0,2,0,0,0,0,-42.90380555555556,-71.135525
"LIVC","MONTE CIMONE","ITA","19-11-19","""2019-11-19T12:55:00.000Z""","LIVC 191255Z 21016G28KT 0000 -SN FG VV/// 00/M00 Q1012 RMK MON INVIS VAL INVIS VIS MIN 0000 19-11-19",0,4,6.7,2.5,0,0,44.2,10.7
"SVLF","LA FRIA, TACHIRA","VEN","19-11-20","""2019-11-20T12:00:00.000Z""","SVLF 201200Z N191000ZIL 19-11-20",0,0,0,0,0,0,8.238888888888889,-72.27083333333333
"KNUQ","MOFFETT FEDERAL AFLD","USA","19-11-21","""2019-11-21T16:56:00.000Z""","KNUQ 211656Z AUTO A2986 RMK AO2 SLP116 PWINO $ 19-11-21",0,0,0,0,0,0,37.41613888888889,-122.04913888888889
"OIAI","MASJED SOLEIMAN/SHAHID ASYAEE","IRN","19-11-25","""2019-11-25T10:50:00.000Z""","OIAI 251050Z 29004KT CAVOK 24/07 Q1016 19-11-25",0,0,0,0,0,0,32.00222222222222,49.26861111111111
"OIFK","KASHAN","IRN","19-11-25","""2019-11-25T11:00:00.000Z""","OIFK 251100Z 35004KT 9999 SCT040 BKN100 10/00 Q1024 A3025 19-11-25",0,0,0,0,0,0,33.89527777777778,51.57694444444445
"OIIS","SEMNAN","IRN","19-11-25","""2019-11-25T11:00:00.000Z""","OIIS 251100Z 18002KT 9999 FEW035 SCT090 07/M01 Q1024 19-11-25",0,0,0,0,0,0,35.611666666666665,53.498333333333335
"PAEL","ELFIN COVE","USA","19-11-27","""2019-11-27T17:49:00.000Z""","PAEL 271749Z 09007KT 25SM FEW150 M01/M05 A3040 RMK MIN -2.6 SPB E03010KT NOSPECI 19-11-27",0,0,0,0,0,0,58.1951663333333,-136.347389333333
"PALG","KALSKAG","USA","19-12-04","""2019-12-04T22:56:00.000Z""","PALG 042256Z AUTO 09004KT 10SM CLR M18/M20 A3007 RMK AO2 SLP187 T11781200 FZRANO 19-12-04",0,0,0,0,0,0,61.53597222222222,-160.34558333333334
"PADM","MARSHALL","USA","19-12-06","""2019-12-06T10:17:00.000Z""","PADM 061017Z AUTO 06024KT 2SM -SN BR CLR M17/M19 A2960 RMK AO2 PK WND 05031/1007 P0000 FZRANO 19-12-06",0,4,6.7,10,0,0,61.86416666666667,-162.02611111111113
"SVCR","CORO, FALCON","VEN","19-12-06","""2019-12-06T23:00:00.000Z""","SVCR 062300Z ZNIL 19-12-06",0,0,0,0,0,0,11.414722222222222,-69.68166666666667
"TVSV","E.T.JOSHUA,ST.VINCENT, AND THE GRENADINES","VCT","19-12-13","""2019-12-13T20:43:00.000Z""","TVSV 132043Z 12005G18KT 4000 SHRA BKN014 27/23 Q1010 19-12-13",0,2,3.3,0,0,1,13.144444444444444,-61.21083333333333
"LOWZ","ZELL AM SEE","AUT","19-12-16","""2019-12-16T08:50:00.000Z""","LOWZ 160850Z AUTO 23002KT 8000 BKN190 M05/M06 19-12-16",0,0,0,2.5,0,0,47.29222222222222,12.7875
"FAWK","WATERKLOOF (SAAF)","ZAF","19-12-19","""2019-12-19T19:00:00.000Z""","FAWK 191900Z AUTO 04003KT //// // ////// 24/03 Q1019 19-12-19",0,0,0,0,0,0,-25.82768888888889,28.220891666666667
"SVPC","PUERTO CABELLO, CARABOBO","VEN","19-12-24","""2019-12-24T13:00:00.000Z""","SVPC 241300Z 00000KT 9999 SCT020 XX/XX Q1011 19-12-24",0,0,0,0,0,0,10.480277777777777,-68.07277777777777
"SVVG","EL VIGIA, MERIDA","VEN","19-12-27","""2019-12-27T17:00:00.000Z""","SVVG 271700Z ///// 8000 VCHZ SCT017 BKN100 32/26 Q1011 19-12-27",0,0,0,0,0,0,8.623611111111112,-71.67500000000001
"OPRN","ISLAMABAD/BBIAP","PAK","19-12-28","""2019-12-28T11:00:00.000Z""","OPRN 281100Z 05004KT 1400 BR SCT100 11/08 Q1016 BECMG 1500 BR 19-12-28",0,0,0,0,0,0,33.61676666666667,73.09873888888889
"LIRK","MONTE TERMINILLO","ITA","19-12-28","""2019-12-28T22:55:00.000Z""","LIRK 282255Z AUTO VRB27G42KT //// M08/M14 Q1021 19-12-28",0,0,0,0,0,0,42.4666667,12.9833333
"CYOA","EKATI, NT","CAN","19-12-30","""2019-12-30T21:08:00.000Z""","CYOA 302108Z 15020KT 4SM DRSN BR OVC006 M18/M20 A2949 RMK ST8 19-12-30",0,2,10,10,0,0,64.69899722222223,-110.61460277777778
"PAJC","CHIGNIK","USA","19-12-31","""2019-12-31T12:59:00.000Z""","PAJC 311259Z AUTO 26015G27KT 8SM -SN FEW019 BKN026 OVC080 M07/M12 A2903 RMK AO2 PK WND 25030/1238 SLPNO P0000 T10721117 FZRANO 19-12-31",0,2,6.7,7.5,0,0,56.31146111111111,-158.3732361111111
"FVCZ","BUFFALO RANGE","ZWE","20-01-04","""2020-01-04T12:00:00.000Z""","FVCZ 041200Z 08013KT CAVOK 40/12 Q1015 20-01-04",0,0,0,0,0,0,-21.01,31.579444444444444
"GMML","LAAYOUNE/HASSAN 1","MAR","20-01-08","""2020-01-08T07:30:00.000Z""","GMML 080730Z 06010KT 7000 BKN003 12/12 Q1026 NOSIG 20-01-08",0,0,0,0,0,0,27.151666666666664,-13.219166666666666
"ENDR","DRAUGEN","NOR","20-01-08","""2020-01-08T17:50:00.000Z""","ENDR 081750Z AUTO 25052G68KT 02/M01 Q0981 20-01-08",0,10,0,0,0,0,64.3555556,7.7916667
"LDSB","BRAC/BRAC I.","HRV","20-01-09","""2020-01-09T13:00:00.000Z""","LDSB 091300Z 21005KT CAVOK 09/02 Q1025 20-01-09",0,0,0,0,0,0,43.285719444444446,16.679719444444444
"SLPO","POTOSI","BOL","20-01-10","""2020-01-10T14:00:00.000Z""","SLPO 101400Z 00000KT 9999 FEW017 SCT070 15/08 Q1039 20-01-10",0,0,0,0,0,0,-19.542222222222225,-65.72333333333333
"HEAR","EL ARISH / INTL","EGY","20-01-12","""2020-01-12T10:54:00.000Z""","HEAR 121054Z VRB02KT 9999 BKN025 19/13 Q1025 NOSIG 20-01-12",0,0,0,0,0,0,31.073333333333334,33.83583333333333
"WARR","SURABAYA/JUANDA","IDN","20-01-12","""2020-01-12T14:00:00.000Z""","WARR 121400Z 25005KT 230V290 7000 FEW020 27/25 Q1010 NOSIG 20-01-12",0,0,0,0,0,0,-7.383611111111112,112.78
"PAIW","WALES","USA","20-01-12","""2020-01-12T17:56:00.000Z""","PAIW 121756Z AUTO 17035G44KT 1SM -SN BR FEW019 SCT030 BKN090 M06/M06 A2970 RMK AO2 PK WND 17044/1756 SLP060 P0000 60000 T10561061 11022 21056 58005 FZRANO 20-01-12",0,10,6.7,7.5,0,0,65.62258333333332,-168.0949388888889
"CYSY","SACHS HARBOUR (DAVID NASOGALUAK JR. SAARYUAQ) NT","CAN","20-01-14","""2020-01-14T00:00:00.000Z""","CYSY 140000Z 13015KT 15SM DRSN SCT240 M27/M30 A3034 RMK CS3 10 / SNW CVR / TRACE LOOSE / LAST STFD OBS/NEXT 141400Z SLP292 20-01-14",0,0,10,10,0,0,71.99365555555556,-125.24145555555556
"CYBN","BORDEN, ON (HELI)","CAN","20-01-14","""2020-01-14T16:17:00.000Z""","CYBN 141617Z AUTO 13011KT 3SM OVC002 M01/M02 A3010 20-01-14",0,0,0,2.5,0,1,44.2716667,-79.9125
"PASH","SHISHMAREF","USA","20-01-16","""2020-01-16T20:56:00.000Z""","PASH 162056Z AUTO 10028KT 10SM CLR M12/M15 A2993 RMK AO2 PK WND 10030/2056 SLP136 T11171150 58030 FZRANO 20-01-16",0,4,0,0,0,0,66.24958333333333,-166.08936111111112
"RJTR","ZAMA/KASTNER","JPN","20-01-18","""2020-01-18T10:45:00.000Z""","RJTR 181045Z AUTO 31007KT 8SM OVC027 03/01 A2989 RMK AO2 UPB0958E05UPB10E21UPB35E36UPB39E45 OVC V BKN SLP127 $ 20-01-18",0,0,0,0,0,0,35.513666666666666,139.39366666666666
"GMMH","DAKHLA","MAR","20-01-18","""2020-01-18T15:10:00.000Z""","GMMH 181510Z 09012KT 2500 1200E DU NSC 25/04 Q1021 TEMPO 1500 BLDU 20-01-18",0,0,0,0,0,0,23.71833333333333,-15.931944444444444
"FLHN","HARRY NKUMBULA INTERNATIONAL","ZMB","20-01-19","""2020-01-19T06:00:00.000Z""","FLHN 190600Z 32006KT 9999 FEW012 SCT090 23/20 Q1012 20-01-19",0,0,0,0,0,0,-17.821358333333333,25.817075
"LTAE","ANKARA/AKINCI (MIL)","TUR","20-01-19","""2020-01-19T06:18:00.000Z""","LTAE 190618Z 32006KT 9999 SCT010 BKN030 M02/M04 Q1018 RESN NOSIG RMK RWY21 34006KT 20-01-19",0,0,0,2.5,0,0,40.07888888888889,32.565555555555555
"FVMV","MASVINGO","ZWE","20-01-19","""2020-01-19T14:00:00.000Z""","FVMV 191400Z 14006KT 9999 FEW030 BKN040 OVC100 27/21 Q1008 20-01-19",0,0,0,0,0,0,-20.061944444444446,30.861944444444447
"LDLO","LOSINJ/LOSINJ I.","HRV","20-01-19","""2020-01-19T19:00:00.000Z""","LDLO 191900Z 03015KT CAVOK 08/M01 Q1030 20-01-19",0,0,0,0,0,0,44.56590555555555,14.393188888888888
"SVBC","BARCELONA, ANZOATEGUI","VEN","20-01-19","""2020-01-19T21:02:00.000Z""","SVBC 192102Z AUTO 02010KT NCD 30/21 Q1011 20-01-19",0,0,0,0,0,0,10.11111111111111,-64.69222222222223
"SVBS","B. A. MARISCAL SUCRE, ARAGUA","VEN","20-01-19","""2020-01-19T21:02:00.000Z""","SVBS 192102Z AUTO 11006KT NCD 31/// Q1013 20-01-19",0,0,0,0,0,0,10.25,-67.65
"SVFM","B.A. FRANCISCO DE MIRANDA, MIRANDA","VEN","20-01-19","""2020-01-19T21:02:00.000Z""","SVFM 192102Z AUTO 13009KT NCD 23/17 Q1015 20-01-19",0,0,0,0,0,0,10.485,-66.8436111
"SVGU","GUANARE, PORTUGUESA","VEN","20-01-19","""2020-01-19T21:02:00.000Z""","SVGU 192102Z AUTO 14003KT NCD 33/18 Q1011 20-01-19",0,0,0,0,0,0,9.026944444444446,-69.75527777777778
"SVJM","SAN JUAN DE LOS MORROS, GUARICO","VEN","20-01-19","""2020-01-19T21:02:00.000Z""","SVJM 192102Z AUTO 21006KT NCD 31/17 Q1011 20-01-19",0,0,0,0,0,0,9.90638888888889,-67.37944444444443
"SVMC","MARACAIBO, ZULIA","VEN","20-01-19","""2020-01-19T21:02:00.000Z""","SVMC 192102Z AUTO NIL 20-01-19",0,0,0,0,0,0,10.558333333333334,-71.7286111111111
"SVPA","PUERTO AYACUCHO, AMAZONAS","VEN","20-01-19","""2020-01-19T21:02:00.000Z""","SVPA 192102Z AUTO 09005KT NCD 35/20 Q1008 20-01-19",0,0,0,0,0,0,5.62,-67.6061111111111
"SVSR","SAN FERNANDO DE APURE,APURE","VEN","20-01-19","""2020-01-19T21:02:00.000Z""","SVSR 192102Z AUTO NIL 20-01-19",0,0,0,0,0,0,7.883055555555556,-67.44361111111111
"KVJI","VIRGINIA HIGHLANDS","USA","20-01-20","""2020-01-20T08:15:00.000Z""","KVJI 200815Z AUTO 36004KT 10SM -SN OVC022 M07/M13 A3025 RMK AO2 T10671126 20-01-20",0,0,6.7,7.5,0,0,36.687099999999994,-82.033325
"FVKB","KARIBA","ZWE","20-01-20","""2020-01-20T09:00:00.000Z""","FVKB 200900Z 00000KT CAVOK 31/24 Q1010 20-01-20",0,0,0,0,0,0,-16.519444444444442,28.884999999999998
"OITK","KHOY","IRN","20-01-20","""2020-01-20T11:00:00.000Z""","OITK 201100Z 00000KT 4000 HZ FEW035 OVC100 01/M03 Q1022 20-01-20",0,0,0,0,0,0,38.42222222222222,44.97666666666667
"SAAV","SANTA FE/SAUCE VIEJO (SF)","ARG","20-01-20","""2020-01-20T11:15:00.000Z""","SAAV 201115Z 14005KT 5000 TSRA BR BKN020 FEW050CB OVC060 25/25 Q1009 20-01-20",0,0,3.3,0,8,0,-31.710841666666667,-60.81126666666666
"LTAD","ANKARA/ETIMESGUT (MIL)","TUR","20-01-20","""2020-01-20T12:01:00.000Z""","LTAD 201201Z 33004KT 220V020 9999 BKN035 BKN090 03/M02 Q1027 RESN NOSIG RMK RWY29 VRB03KT 20-01-20",0,0,0,0,0,0,39.95166666666667,32.6875
"SVSZ","SANTA BARBARA DEL ZULIA,  ZULIA","VEN","20-01-20","""2020-01-20T14:00:00.000Z""","SVSZ 201400Z 20-01-20",0,0,0,0,0,0,8.974166666666667,-71.94305555555556
"SAAG","GUALEGUAYCHU (ER)","ARG","20-01-20","""2020-01-20T17:22:00.000Z""","SAAG 201722Z 05008KT 6000 RA BKN010 OVC045 26/24 Q1010 20-01-20",0,0,3.3,0,0,0,-33.00555555555555,-58.61277777777778
"CYSC","SHERBROOKE, QC","CAN","20-01-21","""2020-01-21T01:00:00.000Z""","CYSC 210100Z AUTO /////KT M15/M19 A3026 RMK WND MISG CLD MISG WX MISG VIS MISG PCPN MISG ICG MISG SLP272 20-01-21",0,0,0,0,0,0,45.43848055555555,-71.69135277777778
"FAGM","RAND","ZAF","20-01-21","""2020-01-21T05:00:00.000Z""","FAGM 210500Z 23006KT 7000 OVC006 16/14 Q1025 20-01-21",0,0,0,0,0,0,-26.24197777777778,28.151355555555554
"RJSH","HACHINOHE","JPN","20-01-21","""2020-01-21T05:49:00.000Z""","RJSH 210549Z 29014KT 250V320 5000 -SHSN FEW010 SCT020 BKN035 M01/M04 Q1020 RMK 1ST010 3CU020 5CU035 A3012 20-01-21",0,0,10,10,0,0,40.551944444444445,141.46722222222223
"GMAG","GUELMIME","MAR","20-01-21","""2020-01-21T07:54:00.000Z""","GMAG 210754Z 00000KT 3000 BR BKN006 09/08 Q1013 NOSIG M3 20-01-21",0,0,0,0,0,1,29.016944444444444,-10.061388888888889
"FNBG","BENGUELA/17 DE SETEMBRO","AGO","20-01-21","""2020-01-21T08:00:00.000Z""","FNBG 210800Z 00000KT 9999 FEW015 BKN100 29/23 Q1013 20-01-21",0,0,0,0,0,0,-12.61,13.403611111111111
"SAOU","SAN LUIS/BRIG. MY D. CESAR RAUL OJEDA (SL)","ARG","20-01-21","""2020-01-21T08:40:00.000Z""","SAOU 210840Z 29003KT 0500 FG VV/// 20/18 Q1013 20-01-21",0,0,0,0,0,0,-33.27222222222222,-66.35666666666665
"KHBG","HATTIESBURG BOBBY L CHAIN MUNI","USA","20-01-21","""2020-01-21T12:53:00.000Z""","KHBG 211253Z AUTO 36006KT 10SM CLR M02/M06 A3054 RMK AO2 SLP343 T10221061 20-01-21",0,0,0,0,0,0,31.264944444444446,-89.25288888888889
"PASA","SAVOONGA","USA","20-01-21","""2020-01-21T13:56:00.000Z""","PASA 211356Z AUTO 08016KT 9SM UP OVC007 M07/M08 A2937 RMK AO2 UPB11E26B55SNB02E11B46E55 SLP946 P0000 T10721083 FZRANO 20-01-21",0,2,3.3,2.5,0,0,63.686277777777775,-170.49316666666667
"FABM","BETHLEHEM","ZAF","20-01-21","""2020-01-21T14:20:00.000Z""","FABM 211420Z 26009KT 9999 TS SCT025 FEW045CB 24/11 Q1019 20-01-21",0,0,0,0,8,0,-28.248611111111114,28.33611111111111
"SADP","EL PALOMAR (BA)","ARG","20-01-21","""2020-01-21T17:18:00.000Z""","SADP 211718Z 18004KT 8000 -RA SCT045 OVC050 26/21 Q1011 20-01-21",0,0,0,0,0,0,-34.60991666666667,-58.612611111111114
"SBML","MARILIA/MARILIA,SP","BRA","20-01-21","""2020-01-21T19:00:00.000Z""","SBML 211900Z 18010KT 9999 BKN030 30/21 Q1008 20-01-21",0,0,0,0,0,0,-22.195555555555554,-49.926944444444445
"LTBL","IZMIR/CIGLI (MIL)","TUR","20-01-21","""2020-01-21T20:24:00.000Z""","LTBL 212024Z 04010KT 010V070 CAVOK 04/M02 Q1034 NOSIG RMK RWY17 03011KT 20-01-21",0,0,0,0,0,0,38.526666666666664,27.01
"PATG","TOGIAK","USA","20-01-21","""2020-01-21T21:15:00.000Z""","PATG 212115Z 35005KT 5SM -SN BR BKN034 OVC031 M13/M14 A2960 RMK AUTO NO SPECI 20-01-21",0,0,6.7,7.5,0,0,59.053555555555555,-160.39677777777777
"RJOE","AKENO","JPN","20-01-21","""2020-01-21T21:38:00.000Z""","RJOE 212138Z 24003KT 9999 FEW020 BKN180 00/M03 Q1030 RMK 1CU020 5AC180 A3041 20-01-21",0,0,0,0,0,0,34.53333333333333,136.67222222222222
"PTSA","KOSRAE,KOSRAE ISLAND","FSM","20-01-21","""2020-01-21T22:50:00.000Z""","PTSA 212250Z 23008KT 10SM SCT019 BKN300 30/26 A2987 20-01-21",0,0,0,0,0,0,5.356972222222222,162.9583888888889
"CYXQ","BEAVER CREEK, YT","CAN","20-01-21","""2020-01-21T23:00:00.000Z""","CYXQ 212300Z 05002KT 30SM FEW025 FEW090 BKN160 M28/M31 A2943 RMK SC1AC2AC4 SC TR LAST STFD OBS/NXT 221700Z/ SLP052 20-01-21",0,0,0,0,0,0,62.410158333333335,-140.8687638888889
"CYZW","TESLIN, YT","CAN","20-01-22","""2020-01-22T01:00:00.000Z""","CYZW 220100Z 26002KT 1 1/4SM -SN OVC025 M14/M15 A2939 RMK SN3SC5 LAST STFD OBS/NXT 221700Z SLP022 20-01-22",0,0,6.7,7.5,0,0,60.17307222222222,-132.74172222222222
"SBAQ","ARARAQUARA/ARARAQUARA, SP","BRA","20-01-22","""2020-01-22T02:00:00.000Z""","SBAQ 220200Z /////KT CAVOK ///// Q1011 20-01-22",0,0,0,0,0,0,-21.804347222222223,-48.140233333333335
"PTPN","POHNPEI INTL,POHNPEI ISLAND","FSM","20-01-22","""2020-01-22T02:50:00.000Z""","PTPN 220250Z 05007KT 15SM SCT018TCU BKN130 OVC300 31/25 A2986 RMK TCU N LAST 20-01-22",0,0,0,0,1.7,0,6.985083333333334,158.20980555555553
"KWHP","WHITEMAN","USA","20-01-22","""2020-01-22T03:55:00.000Z""","KWHP 220355Z 21005KT 10SM BKN030 12/07 A3020 20-01-22",0,0,0,0,0,0,34.259325,-118.41343333333334
"PHJH","KAPALUA","USA","20-01-22","""2020-01-22T03:45:00.000Z""","PHJH 220345Z VRB04KT 15SM FEW055 24/17 A3007 RMK LAST 20-01-22",0,0,0,0,0,0,20.96293611111111,-156.67303055555556
"UHMD","PROVIDENIYA BAY","RUS","20-01-22","""2020-01-22T05:00:00.000Z""","UHMD 220500Z 35003MPS P1000 -SN OVC012 M13/M16 Q0999 RMK QBB380 MT OBSC QFE749/0999 20-01-22",0,0,6.7,7.5,0,1,64.37805555555555,-173.2433333333333
"FASB","SPRINGBOK","ZAF","20-01-22","""2020-01-22T05:44:00.000Z""","FASB 220544Z 25005KT 9999 SCT015 13/10 Q1015 20-01-22",0,0,0,0,0,0,-29.689444444444444,17.93888888888889
"RJNY","YAIZU/SHIZUHAMA","JPN","20-01-22","""2020-01-22T06:34:00.000Z""","RJNY 220634Z 25010KT 9999 FEW020 BKN035 BKN050 13/06 Q1025 RMK 1CU020 6CU035 5SC050 A3029 20-01-22",0,0,0,0,0,0,34.812777777777775,138.29805555555555
"LIPU","PADOVA","ITA","20-01-22","""2020-01-22T07:00:00.000Z""","LIPU 220700Z VRB01KT 7000 NSC M02/M02 Q1036 20-01-22",0,0,0,2.5,0,0,45.39611111111111,11.848055555555556
"RJAF","MATSUMOTO","JPN","20-01-22","""2020-01-22T07:00:00.000Z""","RJAF 220700Z 17018KT 9999 FEW040 SCT080 BKN120 09/M04 Q1022 20-01-22",0,2,0,0,0,0,36.166666666666664,137.92277777777778
"RJEB","MONBETSU","JPN","20-01-22","""2020-01-22T07:00:00.000Z""","RJEB 220700Z 25009KT 9999 SCT040 01/M07 Q1019 20-01-22",0,0,0,0,0,0,44.30416666666667,143.40416666666667
"RJTF","CHOFU","JPN","20-01-22","""2020-01-22T07:00:00.000Z""","RJTF 220700Z 36004KT 9999 SCT025 BKN040 07/M03 Q1026 20-01-22",0,0,0,0,0,0,35.67166666666667,139.52805555555557
"RJTI","TOKYO HELIPORT","JPN","20-01-22","""2020-01-22T07:00:00.000Z""","RJTI 220700Z 03006KT 300V080 9999 FEW020 SCT025 BKN160 07/M02 Q1026 20-01-22",0,0,0,0,0,0,35.6361111,139.8394444
"RJTO","OSHIMA","JPN","20-01-22","""2020-01-22T07:00:00.000Z""","RJTO 220700Z 05004KT 010V110 9999 FEW030 11/06 Q1025 20-01-22",0,0,0,0,0,0,34.78194444444444,139.36027777777778
"GQNI","NEMA","MRT","20-01-22","""2020-01-22T09:00:00.000Z""","GQNI 220900Z 04010KT 5000 BLDU NSC 27/01 Q1016 20-01-22",0,0,0,0,0,0,16.6219444,-7.3166667
"FACV","CALVINIA (MET)","ZAF","20-01-22","""2020-01-22T08:51:00.000Z""","FACV 220851Z 24006KT 9999 FEW035 23/12 Q1015 20-01-22",0,0,0,0,0,0,-31.50027777777778,19.72583333333333
"RJBT","TAJIMA","JPN","20-01-22","""2020-01-22T09:00:00.000Z""","RJBT 220900Z 21009KT 9999 -SHRA FEW030 SCT040 BKN050 07/03 Q1024 20-01-22",0,0,3.3,0,0,0,35.51277777777778,134.78694444444443
"RJCN","NAKASHIBETSU","JPN","20-01-22","""2020-01-22T09:00:00.000Z""","RJCN 220900Z 29002KT 9999 FEW030 SCT/// M08/M11 Q1020 20-01-22",0,0,0,0,0,0,43.5775,144.95999999999998
"RJCW","WAKKANAI","JPN","20-01-22","""2020-01-22T09:00:00.000Z""","RJCW 220900Z 24011KT 9999 FEW015 SCT020 BKN030 01/M02 Q1016 20-01-22",0,0,0,0,0,0,45.404444444444444,141.80222222222224
"RJFG","TANEGASHIMA","JPN","20-01-22","""2020-01-22T09:00:00.000Z""","RJFG 220900Z 22003KT 110V280 9999 FEW030 BKN060 16/10 Q1023 20-01-22",0,0,0,0,0,0,30.605,130.99166666666665
"PKMJ","MARSHALL ISLANDS/INTL MAJURO ATOLL","MHL","20-01-22","""2020-01-22T09:55:00.000Z""","PKMJ 220955Z 05008KT 15SM FEW015 SCT050 BKN120 BKN300 29/25 A2986 RMK LAST 20-01-22",0,0,0,0,0,0,7.064972222222222,171.27203055555557
"PGWT","WEST TINIAN,TINIAN ISLAND","USA","20-01-22","""2020-01-22T09:50:00.000Z""","PGWT 220950Z 08015G20KT 6SM -RA SCT016 BKN060 24/22 A3001 RMK LAST 20-01-22",0,2,0,0,0,0,14.999202777777777,145.61935
"PGRO","ROTA/INTL,ROTA I.","USA","20-01-22","""2020-01-22T09:50:00.000Z""","PGRO 220950Z 04014G19KT 7SM SCT014 BKN100 25/21 A2999 RMK LAST 20-01-22",0,2,0,0,0,0,14.174352777777777,145.24112499999998
"ETAD","SPANGDAHLEM AB","DEU","20-01-22","""2020-01-22T09:56:00.000Z""","ETAD 220956Z AUTO 00000KT 9999 CLR 00/M04 A3054 RMK AO2 SLP356 T00031040 $ 20-01-22",0,0,0,0,0,0,49.97654166666667,6.698508333333334
"ETAR","RAMSTEIN AB","DEU","20-01-22","""2020-01-22T09:56:00.000Z""","ETAR 220956Z AUTO 00000KT 9999 CLR M01/M01 A3056 RMK AO2 SLP370 T10121013 FZRANO $ 20-01-22",0,0,0,2.5,0,0,49.43690833333333,7.600311111111111
"ETEB","ANSBACH AHP","DEU","20-01-22","""2020-01-22T09:56:00.000Z""","ETEB 220956Z 17004KT 2800 BR OVC003 M04/M04 A3053 RMK AO2A SLP388 T10381038 $ 20-01-22",0,0,0,7.5,0,1,49.308166666666665,10.638666666666666
"EGOW","WOODVALE","GBR","20-01-22","""2020-01-22T09:50:00.000Z""","EGOW 220950Z 33010KT 2500 BR OVC002 09/09 Q1039 RMK AMB 20-01-22",0,0,0,0,0,1,53.581575,-3.0555277777777774
"EGUN","MILDENHALL","GBR","20-01-22","""2020-01-22T09:56:00.000Z""","EGUN 220956Z 28002KT 1200 BR VV002 05/04 A3065 RMK SLPNO WND DATA ESTMD ALSTG ESTMD RVRNO $ 20-01-22",0,0,0,0,0,0,52.36193333333333,0.48640833333333333
"FEFT","BERBERATI","CAF","20-01-22","""2020-01-22T10:00:00.000Z""","FEFT 221000Z 02012KT CAVOK 29/01 Q1015 20-01-22",0,0,0,0,0,0,4.226,15.785416666666666
"RJBD","NANKI-SHIRAHAMA","JPN","20-01-22","""2020-01-22T10:00:00.000Z""","RJBD 221000Z 09003KT 060V120 9999 VCSH FEW030 BKN045 11/05 Q1026 20-01-22",0,0,0,0,0,0,33.66222222222222,135.36444444444444
"RJKA","AMAMI","JPN","20-01-22","""2020-01-22T10:00:00.000Z""","RJKA 221000Z 19011KT 9999 FEW030 BKN/// 19/14 Q1023 20-01-22",0,0,0,0,0,0,28.430833333333336,129.71249999999998
"RJNW","NOTO","JPN","20-01-22","""2020-01-22T10:00:00.000Z""","RJNW 221000Z 26002KT 9999 FEW030 SCT110 BKN120 05/02 Q1024 20-01-22",0,0,0,0,0,0,37.29333333333333,136.9622222222222
"RJOW","IWAMI","JPN","20-01-22","""2020-01-22T10:00:00.000Z""","RJOW 221000Z 15007KT 8000 -RA FEW030 SCT040 BKN045 09/08 Q1023 20-01-22",0,0,0,0,0,0,34.67638888888889,131.7902777777778
"RJOY","OSAKA/YAO","JPN","20-01-22","""2020-01-22T10:00:00.000Z""","RJOY 221000Z 34002KT 9999 -RA FEW025 BKN060 10/02 Q1026 20-01-22",0,0,0,0,0,0,34.59666666666667,135.60055555555556
"RJSC","YAMAGATA","JPN","20-01-22","""2020-01-22T10:00:00.000Z""","RJSC 221000Z 11004KT 9999 FEW060 SCT150 M00/M01 Q1026 20-01-22",0,0,0,2.5,0,0,38.411944444444444,140.3711111111111
"RJSI","HANAMAKI","JPN","20-01-22","""2020-01-22T10:00:00.000Z""","RJSI 221000Z 00000KT 9999 FEW030 SCT040 BKN100 M01/M03 Q1026 20-01-22",0,0,0,2.5,0,0,39.42861111111111,141.13527777777776
"RJSR","ODATE-NOSHIRO","JPN","20-01-22","""2020-01-22T10:00:00.000Z""","RJSR 221000Z VRB02KT 9999 FEW030 SCT050 BKN090 01/M01 Q1024 20-01-22",0,0,0,2.5,0,0,40.19194444444444,140.37166666666667
"RORS","SHIMOJISHIMA","JPN","20-01-22","""2020-01-22T10:00:00.000Z""","RORS 221000Z 14012KT 9999 FEW022 BKN080 22/18 Q1020 20-01-22",0,0,0,0,0,0,24.826666666666668,125.14472222222223
"VQPR","PARO, INTL","BTN","20-01-22","""2020-01-22T10:00:00.000Z""","VQPR 221000Z 12016KT 9999 SKC 13/M07 Q1014 20-01-22",0,2,0,0,0,0,27.403463888888886,89.424875
"VTPO","SUKHOTHAI","THA","20-01-22","""2020-01-22T10:00:00.000Z""","VTPO 221000Z 15003KT 4000 HZ NSC 34/21 Q1010 NOSIG 20-01-22",0,0,0,0,0,0,17.23777777777778,99.81833333333333
"SBAU","ARACATUBA/ARACATUBA,SP","BRA","20-01-22","""2020-01-22T10:00:00.000Z""","SBAU 221000Z 17010KT CAVOK 24/18 Q1008 20-01-22",0,0,0,0,0,0,-21.144166666666667,-50.42638888888889
"EGVA","FAIRFORD","GBR","20-01-22","""2020-01-22T10:21:00.000Z""","EGVA 221021Z AUTO 01008KT 9999 OVC006 07/07 A3064 RMK AO2 CIG 003V006 SLP383 $ 20-01-22",0,0,0,0,0,0,51.68351944444444,-1.7899916666666666
"ETIC","GRAFENWOEHR AAF","DEU","20-01-22","""2020-01-22T10:31:00.000Z""","ETIC 221031Z AUTO 00000KT 9999 OVC004 M04/M04 A3052 RMK AO2 UPB18E31 SLP370 $ 20-01-22",0,0,0,2.5,0,0,49.69868611111111,11.940175
"FAEO","ERMELO","ZAF","20-01-22","""2020-01-22T10:47:00.000Z""","FAEO 221047Z AUTO 31008KT //// // ////// 24/17 Q1020 20-01-22",0,0,0,0,0,0,-26.4955556,29.9797222
"RJCB","OBIHIRO","JPN","20-01-22","""2020-01-22T11:00:00.000Z""","RJCB 221100Z VRB01KT 9999 FEW040 BKN/// M09/M13 Q1019 20-01-22",0,0,0,0,0,0,42.733333333333334,143.21722222222223
"RJCH","HAKODATE","JPN","20-01-22","""2020-01-22T11:00:00.000Z""","RJCH 221100Z 32005KT 290V350 9999 -SHRA FEW012 SCT020 BKN030 04/01 Q1021 20-01-22",0,0,3.3,0,0,0,41.769999999999996,140.82194444444445
"RJCK","KUSHIRO","JPN","20-01-22","""2020-01-22T11:00:00.000Z""","RJCK 221100Z 22007KT 9999 FEW030 BKN/// M01/M06 Q1020 20-01-22",0,0,0,0,0,0,43.04083333333333,144.19305555555556
"RJCM","MEMANBETSU","JPN","20-01-22","""2020-01-22T11:00:00.000Z""","RJCM 221100Z 18009KT 9999 FEW030 BKN/// M03/M08 Q1019 20-01-22",0,0,0,0,0,0,43.88055555555555,144.16416666666666
"RJCO","SAPPORO/OKADAMA","JPN","20-01-22","""2020-01-22T11:00:00.000Z""","RJCO 221100Z 13007KT 9999 FEW015 SCT045 BKN090 00/M02 Q1020 20-01-22",0,0,0,2.5,0,0,43.1175,141.3813888888889
"RJDT","TSUSHIMA","JPN","20-01-22","""2020-01-22T11:00:00.000Z""","RJDT 221100Z 11012KT 6000 -RA FEW005 SCT007 BKN009 12/08 Q1020 20-01-22",0,0,0,0,0,0,34.285,129.33055555555555
"RJEC","ASAHIKAWA (CIVIL)","JPN","20-01-22","""2020-01-22T11:00:00.000Z""","RJEC 221100Z 18015KT 9999 -SHSN FEW008 SCT020 BKN070 M01/M04 Q1018 20-01-22",0,0,10,10,0,0,43.670833333333334,142.4475
"RJOC","IZUMO","JPN","20-01-22","""2020-01-22T11:00:00.000Z""","RJOC 221100Z 09003KT 060V130 9999 FEW050 SCT080 BKN110 08/05 Q1024 20-01-22",0,0,0,0,0,0,35.41361111111111,132.89
"RJOK","KOCHI","JPN","20-01-22","""2020-01-22T11:00:00.000Z""","RJOK 221100Z 35005KT 9999 -RA FEW010 BKN060 10/09 Q1025 20-01-22",0,0,0,0,0,0,33.54611111111111,133.66944444444442
"RJOO","OSAKA INTL","JPN","20-01-22","""2020-01-22T11:00:00.000Z""","RJOO 221100Z 06003KT 020V090 9999 -RA FEW025 BKN050 09/04 Q1027 RMK 1CU025 6SC050 A3033 20-01-22",0,0,0,0,0,0,34.78444444444444,135.43916666666667
"RJSF","FUKUSHIMA","JPN","20-01-22","""2020-01-22T11:00:00.000Z""","RJSF 221100Z 27003KT 220V280 9999 FEW012 BKN015 04/04 Q1024 20-01-22",0,0,0,0,0,0,37.2275,140.42805555555555
"ROIG","NEW ISHIGAKI","JPN","20-01-22","""2020-01-22T11:00:00.000Z""","ROIG 221100Z 17008KT 9999 FEW020 BKN070 23/20 Q1020 20-01-22",0,0,0,0,0,0,24.39638888888889,124.245
"ROMY","MIYAKO","JPN","20-01-22","""2020-01-22T11:00:00.000Z""","ROMY 221100Z 14006KT 9999 FEW020 BKN080 21/18 Q1021 20-01-22",0,0,0,0,0,0,24.782777777777778,125.295
"VTBO","TRAT/KHAO SMING","THA","20-01-22","""2020-01-22T11:00:00.000Z""","VTBO 221100Z 22007KT 5000 BR FEW020 29/25 Q1012 20-01-22",0,0,0,0,0,0,12.275277777777779,102.32
"VTCP","PHRAE","THA","20-01-22","""2020-01-22T11:00:00.000Z""","VTCP 221100Z 20003KT 160V230 4000 HZ NSC 30/20 Q1011 NOSIG 20-01-22",0,0,0,0,0,0,18.13171388888889,100.16461666666667
"VTCN","NAN/NAN NAKHON","THA","20-01-22","""2020-01-22T11:00:00.000Z""","VTCN 221100Z 00000KT 9000 NSC 28/20 Q1011 NOSIG 20-01-22",0,0,0,0,0,0,18.80791388888889,100.78341944444445
"VTPH","PRACHUAP KHIRI KHAN/HUA HIN","THA","20-01-22","""2020-01-22T11:00:00.000Z""","VTPH 221100Z 15005KT 9000 FEW030 28/24 Q1012 NOSIG 20-01-22",0,0,0,0,0,0,12.630319444444446,99.95344444444444
"VTSH","SONGKHLA","THA","20-01-22","""2020-01-22T11:00:00.000Z""","VTSH 221100Z 06010KT 9999 SCT020 29/24 Q1011 NOSIG 20-01-22",0,0,0,0,0,0,7.1857194444444445,100.60879444444444
"OICK","KHORAM ABAD","IRN","20-01-22","""2020-01-22T11:30:00.000Z""","OICK 221130Z 15006KT 4000 -SN FEW020 FEW025CB SCT030 OVC070 01/01 Q1013 20-01-22",0,0,6.7,7.5,1.3,0,33.43861111111111,48.28055555555555
"UACK","KOKSHETAU","KAZ","20-01-22","""2020-01-22T11:30:00.000Z""","UACK 221130Z 23008MPS 9999 DRSN SCT016 OVC080 M06/M07 Q1004 R20/890240 NOSIG RMK QFE730/0973 20-01-22",0,0,10,10,0,0,53.33027777777778,69.59555555555555
"UACP","PETROPAVLOSVK","KAZ","20-01-22","""2020-01-22T11:30:00.000Z""","UACP 221130Z 19008MPS 9999 DRSN OVC014 M04/M06 Q1001 R23/4/1048 NOSIG RMK QFE738/0985 20-01-22",0,0,10,10,0,0,54.77444444444444,69.185
"PAZK","EUREKA","USA","20-01-22","""2020-01-22T11:14:00.000Z""","PAZK 221114Z AUTO 22005KT 3SM -SN BR FEW021 OVC030 M15/M17 A2930 RMK AO2 P0000 FZRANO 20-01-22",0,0,6.7,10,0,0,65.1758333,-150.2205556
"LGKF","KEFALLINIA/ANNA POLLATOU","GRC","20-01-22","""2020-01-22T11:50:00.000Z""","LGKF 221150Z 25005KT 9999 FEW020 15/08 Q1030 20-01-22",0,0,0,0,0,0,38.12,20.500555555555554
"LGNX","NAXOS","GRC","20-01-22","""2020-01-22T11:50:00.000Z""","LGNX 221150Z 35012G22KT 9999 FEW025 12/02 Q1027 20-01-22",0,2,0,0,0,0,37.08111111111111,25.368055555555557
"LHBC","BEKESCSABA","HUN","20-01-22","""2020-01-22T11:45:00.000Z""","LHBC 221145Z 20005KT 8000 BKN016 M00/M01 Q1030 20-01-22",0,0,0,2.5,0,0,46.68333333333333,21.162499999999998
"FYKM","KATIMA MULILO","NAM","20-01-22","""2020-01-22T12:00:00.000Z""","FYKM 221200Z 02003KT 9999 FEW030 31/18 Q1013 20-01-22",0,0,0,0,0,0,-17.634166666666665,24.17666666666667
"OIHH","HAMADAN","IRN","20-01-22","""2020-01-22T12:00:00.000Z""","OIHH 221200Z 12010KT 2000 -SN FEW030CB SCT035 OVC070 00/M01 Q1012 20-01-22",0,0,6.7,7.5,1.3,0,34.86944444444445,48.550555555555555
"OIMS","SABZEVAR","IRN","20-01-22","""2020-01-22T12:00:00.000Z""","OIMS 221200Z 09008KT 9999 FEW035 05/M05 Q1024 20-01-22",0,0,0,0,0,0,36.16861111111111,57.59638888888889
"RJBE","KOBE","JPN","20-01-22","""2020-01-22T12:00:00.000Z""","RJBE 221200Z 08005KT 9999 -RA FEW015 BKN025 BKN050 08/05 Q1026 20-01-22",0,0,0,0,0,0,34.632777777777775,135.2238888888889
"RJDC","YAMAGUCHI-UBE","JPN","20-01-22","""2020-01-22T12:00:00.000Z""","RJDC 221200Z 09015KT 7000 -RA FEW003 SCT005 BKN006 10/10 Q1022 20-01-22",0,0,0,0,0,0,33.93,131.27861111111113
"RJFK","KAGOSHIMA","JPN","20-01-22","""2020-01-22T12:00:00.000Z""","RJFK 221200Z 11003KT 9999 FEW015 BKN030 BKN050 12/11 Q1023 RMK 1CU015 5CU030 7SC050 A3021 20-01-22",0,0,0,0,0,0,31.803333333333335,130.71944444444443
"RJFM","MIYAZAKI","JPN","20-01-22","""2020-01-22T12:00:00.000Z""","RJFM 221200Z 25004KT 5000 -SHRA BR FEW008 BKN010 BKN015 11/10 Q1024 20-01-22",0,0,3.3,0,0,0,31.877222222222223,131.44861111111112
"RJFT","KUMAMOTO","JPN","20-01-22","""2020-01-22T12:00:00.000Z""","RJFT 221200Z 07003KT 040V130 9999 FEW001 BKN030 11/10 Q1021 20-01-22",0,0,0,0,0,0,32.83722222222222,130.8552777777778
"RJNS","SHIZUOKA","JPN","20-01-22","""2020-01-22T12:00:00.000Z""","RJNS 221200Z 24008KT 9999 FEW020 SCT090 BKN150 09/03 Q1025 20-01-22",0,0,0,0,0,0,34.79611111111111,138.18944444444446
"RJNT","TOYAMA","JPN","20-01-22","""2020-01-22T12:00:00.000Z""","RJNT 221200Z VRB02KT 9999 -RA FEW040 BKN060 BKN070 07/02 Q1026 20-01-22",0,0,0,0,0,0,36.64833333333333,137.1875
"RJOB","OKAYAMA","JPN","20-01-22","""2020-01-22T12:00:00.000Z""","RJOB 221200Z VRB02KT 9999 -RA FEW025 SCT040 BKN060 05/03 Q1025 20-01-22",0,0,0,0,0,0,34.75694444444444,133.8552777777778
"RJOM","MATSUYAMA","JPN","20-01-22","""2020-01-22T12:00:00.000Z""","RJOM 221200Z VRB01KT 4500 -RA BR FEW006 SCT015 BKN045 09/08 Q1024 20-01-22",0,0,0,0,0,1,33.827222222222225,132.69972222222222
"RJOR","TOTTORI","JPN","20-01-22","""2020-01-22T12:00:00.000Z""","RJOR 221200Z 14006KT 9999 FEW040 SCT060 BKN080 09/04 Q1025 20-01-22",0,0,0,0,0,0,35.53,134.165
"RJSA","AOMORI","JPN","20-01-22","""2020-01-22T12:00:00.000Z""","RJSA 221200Z 20014KT 9999 FEW020 SCT080 BKN120 03/M02 Q1021 20-01-22",0,0,0,0,0,0,40.733333333333334,140.68861111111113
"RJSK","AKITA","JPN","20-01-22","""2020-01-22T12:00:00.000Z""","RJSK 221200Z 14003KT 090V170 9999 FEW040 SCT110 00/M01 Q1024 20-01-22",0,0,0,2.5,0,0,39.61555555555556,140.2186111111111
"RJSN","NIIGATA","JPN","20-01-22","""2020-01-22T12:00:00.000Z""","RJSN 221200Z 17005KT 9999 FEW060 SCT120 BKN150 06/00 Q1025 20-01-22",0,0,0,0,0,0,37.95583333333334,139.11166666666665
"RJSS","SENDAI","JPN","20-01-22","""2020-01-22T12:00:00.000Z""","RJSS 221200Z 36003KT 340V080 9999 FEW030 SCT120 BKN150 02/M02 Q1025 20-01-22",0,0,0,0,0,0,38.13972222222222,140.91694444444443
"RJSY","SHONAI","JPN","20-01-22","""2020-01-22T12:00:00.000Z""","RJSY 221200Z 13005KT CAVOK 01/M00 Q1025 20-01-22",0,0,0,2.5,0,0,38.81222222222222,139.78722222222223
"VEIM","IMPHAL","IND","20-01-22","""2020-01-22T12:00:00.000Z""","VEIM 221200Z 26008KT 4000 HZ FEW018 17/09 Q1016 NOSIG 20-01-22",0,0,0,0,0,0,24.764166666666668,93.89944444444446
"VEJS","JAMSHEDPUR","IND","20-01-22","""2020-01-22T12:00:00.000Z""","VEJS 221200Z 00000KT 2500 HZ NSC 25/18 Q1015 20-01-22",0,0,0,0,0,0,22.81455,86.16901111111112
"VTCH","MAE HONG SON","THA","20-01-22","""2020-01-22T12:00:00.000Z""","VTCH 221200Z 10006KT CAVOK 26/15 Q1012 20-01-22",0,0,0,0,0,0,19.301716666666668,97.97505555555556
"VTCL","LAMPANG","THA","20-01-22","""2020-01-22T12:00:00.000Z""","VTCL 221200Z VRB03KT 8000 NSC 26/20 Q1012 NOSIG 20-01-22",0,0,0,0,0,0,18.272116666666665,99.50406111111111
"VTUL","LOEI","THA","20-01-22","""2020-01-22T12:00:00.000Z""","VTUL 221200Z VRB01KT 8000 FEW030 27/19 Q1012 NOSIG 20-01-22",0,0,0,0,0,0,17.439133333333334,101.7220638888889
"WAPP","AMBON/PATTIMURA","IDN","20-01-22","""2020-01-22T12:00:00.000Z""","WAPP 221200Z 35008KT 9999 FEW020 26/22 Q1011 NOSIG 20-01-22",0,0,0,0,0,0,-3.7075,128.08944444444447
"WIHH","JAKARTA/HALIM PERDANAKUSUMA","IDN","20-01-22","""2020-01-22T12:00:00.000Z""","WIHH 221200Z 26003KT 6000 FEW018CB FEW019 29/26 Q1010 RMK CB TO SE 20-01-22",0,0,0,0,1.3,0,-6.2675,106.8863888888889
"NFTL","HA'APAI","TON","20-01-22","""2020-01-22T12:00:00.000Z""","NFTL 221200Z 00000KT 9999 FEW017 24/23 Q1009 20-01-22",0,0,0,0,0,0,-19.777055555555556,-174.34039166666668
"PPIZ","POINT LAY LRRS","USA","20-01-22","""2020-01-22T11:56:00.000Z""","PPIZ 221156Z AUTO 29007KT 10SM OVC017 M17/M19 A2966 RMK AO2 SLP046 60000 T11721194 11128 21172 51014 FZRANO 20-01-22",0,0,0,0,0,0,69.7328888888889,-163.00533333333334
"OICI","ILAM","IRN","20-01-22","""2020-01-22T12:30:00.000Z""","OICI 221230Z 15004KT 1200 SN FEW010 FEW025CB SCT030 OVC060 01/M00 Q1011 A2987 20-01-22",0,0,10,10,1.3,1,33.58555555555556,46.404444444444444
"RJFU","NAGASAKI","JPN","20-01-22","""2020-01-22T12:21:00.000Z""","RJFU 221221Z 14015KT 9000 FEW005 SCT008 BKN015 10/10 Q1020 RMK 1ST005 3ST008 5CU015 A3013 20-01-22",0,0,0,0,0,0,32.91694444444444,129.91361111111112
"ETIK","ILLESHEIM AHP","DEU","20-01-22","""2020-01-22T12:56:00.000Z""","ETIK 221256Z 20007KT 9999 OVC007 M02/M02 A3054 RMK AO2 SLP367 T10231023 20-01-22",0,0,0,2.5,0,0,49.4738889,10.3877778
"LTAL","KASTAMONU","TUR","20-01-22","""2020-01-22T12:50:00.000Z""","LTAL 221250Z 24008KT CAVOK 03/M03 Q1021 20-01-22",0,0,0,0,0,0,41.316944444444445,33.79611111111111
"LTAW","TOKAT","TUR","20-01-22","""2020-01-22T12:50:00.000Z""","LTAW 221250Z 31006KT 9999 BKN034 BKN090 03/M04 Q1026 20-01-22",0,0,0,0,0,0,40.31166666666666,36.37361111111111
"LTCP","ADIYAMAN","TUR","20-01-22","""2020-01-22T12:50:00.000Z""","LTCP 221250Z 03013KT CAVOK 09/M07 Q1018 20-01-22",0,0,0,0,0,0,37.73222222222223,38.469166666666666
"LTCK","MUS (MIL-CIV)","TUR","20-01-22","""2020-01-22T12:50:00.000Z""","LTCK 221250Z 35004KT CAVOK M05/M09 Q1019 20-01-22",0,0,0,0,0,0,38.74472222222222,41.66888888888889
"LTCU","BINGOL","TUR","20-01-22","""2020-01-22T12:50:00.000Z""","LTCU 221250Z 06012KT CAVOK 04/M08 Q1018 20-01-22",0,0,0,0,0,0,38.861111111111114,40.5925
"DTTR","EL BORMA","TUN","20-01-22","""2020-01-22T13:00:00.000Z""","DTTR 221300Z AUTO 12017KT NCD 21/02 Q1023 20-01-22",0,2,0,0,0,0,31.702777777777776,9.2575
"HDAM","AMBOULI","DJI","20-01-22","""2020-01-22T13:00:00.000Z""","HDAM 221300Z 07010KT 9999 FEW023 29/22 Q1012 20-01-22",0,0,0,0,0,0,11.547222222222222,43.159444444444446
"UAKD","ZHEZKAZGAN","KAZ","20-01-22","""2020-01-22T13:00:00.000Z""","UAKD 221300Z 21011MPS 1000 R22/P2000 SN BLSN OVC005 M05/M06 Q1016 R22/920050 NOSIG RMK QBB150 QFE729/0972 20-01-22",0,0,10,10,0,1,47.70916666666667,67.73833333333333
"UMOO","MAHILIOU","BLR","20-01-22","""2020-01-22T13:00:00.000Z""","UMOO 221300Z 30006G09MPS 9999 SCT006 BKN014CB 03/01 Q1003 R31/290162 NOSIG RMK QBB180 20-01-22",0,2,0,0,3.3,0,53.95527777777778,30.094166666666666
"RJOA","HIROSHIMA","JPN","20-01-22","""2020-01-22T13:00:00.000Z""","RJOA 221300Z 06006KT 3000 -RA BCFG BR FEW000 SCT015 BKN020 04/03 Q1024 20-01-22",0,0,0,0,0,0,34.43611111111111,132.91944444444442
"RJFY","KANOYA","JPN","20-01-22","""2020-01-22T12:49:00.000Z""","RJFY 221249Z 10004KT 070V130 9999 SCT006 BKN050 11/09 Q1023 RMK 4ST006 5SC050 A3022 20-01-22",0,0,0,0,0,0,31.368055555555557,130.83805555555557
"RJOT","TAKAMATSU","JPN","20-01-22","""2020-01-22T12:47:00.000Z""","RJOT 221247Z 06005KT 0500 R26/P2000N -RA FG FEW000 SCT002 BKN004 06/06 Q1025 RMK 1ST000 3ST002 5ST004 A3027 20-01-22",0,0,0,0,0,1,34.21416666666667,134.01555555555555
"VTSF","NAKHON SI THAMMARAT","THA","20-01-22","""2020-01-22T13:00:00.000Z""","VTSF 221300Z 00000KT 8000 FEW018 26/25 Q1013 NOSIG 20-01-22",0,0,0,0,0,0,8.539616666666667,99.944725
"VTSR","RANONG","THA","20-01-22","""2020-01-22T13:00:00.000Z""","VTSR 221300Z 08007KT 030V110 8000 SCT025 29/23 Q1013 NOSIG 20-01-22",0,0,0,0,0,0,9.777622222222224,98.58548333333333
"VTST","TRANG","THA","20-01-22","""2020-01-22T13:00:00.000Z""","VTST 221300Z 04006KT 9999 FEW020 28/23 Q1013 NOSIG 20-01-22",0,0,0,0,0,0,7.508616666666667,99.615775
"VTUW","NAKHON PHANOM","THA","20-01-22","""2020-01-22T13:00:00.000Z""","VTUW 221300Z 00000KT 7000 NSC 26/18 Q1013 NOSIG 20-01-22",0,0,0,0,0,0,17.38533888888889,104.6418888888889
"PAGM","GAMBELL","USA","20-01-22","""2020-01-22T12:56:00.000Z""","PAGM 221256Z AUTO 29015KT 10SM OVC014 M15/M17 A2968 RMK AO2 SLP056 T11501172 FZRANO 20-01-22",0,0,0,0,0,0,63.76661111111111,-171.73277777777778
"PAPO","POINT HOPE","USA","20-01-22","""2020-01-22T12:56:00.000Z""","PAPO 221256Z AUTO 30004KT 9SM -SN OVC013 M13/M15 A2967 RMK AO2 SNB15 SLP045 P0000 T11281150 FZRANO 20-01-22",0,0,6.7,7.5,0,0,68.34875,-166.79927777777777
"UMBB","BREST","BLR","20-01-22","""2020-01-22T13:30:00.000Z""","UMBB 221330Z 32010G15MPS 9999 OVC027CB 05/01 Q1016 R29/290050 NOSIG 20-01-22",0,2,0,0,4,0,52.108333333333334,23.89638888888889
"RJFO","OITA","JPN","20-01-22","""2020-01-22T13:24:00.000Z""","RJFO 221324Z VRB01KT 2500 -SHRA BR FEW005 SCT006 BKN008 10/10 Q1022 RMK 1ST005 3ST006 5ST008 A3018 20-01-22",0,0,3.3,0,0,1,33.47944444444445,131.73722222222221
"EEPU","PARNU","EST","20-01-22","""2020-01-22T13:50:00.000Z""","EEPU 221350Z 33011KT 300V360 9999 SCT035 02/M02 Q1010 20-01-22",0,0,0,0,0,0,58.41888888888889,24.472777777777775
"LGSK","SKIATHOS/ALEXANDROS PAPADIAMANDIS","GRC","20-01-22","""2020-01-22T13:50:00.000Z""","LGSK 221350Z 19004KT CAVOK 13/01 Q1028 20-01-22",0,0,0,0,0,0,39.177499999999995,23.503611111111113
"LTAS","ZONGULDAK/CAYCUMA","TUR","20-01-22","""2020-01-22T13:50:00.000Z""","LTAS 221350Z 35006KT 9999 FEW035 08/02 Q1026 20-01-22",0,0,0,0,0,0,41.50694444444444,32.08972222222222
"LTBO","USAK","TUR","20-01-22","""2020-01-22T13:50:00.000Z""","LTBO 221350Z 11010KT CAVOK 09/M16 Q1024 20-01-22",0,0,0,0,0,0,38.68138888888889,29.471666666666664
"LTCO","AGRI/AHMED-I HANI","TUR","20-01-22","""2020-01-22T13:50:00.000Z""","LTCO 221350Z 21001KT CAVOK M09/M13 Q1018 20-01-22",0,0,0,0,0,0,39.6475,43.02861111111111
"LTCR","MARDIN","TUR","20-01-22","""2020-01-22T13:50:00.000Z""","LTCR 221350Z 36008KT 310V040 CAVOK 10/M04 Q1015 20-01-22",0,0,0,0,0,0,37.23277777777778,40.64055555555556
"FAJB","JOHANNESBURG (CITY)","ZAF","20-01-22","""2020-01-22T14:00:00.000Z""","FAJB 221400Z AUTO 20009KT //// // ////// 28/09 Q1016 20-01-22",0,0,0,0,0,0,26.2666666666667,28.15
"FAWB","WONDERBOOM","ZAF","20-01-22","""2020-01-22T14:00:00.000Z""","FAWB 221400Z 30007KT CAVOK 41/27 Q1014 20-01-22",0,0,0,0,0,0,-25.65530833333333,28.22133611111111
"FDMS","MANZINI/MATSAPHA","SWZ","20-01-22","""2020-01-22T14:00:00.000Z""","FDMS 221400Z 03010KT 9999 BKN030 25/18 Q1011 NOSIG 20-01-22",0,0,0,0,0,0,-26.529999999999998,31.308333333333334
"FNMO","IBE/YURI GAGARIN","AGO","20-01-22","""2020-01-22T14:00:00.000Z""","FNMO 221400Z 27011KT 9999 SCT012 FEW014CB 28/21 Q1009 20-01-22",0,0,0,0,1.3,0,-15.259444444444444,12.148888888888889
"FWCL","BLANTYRE/CHILEKA","MWI","20-01-22","""2020-01-22T14:00:00.000Z""","FWCL 221400Z 19004KT 9999 FEW025 25/17 Q1012 NOSIG 20-01-22",0,0,0,0,0,0,-15.679722222222221,34.9675
"OICS","SANANDAJ","IRN","20-01-22","""2020-01-22T14:00:00.000Z""","OICS 221400Z 18006KT 6000 VCSH FEW030CB SCT035 OVC080 02/M00 Q1012 A2990 20-01-22",0,0,0,2.5,4,0,35.25083333333333,47.01111111111111
"RJFS","SAGA","JPN","20-01-22","""2020-01-22T14:00:00.000Z""","RJFS 221400Z 04003KT 360V080 1000 R29/2000N -SHRA BR FEW005 BKN020 09/09 Q1019 20-01-22",0,0,3.3,0,0,1,33.14972222222222,130.30222222222224
"VTUV","ROI ET","THA","20-01-22","""2020-01-22T14:00:00.000Z""","VTUV 221400Z 00000KT 7000 NSC 25/19 Q1013 NOSIG 20-01-22",0,0,0,0,0,0,16.11676111111111,103.77379722222223
"WIDD","BATAM/HANG NADIM","IDN","20-01-22","""2020-01-22T14:00:00.000Z""","WIDD 221400Z 02007KT 9999 FEW014 28/24 Q1014 NOSIG 20-01-22",0,0,0,0,0,0,1.1186111111111112,104.11388888888888
"PATQ","ATQASUK EDWARD BURNELL SR MEMORIAL","USA","20-01-22","""2020-01-22T13:56:00.000Z""","PATQ 221356Z AUTO 26014KT 9SM -SN CLR M19/M22 A2956 RMK AO2 SLP017 P0000 T11941217 FZRANO TSNO 20-01-22",0,0,6.7,10,0,0,70.46711111111111,-157.43566666666666
"KCLM","WILLIAM R. FAIRCHILD INTL","USA","20-01-22","""2020-01-22T14:14:00.000Z""","KCLM 221414Z AUTO 18003KT 10SM BKN016 02/02 A2996 RMK AO2 T00170017 20-01-22",0,0,0,2.5,0,0,48.120194444444444,-123.49969444444444
"EDXW","SYLT","DEU","20-01-22","""2020-01-22T14:20:00.000Z""","EDXW 221420Z 30010KT CAVOK 06/// Q1032 20-01-22",0,0,0,0,0,0,54.91163611111111,8.34238611111111
"TISX","HENRY E ROHLSEN","USA","20-01-22","""2020-01-22T14:53:00.000Z""","TISX 221453Z 13009KT 10SM FEW021 SCT028 BKN075 28/22 A2996 RMK AO2 SLP144 T02830217 51011 20-01-22",0,0,0,0,0,0,17.7015,-64.80166666666666
"EDAH","HERINGSDORF","DEU","20-01-22","""2020-01-22T14:50:00.000Z""","EDAH 221450Z 32006KT 270V350 CAVOK 06/03 Q1029 20-01-22",0,0,0,0,0,0,53.878705555555555,14.152347222222222
"ETOU","WIESBADEN AAF","DEU","20-01-22","""2020-01-22T14:56:00.000Z""","ETOU 221456Z 00000KT 0400 R25/P1500 FZFG CLR M02/M02 A3057 RMK AO2A VIS 0800V1600 SLP366 T10191022 58009 20-01-22",0,0,10,10,0,0,50.04982777777778,8.325436111111111
"ENNO","NOTODDEN/TUVEN","NOR","20-01-22","""2020-01-22T14:50:00.000Z""","ENNO 221450Z 00000KT CAVOK M00/M04 Q1029 20-01-22",0,0,0,0,0,0,59.565555555555555,9.212222222222222
"LIBF","FOGGIA/GINO LISA","ITA","20-01-22","""2020-01-22T14:50:00.000Z""","LIBF 221450Z 32008KT CAVOK 12/04 Q1031 20-01-22",0,0,0,0,0,0,41.43333333333333,15.534722222222221
"LKKU","KUNOVICE","CZE","20-01-22","""2020-01-22T15:00:00.000Z""","LKKU 221500Z 23003KT 7000 FEW014 SCT043 M02/M04 Q1030 20-01-22",0,0,0,2.5,0,0,49.029444444444444,17.439722222222223
"LOAN","WR. NEUSTADT/OST","AUT","20-01-22","""2020-01-22T15:00:00.000Z""","LOAN 221500Z 00000KT 15KM FEW300CI 20-01-22",0,0,0,0,0,0,47.843333333333334,16.260277777777777
"LTCT","IGDIR","TUR","20-01-22","""2020-01-22T14:50:00.000Z""","LTCT 221450Z 23005KT 210V270 9999 BKN100 01/M11 Q1020 20-01-22",0,0,0,0,0,0,39.98305555555556,43.86638888888889
"LTCV","SIRNAK/SERAFETTIN ELCI","TUR","20-01-22","""2020-01-22T14:50:00.000Z""","LTCV 221450Z 30012KT CAVOK 08/M02 Q1014 20-01-22",0,0,0,0,0,0,37.36388888888889,42.059999999999995
"GAMB","MOPTI/AMBODEDJO","MLI","20-01-22","""2020-01-22T15:00:00.000Z""","GAMB 221500Z 06010KT 5000 DU NSC 34/04 Q1011 20-01-22",0,0,0,0,0,0,14.508611111111112,-4.0841666666666665
"GANR","NIORO","MLI","20-01-22","""2020-01-22T15:00:00.000Z""","GANR 221500Z 04004KT CAVOK 34/09 Q1013 20-01-22",0,0,0,0,0,0,15.238763888888888,-9.576513888888888
"GFLL","FREETOWN/LUNGI","SLE","20-01-22","""2020-01-22T15:00:00.000Z""","GFLL 221500Z 12008KT 7000 HZ BKN012 29/22 Q1011 20-01-22",0,0,0,0,0,0,8.616458333333332,-13.195583333333333
"GGOV","BISSAU/OSWALDO VIEIRA INTL","GNB","20-01-22","""2020-01-22T15:00:00.000Z""","GGOV 221500Z 05005KT 030V100 CAVOK 33/09 Q1011 NOSIG 20-01-22",0,0,0,0,0,0,11.88886111111111,-15.655722222222222
"GOGK","KOLDA","SEN","20-01-22","""2020-01-22T15:00:00.000Z""","GOGK 221500Z 34006KT CAVOK 33/14 Q1011 20-01-22",0,0,0,0,0,0,12.9,-14.966666666666667
"GOOK","KAOLACK","SEN","20-01-22","""2020-01-22T15:00:00.000Z""","GOOK 221500Z 04004KT CAVOK 34/07 Q1011 20-01-22",0,0,0,0,0,0,14.14472222222222,-16.054444444444446
"GOSM","MATAM","SEN","20-01-22","""2020-01-22T15:00:00.000Z""","GOSM 221500Z 08004KT CAVOK 36/08 Q1011 20-01-22",0,0,0,0,0,0,15.59388888888889,-13.322222222222223
"GQPA","ATAR","MRT","20-01-22","""2020-01-22T15:00:00.000Z""","GQPA 221500Z 00000KT 8000 NSC 29/03 Q1016 20-01-22",0,0,0,0,0,0,20.498055555555556,-13.04861111111111
"DNPO","PORT HARCOURT","NGA","20-01-22","""2020-01-22T15:00:00.000Z""","DNPO 221500Z 03003KT 2000 HZ NSC 35/18 Q1007 NOSIG 20-01-22",0,0,0,0,0,0,5.015458333333333,6.9495305555555555
"DXSK","SOKODE","TGO","20-01-22","""2020-01-22T15:00:00.000Z""","DXSK 221500Z 08006KT 2500 HZ NSC 35/11 Q//// 20-01-22",0,0,0,0,0,0,8.9955556,1.1533333
"HAAB","ADDIS ABABA/BOLE COM/MET/NOF","ETH","20-01-22","""2020-01-22T15:00:00.000Z""","HAAB 221500Z 13006KT 9999 FEW025 22/07 Q1023 20-01-22",0,0,0,0,0,0,8.97503888888889,38.79939722222222
"HKML","MALINDI","KEN","20-01-22","""2020-01-22T15:00:00.000Z""","HKML 221500Z 09012KT CAVOK 29/24 Q1006 20-01-22",0,0,0,0,0,0,-3.22305,40.10049166666667
"HKMO","MOMBASA","KEN","20-01-22","""2020-01-22T15:00:00.000Z""","HKMO 221500Z 06012KT 9999 SCT024 BKN090 28/24 Q1006 NOSIG 20-01-22",0,0,0,0,0,0,-4.026277777777778,39.59906388888889
"HKWJ","WAJIR","KEN","20-01-22","""2020-01-22T15:00:00.000Z""","HKWJ 221500Z 04004KT CAVOK 36/13 Q1004 20-01-22",0,0,0,0,0,0,1.7331666666666667,40.091525000000004
"HRYR","KIGALI INTERNATIONAL AIRPORT","RWA","20-01-22","""2020-01-22T15:00:00.000Z""","HRYR 221500Z 27012KT 9999 FEW023CB BKN025 25/16 Q1015 NOSIG 20-01-22",0,0,0,0,1.3,0,-1.9684472222222222,30.13838611111111
"FMNN","NOSY-BE/FASCENE","MDG","20-01-22","""2020-01-22T15:00:00.000Z""","FMNN 221500Z 36008KT 9999 VCSH BKN020 30/25 Q1006 20-01-22",0,0,0,0,0,0,-13.318055555555555,48.30916666666666
"FMMS","SAINTE-MARIE","MDG","20-01-22","""2020-01-22T15:00:00.000Z""","FMMS 221500Z 21004KT 5000 -RA BKN017 OVC250 25/24 Q1006 20-01-22",0,0,0,0,0,0,-17.090277777777775,49.815555555555555
"FQBR","BEIRA","MOZ","20-01-22","""2020-01-22T15:00:00.000Z""","FQBR 221500Z 15009KT 9999 SCT018 29/21 Q1008 20-01-22",0,0,0,0,0,0,-19.795833333333334,34.90472222222222
"FTTD","MOUNDOU","TCD","20-01-22","""2020-01-22T15:00:00.000Z""","FTTD 221500Z 04008KT CAVOK 36/15 Q1011 20-01-22",0,0,0,0,0,0,8.620138888888889,16.06838888888889
"FTTC","ABECHE","TCD","20-01-22","""2020-01-22T15:00:00.000Z""","FTTC 221500Z 04012KT CAVOK 30/// Q1014 20-01-22",0,0,0,0,0,0,13.847222222222223,20.848888888888887
"FTTY","FAYA LARGEAU","TCD","20-01-22","""2020-01-22T15:00:00.000Z""","FTTY 221500Z 04012KT 6000 BLSA 25/13 Q1020 20-01-22",0,0,0,0,8,0,17.91607222222222,19.10886388888889
"FXMM","MASERU MOSHOESHOE I","LSO","20-01-22","""2020-01-22T15:00:00.000Z""","FXMM 221500Z 27008KT 9999 FEW035CB SCT035 26/07 Q1017 NOSIG 20-01-22",0,0,0,0,1.3,0,-29.454444444444444,27.55527777777778
"OEKM","KHAMIS MUSHAIT/KING KHALED AIR BASE","SAU","20-01-22","""2020-01-22T15:00:00.000Z""","OEKM 221500Z 23013KT CAVOK 14/11 Q1022 NOSIG 20-01-22",0,0,0,0,0,0,18.301111111111112,42.80083333333333
"OITZ","ZANJAN","IRN","20-01-22","""2020-01-22T15:00:00.000Z""","OITZ 221500Z 11012KT 7000 FEW025 SCT035 OVC070 M01/M03 Q1013 20-01-22",0,0,0,2.5,0,0,36.77472222222222,48.35916666666667
"OIBA","ABUMUSA ISLAND/ABUMUSA","IRN","20-01-22","""2020-01-22T15:00:00.000Z""","OIBA 221500Z 04006KT 6000 NSC 22/13 Q1015 20-01-22",0,0,0,0,0,0,25.87611111111111,55.031666666666666
"OIBJ","JAM","IRN","20-01-22","""2020-01-22T15:00:00.000Z""","OIBJ 221500Z 00000KT 7000 -RA FEW030CB OVC040 13/11 Q1019 20-01-22",0,0,0,0,1.3,0,27.821944444444444,52.352222222222224
"OIBQ","KHARK ISLAND/KHARK","IRN","20-01-22","""2020-01-22T15:00:00.000Z""","OIBQ 221500Z 20008KT 9999 SCT040 BKN100 20/15 Q1015 20-01-22",0,0,0,0,0,0,29.260277777777777,50.323888888888895
"OIBS","SIRRI ISLAND/SIRRI","IRN","20-01-22","""2020-01-22T15:00:00.000Z""","OIBS 221500Z 06010KT 9999 FEW025 22/14 Q1017 20-01-22",0,0,0,0,0,0,25.90833333333333,54.541666666666664
"OIBV","LAVAN ISLAND/LAVAN","IRN","20-01-22","""2020-01-22T15:00:00.000Z""","OIBV 221500Z 12010KT 8000 FEW030 SCT035 21/14 Q1016 20-01-22",0,0,0,0,0,0,26.810277777777777,53.35611111111111
"UKLR","RIVNE","UKR","20-01-22","""2020-01-22T15:00:00.000Z""","UKLR 221500Z 28008MPS 8000 -SN OVC010 00/00 Q1015 NOSIG 20-01-22",0,0,6.7,7.5,0,0,50.608333333333334,26.139722222222222
"UKON","MYKOLAIV","UKR","20-01-22","""2020-01-22T15:00:00.000Z""","UKON 221500Z 29006MPS CAVOK 08/M07 Q1012 R22/090075 NOSIG 20-01-22",0,0,0,0,0,0,47.0577778,31.9197222
"UMMG","HRODNA","BLR","20-01-22","""2020-01-22T15:00:00.000Z""","UMMG 221500Z 33009G13MPS 9999 BKN030 03/M03 Q1015 NOSIG 20-01-22",0,2,0,0,0,0,53.60194444444445,24.05388888888889
"RJAW","IWOTO","JPN","20-01-22","""2020-01-22T15:00:00.000Z""","RJAW 221500Z 11009KT 9999 FEW020 20/12 Q1024 RMK 2CU020 A3024 20-01-22",0,0,0,0,0,0,24.784166666666668,141.3227777777778
"RPLI","LAOAG, IIOCOS NORTE","PHL","20-01-22","""2020-01-22T15:00:00.000Z""","RPLI 221500Z 10003KT 9999 FEW018 23/22 Q1017 NOSIG RMK A3003 20-01-22",0,0,0,0,0,0,18.177775,120.53126388888889
"RPMZ","ZAMBOANGA, ZAMBOANGA","PHL","20-01-22","""2020-01-22T15:00:00.000Z""","RPMZ 221500Z VRB02KT 9999 FEW017 24/20 Q1014 RMK A2994 20-01-22",0,0,0,0,0,0,6.9224194444444445,122.05963333333332
"VTPP","PHITSANULOK","THA","20-01-22","""2020-01-22T15:00:00.000Z""","VTPP 221500Z 09002KT 4000 BR NSC 25/21 Q1013 NOSIG 20-01-22",0,0,0,0,0,0,16.782933333333332,100.279125
"VTSB","SURAT THANI","THA","20-01-22","""2020-01-22T15:00:00.000Z""","VTSB 221500Z 05005KT 8000 FEW020 26/23 Q1014 20-01-22",0,0,0,0,0,0,9.13613611111111,99.13904166666667
"VTSC","NARATHIWAT","THA","20-01-22","""2020-01-22T15:00:00.000Z""","VTSC 221500Z 10009KT 9999 FEW017 27/24 Q1014 NOSIG 20-01-22",0,0,0,0,0,0,6.523238888888889,101.74484166666667
"VTSM","SURA TAHNI/SAMUI","THA","20-01-22","""2020-01-22T15:00:00.000Z""","VTSM 221500Z 12008KT 9999 FEW020 28/25 Q1015 NOSIG 20-01-22",0,0,0,0,0,0,9.549166666666666,100.0625
"WALL","BALIKPAPAN/SEPINGGAN","IDN","20-01-22","""2020-01-22T15:00:00.000Z""","WALL 221500Z 01005KT 9000 SCT020 27/25 Q1012 20-01-22",0,0,0,0,0,0,-1.2674999999999998,116.8938888888889
"WATT","KUPANG/EL-TARI","IDN","20-01-22","""2020-01-22T15:00:00.000Z""","WATT 221500Z 33006KT 7000 -RA FEW015CB SCT016 BKN090 25/25 Q1012 NOSIG RMK CB TO SE AND NW 20-01-22",0,0,0,0,1.3,0,-10.177777777777777,123.66388888888889
"WIOO","PONTIANAK/SUPADIO","IDN","20-01-22","""2020-01-22T15:00:00.000Z""","WIOO 221500Z 06003KT 6000 FEW011CB BKN012 26/24 Q1012 NOSIG 20-01-22",0,0,0,0,1.3,0,-0.14805555555555555,109.40416666666667
"AGGH","HONIARA (HENDERSON)","SLB","20-01-22","""2020-01-22T15:00:00.000Z""","AGGH 221500Z 00000KT 9999 FEW014 25/23 Q1009 20-01-22",0,0,0,0,0,0,-9.421666666666667,160.05166666666668
"NVSG","LONGANA","VUT","20-01-22","""2020-01-22T15:00:00.000Z""","NVSG 221500Z AUTO 18004KT //// // NCD 26/21 Q1010 20-01-22",0,0,0,0,0,0,-15.3055556,167.9680556
"NVSC","SOLA","VUT","20-01-22","""2020-01-22T15:00:00.000Z""","NVSC 221500Z 00000KT 9999 BKN020 25/24 Q1009 20-01-22",0,0,0,0,0,0,-13.8530556,167.5372222
"NVSL","LAMAP","VUT","20-01-22","""2020-01-22T15:00:00.000Z""","NVSL 221500Z AUTO 20003KT //// // NCD ///// Q1010 20-01-22",0,0,0,0,0,0,-16.455,167.8266667
"NVSS","SANTO/PEKOA","VUT","20-01-22","""2020-01-22T15:00:00.000Z""","NVSS 221500Z 15004KT 9999 FEW020 26/20 Q1009 20-01-22",0,0,0,0,0,0,-15.505766666666666,167.22135833333334
"NVVA","ANEITYUM","VUT","20-01-22","""2020-01-22T15:00:00.000Z""","NVVA 221500Z 09003KT 9999 -SHRA FEW010 SCT018 OVC110 23/22 Q1010 20-01-22",0,0,3.3,0,0,0,-20.2491667,169.7708333
"NVVW","TANNA/WHITEGRASS","VUT","20-01-22","""2020-01-22T15:00:00.000Z""","NVVW 221500Z 00000KT 9999 FEW025 23/22 Q1009 20-01-22",0,0,0,0,0,0,-19.455,169.22333333333333
"KBLH","BLYTHE","USA","20-01-22","""2020-01-22T14:52:00.000Z""","KBLH 221452Z AUTO 34005KT 8SM BKN010 07/06 A3015 RMK AO2 SLP208 T00670056 53012 20-01-22",0,0,0,0,0,0,33.619166666666665,-114.71688888888889
"KNJK","EL CENTRO NAF","USA","20-01-22","""2020-01-22T14:56:00.000Z""","KNJK 221456Z 26006KT 10SM BKN250 07/03 A3016 RMK AO2 SLP229 T00720028 53009 20-01-22",0,0,0,0,0,0,32.82916666666667,-115.67166666666667
"KPOC","BRACKETT FIELD","USA","20-01-22","""2020-01-22T14:47:00.000Z""","KPOC 221447Z 10004KT 3SM BR FEW010 BKN016 OVC027 10/09 A3018 20-01-22",0,0,0,0,0,1,34.09166666666667,-117.78177777777778
"KSBD","SAN BERNARDINO INTL","USA","20-01-22","""2020-01-22T15:00:00.000Z""","KSBD 221500Z 00000KT 7SM OVC028 11/07 A3018 20-01-22",0,0,0,0,0,0,34.09536111111111,-117.23488888888889
"KSNS","SALINAS MUNI","USA","20-01-22","""2020-01-22T14:53:00.000Z""","KSNS 221453Z 13006KT 10SM OVC025 12/09 A3023 RMK VOR RWY13 20-01-22",0,0,0,0,0,0,36.66278611111111,-121.60636388888888
"KGED","SUSSEX COUNTY","USA","20-01-22","""2020-01-22T14:54:00.000Z""","KGED 221454Z AUTO VRB05KT 10SM CLR 01/M07 A3051 RMK AO2 SLP331 T00061067 50016 20-01-22",0,0,0,0,0,0,38.68763055555555,-75.35930277777777
"PHBK","BARKING SANDS PMRF","USA","20-01-22","""2020-01-22T14:56:00.000Z""","PHBK 221456Z AUTO 08006KT 10SM CLR 20/15 A3004 RMK AO2 SLP173 T02000150 56007 20-01-22",0,0,0,0,0,0,22.022772222222223,-159.78505833333332
"PHNG","KANEOHE BAY MCAS (MARION E. CARL FIELD)","USA","20-01-22","""2020-01-22T14:57:00.000Z""","PHNG 221457Z 00000KT 10SM FEW035 18/17 A3002 RMK AO2 SLP160 T01830172 56010 $ 20-01-22",0,0,0,0,0,0,21.450444444444443,-157.76716666666667
"PHJR","KALAELOA (JOHN RODGERS FIELD)","USA","20-01-22","""2020-01-22T14:53:00.000Z""","PHJR 221453Z AUTO 04004KT 10SM CLR 17/16 A3006 RMK AO2 SLP185 T01720156 56010 TSNO 20-01-22",0,0,0,0,0,0,21.30735277777778,-158.07030277777778
"KLDJ","LINDEN","USA","20-01-22","""2020-01-22T15:55:00.000Z""","KLDJ 221555Z AUTO 00000KT 10SM CLR 00/M10 A3051 RMK AO2 T10041097 20-01-22",0,0,0,0,0,0,40.617444444444445,-74.24458333333334
"KCLK","CLINTON RGNL","USA","20-01-22","""2020-01-22T15:55:00.000Z""","KCLK 221555Z AUTO 17016KT 4SM BR OVC003 04/04 A2991 RMK AO2 PNO TSNO 20-01-22",0,2,0,0,0,0,35.53827222222222,-98.93278611111111
"KMFV","ACCOMACK COUNTY","USA","20-01-22","""2020-01-22T14:55:00.000Z""","KMFV 221455Z AUTO 10SM CLR 01/M06 A3050 RMK AO2 T00111061 20-01-22",0,0,0,0,0,0,37.64688888888889,-75.76105555555556
"MPBO","BOCAS DEL TORO","PAN","20-01-22","""2020-01-22T15:00:00.000Z""","MPBO 221500Z 30012KT 9999 SCT016 BKN090 ///// Q1017 20-01-22",0,0,0,0,0,0,9.340833333333334,-82.25083333333333
"SVBM","BARQUISIMETO, LARA","VEN","20-01-22","""2020-01-22T15:00:00.000Z""","SVBM 221500Z 07006KT 9999 SCT016 28/19 Q1014 20-01-22",0,0,0,0,0,0,10.042222222222222,-69.36055555555555
"SVVA","VALENCIA, CARABOBO","VEN","20-01-22","""2020-01-22T15:00:00.000Z""","SVVA 221500Z /////KT 9999 SCT016 BKN250 30/21 Q1016 20-01-22",0,0,0,0,0,0,10.15,-67.923
"SLJE","SAN JOSE DE CHIQUITOS","BOL","20-01-22","""2020-01-22T15:00:00.000Z""","SLJE 221500Z 00000KT 9999 BKN008 OVC070 25/24 Q1013 20-01-22",0,0,0,0,0,0,-17.830833333333334,-60.74305555555556
"SBMD","ALMERIM/MONTE DOURADO,PA","BRA","20-01-22","""2020-01-22T15:00:00.000Z""","SBMD 221500Z 06004KT 9999 BKN017 BKN080 28/24 Q1013 20-01-22",0,0,0,0,0,0,-0.8897222222222222,-52.602222222222224
"BIVM","VESTMANNAEYJAR","ISL","20-01-22","""2020-01-22T15:00:00.000Z""","BIVM 221500Z 25024KT 9999 BKN023 06/02 Q1005 20-01-22",0,4,0,0,0,0,63.425,-20.279166666666665
"EDHK","KIEL-HOLTENAU","DEU","20-01-22","""2020-01-22T15:20:00.000Z""","EDHK 221520Z 29007KT 9999 FEW021 06/03 Q1031 20-01-22",0,0,0,0,0,0,54.379469444444446,10.145147222222223
"ENBV","BERLEVAG","NOR","20-01-22","""2020-01-22T15:20:00.000Z""","ENBV 221520Z 31036KT 1000 SHSN DRSN VV010 M04/M06 Q1000 20-01-22",0,8,10,10,0,0,70.87138888888889,29.034166666666668
"FNLU","LUANDA/4 DE FEVEREIRO","AGO","20-01-22","""2020-01-22T16:00:00.000Z""","FNLU 221600Z 21013KT 9999 FEW020 SCT080 31/24 Q1007 NOSIG 20-01-22",0,0,0,0,0,0,-8.855491666666666,13.23391111111111
"OJAQ","AQABA/KING HUSSEIN","JOR","20-01-22","""2020-01-22T16:00:00.000Z""","OJAQ 221600Z 00000KT 9999 BKN030 14/07 Q1023 NOSIG 20-01-22",0,0,0,0,0,0,29.611616666666666,35.01806388888889
"VCRI","MATTALA/MATTALA RAJAPAKSA INTERNATIONAL AIRPORT","LKA","20-01-22","""2020-01-22T15:10:00.000Z""","VCRI 221510Z 04007KT 9999 FEW270 26/26 Q1013 NOSIG 20-01-22",0,0,0,0,0,0,6.284466666666667,81.12412777777777
"PADK","ADAK","USA","20-01-22","""2020-01-22T15:56:00.000Z""","PADK 221556Z AUTO 17017KT 10SM OVC043 01/M06 A2973 RMK AO2 SLP066 T00111061 FZRANO 20-01-22",0,2,0,0,0,0,51.883580555555554,-176.64247777777777
"PAFM","AMBLER","USA","20-01-22","""2020-01-22T15:56:00.000Z""","PAFM 221556Z AUTO 03007KT 10SM OVC037 M23/M25 A2969 RMK AO2 SLP067 T12281250 FZRANO 20-01-22",0,0,0,0,0,0,67.10641666666666,-157.8575
"PAGN","ANGOON","USA","20-01-22","""2020-01-22T15:56:00.000Z""","PAGN 221556Z AUTO 00000KT 10SM -RA OVC025 01/01 A2956 RMK AO2 RAB00E24B47UPB24E47 SLP999 P0000 T00110006 FZRANO 20-01-22",0,0,0,2.5,0,0,57.5036111,-134.585
"PAKP","ANATUVUK PASS","USA","20-01-22","""2020-01-22T15:56:00.000Z""","PAKP 221556Z AUTO 00000KT 9SM -SN OVC018 M24/M27 A2945 RMK AO2 SLP055 P0000 T12441272 FZRANO 20-01-22",0,0,6.7,10,0,0,68.13361111111112,-151.7433333333333
"PANI","ANIAK","USA","20-01-22","""2020-01-22T15:56:00.000Z""","PANI 221556Z AUTO 23008KT 9SM -SN OVC012 M12/M14 A2974 RMK AO2 SLP075 P0000 T11221144 FZRANO 20-01-22",0,0,6.7,7.5,0,0,61.581583333333334,-159.54305555555555
"PALH","ANCHORAGE","USA","20-01-22","""2020-01-22T15:53:00.000Z""","PALH 221553Z 00000KT 9SM FEW011 OVC018 M08/M10 A2965 RMK AO2 SLP040 T10781100 20-01-22",0,0,0,2.5,0,0,61.181638888888884,-149.9665
"PAMR","MERRILL FIELD","USA","20-01-22","""2020-01-22T15:53:00.000Z""","PAMR 221553Z 00000KT 9SM -SN BKN013 OVC019 M08/M11 A2963 RMK AO2 SLP037 P0000 T10831111 $ 20-01-22",0,0,6.7,7.5,0,0,61.213544444444445,-149.84472222222223
"PANC","TED STEVENS ANCHORAGE INTL","USA","20-01-22","""2020-01-22T15:53:00.000Z""","PANC 221553Z 28003KT 10SM SCT017 BKN022 OVC090 M06/M09 A2963 RMK AO2 SLP037 T10611094 20-01-22",0,0,0,0,0,0,61.17415555555555,-149.9981861111111
"PAAK","ATKA","USA","20-01-22","""2020-01-22T15:56:00.000Z""","PAAK 221556Z AUTO 08016KT 10SM OVC042 01/M06 A2979 RMK AO2 SLP090 T00111061 FZRANO 20-01-22",0,2,0,0,0,0,52.22058333333334,-174.20619444444444
"PABL","BUCKLAND","USA","20-01-22","""2020-01-22T15:56:00.000Z""","PABL 221556Z AUTO 14004KT 10SM BKN027 OVC043 M19/M22 A2965 RMK AO2 SLP043 T11891217 FZRANO 20-01-22",0,0,0,0,0,0,65.98155555555556,-161.14913888888887
"PABV","BIRCHWOOD","USA","20-01-22","""2020-01-22T15:56:00.000Z""","PABV 221556Z AUTO 00000KT 9SM -SN OVC021 M11/M12 A2965 RMK AO2 SNB08 SLP049 P0000 T11061122 FZRANO 20-01-22",0,0,6.7,7.5,0,0,61.41596111111111,-149.50849444444444
"PANV","ANVIK","USA","20-01-22","""2020-01-22T15:56:00.000Z""","PANV 221556Z AUTO 09003KT 7SM -SN SCT031 SCT042 OVC065 M21/M23 A2967 RMK AO2 SLP204 P0000 T12111233 FZRANO TSNO 20-01-22",0,0,6.7,10,0,0,62.647333333333336,-160.19005555555555
"PARC","ARCTIC VILLAGE","USA","20-01-22","""2020-01-22T15:56:00.000Z""","PARC 221556Z AUTO 35003KT 9SM BKN080 OVC090 M29/M32 A2939 RMK AO2 SLP056 T12941322 FZRANO 20-01-22",0,0,0,0,0,0,68.11466944444444,-145.5794138888889
"PFKT","BREVIG MISSION","USA","20-01-22","""2020-01-22T15:56:00.000Z""","PFKT 221556Z AUTO 00000KT 3SM -SN BR BKN019 OVC024 M14/M16 A2963 RMK AO2 SLP035 P0000 T11391156 FZRANO 20-01-22",0,0,6.7,7.5,0,0,65.33133333333333,-166.4657222222222
"PABE","BETHEL","USA","20-01-22","""2020-01-22T15:53:00.000Z""","PABE 221553Z 24008KT 10SM CLR M18/M21 A2980 RMK AO2 SLP094 T11831206 $ 20-01-22",0,0,0,0,0,0,60.778555555555556,-161.8371666666667
"PABR","WILEY POST-WILL ROGERS MEMORIAL","USA","20-01-22","""2020-01-22T15:53:00.000Z""","PABR 221553Z 26006KT 10SM OVC080 M18/M21 A2955 RMK AO2 SLP009 T11831211 $ 20-01-22",0,0,0,0,0,0,71.28486111111111,-156.76858333333334
"PABT","BETTLES","USA","20-01-22","""2020-01-22T15:53:00.000Z""","PABT 221553Z 00000KT 9SM -SN OVC021 M23/M26 A2964 RMK AO2 SLP062 PCPN VRY LGT T12281256 20-01-22",0,0,6.7,10,0,0,66.91394444444445,-151.52905555555557
"PADE","DEERING","USA","20-01-22","""2020-01-22T16:11:00.000Z""","PADE 221611Z AUTO 00000KT 2 1/2SM -SN OVC029 M18/ A2961 RMK AO2 P0000 T1183 TSNO $ 20-01-22",0,0,6.7,0,0,0,66.06911111111111,-162.76705555555557
"PAVA","CHEVAK","USA","20-01-22","""2020-01-22T15:56:00.000Z""","PAVA 221556Z AUTO 00000KT 10SM BKN050 OVC065 M14/M16 A2974 RMK AO2 SLP075 T11391156 FZRANO 20-01-22",0,0,0,2.5,0,0,61.540844444444446,-165.60089166666666
"PFCL","CLARKS POINT","USA","20-01-22","""2020-01-22T15:56:00.000Z""","PFCL 221556Z AUTO 04003KT 1/2SM -SN FZFG OVC003 M14/M15 A2980 RMK AO2 SLP084 P0000 T11391150 FZRANO TSNO 20-01-22",0,0,10,10,0,1,58.83369444444445,-158.5293888888889
"PACZ","CAPE ROMANZOF LRRS","USA","20-01-22","""2020-01-22T15:55:00.000Z""","PACZ 221555Z 04005KT 10SM BKN050 M12/M15 A2968 RMK AO2A SLP067 RCRNR 20-01-22",0,0,0,0,0,0,61.781013888888886,-166.03957499999999
"PAEH","CAPE NEWENHAM LRRS","USA","20-01-22","""2020-01-22T15:55:00.000Z""","PAEH 221555Z VRB04KT 10SM OVC044 M08/M14 A2982 RMK AO2A SLP111 LSR15UP12DN 20-01-22",0,0,0,0,0,0,58.64815,-162.0638027777778
"PALU","CAPE LISBURNE LRRS","USA","20-01-22","""2020-01-22T15:55:00.000Z""","PALU 221555Z 00000KT 10SM -SN OVC010 M17/M18 A2970 RMK AO2A SLP057 LSR15 P DRY 20-01-22",0,0,6.7,10,0,0,68.87513333333332,-166.11110555555555
"PACD","COLD BAY","USA","20-01-22","""2020-01-22T15:53:00.000Z""","PACD 221553Z AUTO 01008KT 10SM CLR M07/M12 A2982 RMK AO2 SLP101 T10721117 TSNO $ 20-01-22",0,0,0,0,0,0,55.20526111111111,-162.72451944444444
"PACV","MERLE K (MUDHOLE) SMITH","USA","20-01-22","""2020-01-22T15:53:00.000Z""","PACV 221553Z 00000KT 10SM OVC055 M05/M07 A2952 RMK AO2 SLP998 T10501072 20-01-22",0,0,0,2.5,0,0,60.49177777777778,-145.47755555555557
"PASC","DEADHORSE","USA","20-01-22","""2020-01-22T15:53:00.000Z""","PASC 221553Z 23011KT 10SM CLR M24/M27 A2962 RMK AO2 SLP033 T12441272 20-01-22",0,0,0,0,0,0,70.19554444444445,-148.46578888888888
"PAEI","EIELSON AFB","USA","20-01-22","""2020-01-22T16:16:00.000Z""","PAEI 221616Z 00000KT 3SM -SN BKN010 OVC050 M21/M25 A2966 RMK SNE04SNB12 SLP065 $ 20-01-22",0,0,6.7,10,0,1,64.66564166666667,-147.10143888888888
"PAII","EGEGIK","USA","20-01-22","""2020-01-22T16:11:00.000Z""","PAII 221611Z AUTO 00000KT 1/4SM -SN FZFG OVC002 M12/M14 A2981 RMK AO2 SNB03 P0000 FZRANO 20-01-22",0,0,10,10,0,1,58.185488888888884,-157.3754277777778
"PADL","DILLINGHAM","USA","20-01-22","""2020-01-22T15:56:00.000Z""","PADL 221556Z 36003KT 10SM CLR M23/M26 A2980 RMK AO2 SLP096 T12331256 20-01-22",0,0,0,0,0,0,59.044666666666664,-158.5055
"PAED","ELMENDORF AFB","USA","20-01-22","""2020-01-22T15:56:00.000Z""","PAED 221556Z 00000KT 10SM OVC015 M09/M12 A2963 RMK SLP033 T10951117 20-01-22",0,0,0,0,0,0,61.251352777777775,-149.8065277777778
"PFEL","ELIM","USA","20-01-22","""2020-01-22T15:56:00.000Z""","PFEL 221556Z AUTO 00000KT 8SM -SN FEW022 OVC036 M14/M16 A2962 RMK AO2 SLP033 P0000 T11441161 FZRANO 20-01-22",0,0,6.7,7.5,0,0,64.61497222222222,-162.2705277777778
"PASY","EARECKSON AS","USA","20-01-22","""2020-01-22T15:55:00.000Z""","PASY 221555Z 10025G29KT 7SM FEW033 BKN049 BKN060 01/M01 A2945 RMK AO2A PK WND 09032/28 SHSNB41E53 SLP973 T00081012 RVRNO PNO FZRANO $ 20-01-22",0,6,0,2.5,0,0,52.71226111111111,174.11359444444443
"PABI","ALLEN AAF","USA","20-01-22","""2020-01-22T15:53:00.000Z""","PABI 221553Z 10003KT 1 3/4SM -SN BR OVC022 M18/M21 A2959 RMK AO2 SLP077 P0001 T11831206 20-01-22",0,0,6.7,10,0,0,63.994547222222224,-145.72164166666667
"PAEG","EAGLE","USA","20-01-22","""2020-01-22T15:53:00.000Z""","PAEG 221553Z AUTO 00000KT 10SM OVC033 M16/M18 A2957 RMK AO2 SLP038 T11561183 TSNO 20-01-22",0,0,0,0,0,0,64.77808333333333,-141.1496111111111
"PAGS","GUSTAVUS","USA","20-01-22","""2020-01-22T16:18:00.000Z""","PAGS 221618Z AUTO 00000KT 10SM UP BKN024 BKN028 OVC034 00/M01 A2957 RMK AO2 P0000 FZRANO 20-01-22",0,0,3.3,2.5,0,0,58.42527777777777,-135.70741666666666
"PAGK","GULKANA","USA","20-01-22","""2020-01-22T16:16:00.000Z""","PAGK 221616Z AUTO 00000KT 3SM -SN BKN011 OVC110 M21/M23 A2956 RMK AO2 P0000 T12061233 TSNO 20-01-22",0,0,6.7,10,0,1,62.154944444444446,-145.45433333333332
"PFYU","FORT YUKON","USA","20-01-22","""2020-01-22T16:12:00.000Z""","PFYU 221612Z 00000KT 10SM SCT007 M33/M37 A2969 RMK AO2 20-01-22",0,0,0,0,0,0,66.57241666666667,-145.24633333333333
"PAFB","LADD AAF","USA","20-01-22","""2020-01-22T15:58:00.000Z""","PAFB 221558Z AUTO 00000KT 10SM OVC080 M24/M27 A2969 RMK AO2 SLP075 T12411268 20-01-22",0,0,0,0,0,0,64.83651666666667,-147.61686666666668
"PAGA","EDWARD G. PITKA SR","USA","20-01-22","""2020-01-22T15:56:00.000Z""","PAGA 221556Z AUTO 00000KT 6SM -SN BKN035 OVC041 M24/M27 A2971 RMK AO2 SLP066 P0000 T12391267 FZRANO 20-01-22",0,0,6.7,10,0,0,64.73617777777778,-156.9374138888889
"PAGL","GOLOVIN","USA","20-01-22","""2020-01-22T15:56:00.000Z""","PAGL 221556Z AUTO 30006KT 9SM -SN FEW021 OVC036 A2963 RMK AO2 SLPNO P0000 FZRANO $ 20-01-22",0,0,6.7,0,0,0,64.55044444444444,-163.00716666666668
"PAFA","FAIRBANKS INTL","USA","20-01-22","""2020-01-22T15:53:00.000Z""","PAFA 221553Z 00000KT 10SM FEW022 BKN050 OVC100 M23/M27 A2968 RMK AO2 SLP068 T12281267 20-01-22",0,0,0,0,0,0,64.81510833333333,-147.85644722222222
"PAHL","HUSLIA","USA","20-01-22","""2020-01-22T16:18:00.000Z""","PAHL 221618Z AUTO 00000KT 5SM -SN BKN020 OVC065 M25/M28 A2969 RMK AO2 P0000 FZRANO 20-01-22",0,0,6.7,10,0,0,65.69786111111111,-156.3513888888889
"PAIL","ILIAMNA","USA","20-01-22","""2020-01-22T16:10:00.000Z""","PAIL 221610Z 34003KT 10SM BKN006 OVC014 M20/M22 A2977 RMK AO2 T12001222 20-01-22",0,0,0,0,0,0,59.75557777777778,-154.91774999999998
"PAHP","HOOPER BAY","USA","20-01-22","""2020-01-22T15:56:00.000Z""","PAHP 221556Z AUTO 03003KT 10SM FEW050 M13/M14 A2973 RMK AO2 SLP068 T11281144 FZRANO 20-01-22",0,0,0,2.5,0,0,61.52386111111111,-166.1466111111111
"PAIG","IGIUGIG","USA","20-01-22","""2020-01-22T15:56:00.000Z""","PAIG 221556Z AUTO 00000KT 1/2SM FZFG OVC002 M17/M18 A2979 RMK AO2 SNE31 SLP098 P0000 T11671183 FZRANO $ 20-01-22",0,0,10,10,0,1,59.32404166666667,-155.90177222222223
"PAOH","HOONAH","USA","20-01-22","""2020-01-22T15:56:00.000Z""","PAOH 221556Z AUTO 10004KT 8SM -SN BKN007 BKN027 OVC038 01/01 A2955 RMK AO2 SLP008 P0002 T00060006 FZRANO 20-01-22",0,0,6.7,7.5,0,0,58.09619722222222,-135.40875555555556
"PAIM","INDIAN MOUNTAIN LRRS","USA","20-01-22","""2020-01-22T15:55:00.000Z""","PAIM 221555Z AUTO 00000KT 8SM -SN FEW021 OVC033 M24/M26 A2955 RMK AO2 SNB1440 SLP069 T12371265 20-01-22",0,0,6.7,10,0,0,65.99277222222223,-153.70348888888887
"PAHN","HAINES","USA","20-01-22","""2020-01-22T15:54:00.000Z""","PAHN 221554Z AUTO 29011KT 10SM OVC034 M04/M06 A2958 RMK SLP020 T10391056 TSNO VIA AUTODIAL 20-01-22",0,0,0,2.5,0,0,59.24382777777778,-135.52353611111113
"PAHO","HOMER","USA","20-01-22","""2020-01-22T15:53:00.000Z""","PAHO 221553Z 04004KT 10SM OVC018 M09/M11 A2962 RMK AO2 SLP033 T10941106 20-01-22",0,0,0,2.5,0,0,59.64499444444444,-151.48580833333332
"PAIK","BOB BAKER MEMORIAL","USA","20-01-22","""2020-01-22T16:17:00.000Z""","PAIK 221617Z AUTO 00000KT 9SM -SN SCT021 BKN037 OVC100 M22/M24 A2968 RMK AO2 P0000 FZRANO 20-01-22",0,0,6.7,10,0,0,66.97595277777778,-160.43653333333333
"PAKN","KING SALMON","USA","20-01-22","""2020-01-22T16:17:00.000Z""","PAKN 221617Z AUTO 11003KT 1 1/2SM BR OVC004 M13/M15 A2976 RMK AO2 T11331150 TSNO $ 20-01-22",0,0,0,7.5,0,1,58.676491666666664,-156.64868888888887
"PAFE","KAKE","USA","20-01-22","""2020-01-22T16:13:00.000Z""","PAFE 221613Z AUTO 09008KT 10SM -RA FEW016 BKN030 OVC036 04/03 A2957 RMK AO2 P0000 20-01-22",0,0,0,0,0,0,56.96136111111112,-133.9102611111111
"PAVC","KING COVE","USA","20-01-22","""2020-01-22T15:56:00.000Z""","PAVC 221556Z AUTO 00000KT 10SM CLR M08/M12 A2983 RMK AO2 SLP103 T10831122 FZRANO 20-01-22",0,0,0,0,0,0,55.116347222222224,-162.26624722222223
"PAEN","KENAI MUNI","USA","20-01-22","""2020-01-22T15:53:00.000Z""","PAEN 221553Z 11004KT 10SM OVC011 01/M11 A2964 RMK AO2 SLP041 T00061111 $ 20-01-22",0,0,0,0,0,0,60.57327777777778,-151.24483333333333
"PAJN","JUNEAU INTL","USA","20-01-22","""2020-01-22T15:53:00.000Z""","PAJN 221553Z 00000KT 1 3/4SM -SN BR BKN004 BKN008 OVC016 01/M01 A2956 RMK AO2 SLP011 P0004 T00061006 20-01-22",0,0,6.7,7.5,0,1,58.354711111111115,-134.57846944444444
"PAKT","KETCHIKAN INTL","USA","20-01-22","""2020-01-22T15:53:00.000Z""","PAKT 221553Z COR 12022G27KT 10SM -RA OVC025 06/03 A2960 RMK HARBOR WIND 11024KT 20-01-22",0,6,0,0,0,0,55.354083333333335,-131.7112222222222
"PAKV","KALTAG","USA","20-01-22","""2020-01-22T15:53:00.000Z""","PAKV 221553Z AUTO 00000KT 8SM OVC043 M23/M26 A2972 RMK AO2 SLP072 T12281256 TSNO $ 20-01-22",0,0,0,0,0,0,64.31897777777777,-158.74130555555556
"PAKK","KOYUK ALFRED ADAMS","USA","20-01-22","""2020-01-22T16:13:00.000Z""","PAKK 221613Z AUTO 05003KT 1 3/4SM -SN BR FEW013 OVC020 M15/M17 A2959 RMK AO2 P0000 FZRANO 20-01-22",0,0,6.7,10,0,1,64.93952777777778,-161.1542777777778
"PAIN","MCKINLEY","USA","20-01-22","""2020-01-22T15:56:00.000Z""","PAIN 221556Z AUTO 00000KT 3SM -SN BR FEW034 BKN047 OVC055 M18/M20 A2952 RMK AO2 SNE11B39 SLP061 P0000 T11781200 FZRANO 20-01-22",0,0,6.7,10,0,0,63.732597222222225,-148.9106361111111
"PAJZ","KOLIGANEK","USA","20-01-22","""2020-01-22T15:56:00.000Z""","PAJZ 221556Z AUTO 34003KT 3/4SM BR OVC003 M27/M29 A2984 RMK AO2 SLP112 T12671289 FZRANO $ 20-01-22",0,0,0,10,0,1,59.72674166666667,-157.26028055555557
"PADQ","KODIAK","USA","20-01-22","""2020-01-22T15:53:00.000Z""","PADQ 221553Z 30006KT 10SM CLR M04/M09 A2964 RMK AO2 SLP037 T10441089 20-01-22",0,0,0,0,0,0,57.749966666666666,-152.49379444444443
"PAKW","KLAWOCK","USA","20-01-22","""2020-01-22T15:53:00.000Z""","PAKW 221553Z AUTO 02004KT 10SM -RA OVC038 04/03 A2953 RMK RAB12E25B33 SLP000 P0001 T00390028 TSNO VIA AUTODIAL 20-01-22",0,0,0,0,0,0,55.579233333333335,-133.0759972222222
"PAMC","MC GRATH","USA","20-01-22","""2020-01-22T15:53:00.000Z""","PAMC 221553Z AUTO VRB03KT 10SM OVC055 M29/M32 A2974 RMK AO2 SNE44 SLP089 P0000 T12941322 TSNO $ 20-01-22",0,0,0,0,0,0,62.952783333333336,-155.6070472222222
"PAOT","RALPH WIEN MEMORIAL ","USA","20-01-22","""2020-01-22T15:53:00.000Z""","PAOT 221553Z 05005KT 10SM SCT038 BKN060 OVC075 M20/M22 A2964 RMK AO2 SNE26 SLP037 P0000 T12001222 $ 20-01-22",0,0,0,0,0,0,66.88480555555556,-162.5981388888889
"PAVL","KIVALINA","USA","20-01-22","""2020-01-22T15:53:00.000Z""","PAVL 221553Z AUTO 03005KT 10SM FEW042 BKN085 OVC110 M22/M24 A2965 RMK AO2 SLP041 T12171239 TSNO $ 20-01-22",0,0,0,0,0,0,67.73613888888889,-164.5635
"PAKU","KUPARUK","USA","20-01-22","""2020-01-22T15:45:00.000Z""","PAKU 221545Z 18009KT 10SM R06/P6000FT FEW210 M24/M27 A2962 20-01-22",0,0,0,0,0,0,70.33066666666666,-149.59805555555556
"PANW","NEW STUYAHOK","USA","20-01-22","""2020-01-22T16:13:00.000Z""","PANW 221613Z AUTO 02006KT 4SM BR OVC002 M25/M27 A2978 RMK AO2 FZRANO 20-01-22",0,0,0,10,0,0,59.451527777777784,-157.37316666666666
"PAMO","MOUNTAIN VILLAGE","USA","20-01-22","""2020-01-22T16:02:00.000Z""","PAMO 221602Z AUTO 27010KT 10SM CLR M15/M17 A2971 RMK AO2 SNE1509 SLP072 P0000 T11501167 FZRANO 20-01-22",0,0,0,0,0,0,62.09477777777778,-163.6828611111111
"PAMH","MINCHUMINA","USA","20-01-22","""2020-01-22T15:56:00.000Z""","PAMH 221556Z AUTO 00000KT 10SM BKN060 M31/M34 A2967 RMK AO2 SLP069 T13111339 FZRANO 20-01-22",0,0,0,0,0,0,63.88597222222222,-152.30183333333335
"PAMM","METLAKATLA","USA","20-01-22","""2020-01-22T15:56:00.000Z""","PAMM 221556Z AUTO 11005KT 10SM OVC027 07/03 A2961 RMK AO2 RAB37E47 SLP019 P0000 T00720028 $ 20-01-22",0,0,0,0,0,0,55.1310276666667,-131.578055666667
"PAMY","MEKORYUK","USA","20-01-22","""2020-01-22T15:56:00.000Z""","PAMY 221556Z AUTO 10SM FEW015 SCT022 BKN085 M08/M08 A2971 RMK AO2 SNE47 SLPNO P0000 T10781083 FZRANO $ 20-01-22",0,0,0,2.5,0,0,60.37238888888889,-166.27019444444446
"PANA","NAPAKIAK","USA","20-01-22","""2020-01-22T15:56:00.000Z""","PANA 221556Z AUTO 00000KT 10SM CLR M19/M22 A2981 RMK AO2 SLP093 T11941217 PWINO FZRANO 20-01-22",0,0,0,0,0,0,60.69033333333333,-161.9785
"PAOU","NELSON LAGOON","USA","20-01-22","""2020-01-22T15:56:00.000Z""","PAOU 221556Z AUTO 05017KT 10SM FEW033 M03/M08 A2984 RMK AO2 SLP104 T10281078 FZRANO 20-01-22",0,2,0,0,0,0,56.00753611111111,-161.16036666666668
"PANN","NENANA MUNI","USA","20-01-22","""2020-01-22T15:53:00.000Z""","PANN 221553Z AUTO 00000KT 10SM CLR M30/M34 A2968 RMK AO2 SLP070 T13001339 TSNO 20-01-22",0,0,0,0,0,0,64.54732777777778,-149.073975
"PAMD","MIDDLETON ISLAND","USA","20-01-22","""2020-01-22T15:51:00.000Z""","PAMD 221551Z AUTO 26006KT 10SM BKN031 M01/M03 A2951 RMK AO2 SLP981 T10061028 FZRANO 20-01-22",0,0,0,2.5,0,0,59.44994166666666,-146.3072388888889
"PAAQ","PALMER MUNI","USA","20-01-22","""2020-01-22T16:02:00.000Z""","PAAQ 221602Z AUTO 35005KT 10SM BKN028 OVC060 M12/M13 A2963 RMK AO2 T11171133 TSNO 20-01-22",0,0,0,2.5,0,0,61.59491388888889,-149.0887111111111
"PAFS","NIKOLAI","USA","20-01-22","""2020-01-22T16:01:00.000Z""","PAFS 221601Z AUTO 00000KT 9SM -SN SCT040 SCT050 OVC065 M31/M34 A2973 RMK AO2 SLP092 P0000 T13061339 FZRANO 20-01-22",0,0,6.7,10,0,0,63.01855555555556,-154.35844444444444
"PAWN","NOATAK","USA","20-01-22","""2020-01-22T15:56:00.000Z""","PAWN 221556Z AUTO 36005KT 6SM -SN FEW032 BKN060 OVC070 M24/M27 A2968 RMK AO2 SLP066 P0000 T12441272 FZRANO 20-01-22",0,0,6.7,10,0,0,67.56116666666667,-162.98041666666666
"PAPG","PETERSBURG JAMES A JOHNSON","USA","20-01-22","""2020-01-22T15:56:00.000Z""","PAPG 221556Z 34007KT 10SM FEW004 BKN025 OVC034 01/01 A2958 20-01-22",0,0,0,2.5,0,0,56.801472222222216,-132.94622222222222
"PAOR","NORTHWAY","USA","20-01-22","""2020-01-22T15:53:00.000Z""","PAOR 221553Z 00000KT 10SM FEW020 SCT040 BKN060 M30/M33 A2956 RMK AO2 SLP094 T13001333 PNO 20-01-22",0,0,0,0,0,0,62.96116666666667,-141.92808333333332
"PAQT","NUIQSUT","USA","20-01-22","""2020-01-22T15:53:00.000Z""","PAQT 221553Z AUTO 21011KT 10SM CLR M26/M27 A2963 RMK AO2 SLP035 T12561272 TSNO PNO 20-01-22",0,0,0,0,0,0,70.20983333333334,-151.00647222222221
"PAOM","NOME","USA","20-01-22","""2020-01-22T15:53:00.000Z""","PAOM 221553Z AUTO 00000KT 10SM OVC049 M14/M17 A2961 RMK AO2 SNE32 SLP028 P0000 T11441167 TSNO $ 20-01-22",0,0,0,0,0,0,64.51255,-165.44436944444445
"PAPH","PORT HEIDEN","USA","20-01-22","""2020-01-22T16:09:00.000Z""","PAPH 221609Z AUTO 36010KT 10SM SCT026 M07/M10 A2979 RMK AO2 FZRANO 20-01-22",0,0,0,0,0,0,56.9591,-158.6333611111111
"PAPM","PLATINUM","USA","20-01-22","""2020-01-22T15:56:00.000Z""","PAPM 221556Z AUTO 12007KT 10SM SCT055 M14/M16 A2985 RMK AO2 SLP109 T11441161 FZRANO 20-01-22",0,0,0,2.5,0,0,59.017830555555555,-161.82719166666666
"PAPN","PILOT POINT","USA","20-01-22","""2020-01-22T15:56:00.000Z""","PAPN 221556Z AUTO 33006KT 4SM BR CLR M11/M12 A2979 RMK AO2 SLP104 T11061122 PWINO FZRANO $ 20-01-22",0,0,0,7.5,0,0,57.58038055555556,-157.57195555555555
"PAQH","QUINHAGAK","USA","20-01-22","""2020-01-22T15:56:00.000Z""","PAQH 221556Z AUTO 12008KT 10SM CLR M21/M23 A2983 RMK AO2 SNE25 SLP102 P0000 T12061228 FZRANO 20-01-22",0,0,0,0,0,0,59.755094444444445,-161.84536666666668
"PADG","RED DOG","USA","20-01-22","""2020-01-22T16:10:00.000Z""","PADG 221610Z 00000KT 7SM -IC FEW040 M22/M25 A2956 20-01-22",0,0,0,10,0,0,68.0321111111111,-162.89919444444445
"PASM","SAINT MARY'S","USA","20-01-22","""2020-01-22T16:02:00.000Z""","PASM 221602Z AUTO 25005KT 10SM SCT018 M16/M18 A2972 RMK AO2 FZRANO 20-01-22",0,0,0,0,0,0,62.06083333333333,-163.30183333333335
"PACM","SCAMMON BAY","USA","20-01-22","""2020-01-22T15:56:00.000Z""","PACM 221556Z AUTO 21009KT 10SM CLR M12/M14 A2976 RMK AO2 SLP073 T11171144 FZRANO 20-01-22",0,0,0,2.5,0,0,61.84454166666667,-165.57375
"PARS","RUSSIAN MISSION","USA","20-01-22","""2020-01-22T15:56:00.000Z""","PARS 221556Z AUTO 26005KT 7SM -SN OVC022 M14/M16 A2973 RMK AO2 SLP072 P0000 T11441161 FZRANO $ 20-01-22",0,0,6.7,7.5,0,0,61.77488888888889,-161.31938888888888
"PARY","RUBY","USA","20-01-22","""2020-01-22T15:56:00.000Z""","PARY 221556Z AUTO 07007KT 10SM OVC044 M26/M29 A2965 RMK AO2 SNE31 SLP068 P0000 T12611294 FZRANO 20-01-22",0,0,0,0,0,0,64.72721111111112,-155.4698888888889
"PASD","SAND POINT","USA","20-01-22","""2020-01-22T15:56:00.000Z""","PASD 221556Z 35014KT 10SM CLR M03/M09 A2979 RMK AO2 SLP090 T10331089 20-01-22",0,0,0,0,0,0,55.313694444444444,-160.52141666666668
"PASK","SELAWIK","USA","20-01-22","""2020-01-22T15:56:00.000Z""","PASK 221556Z AUTO 06014KT 9SM -SN OVC041 M21/M23 A2968 RMK AO2 SNB24 SLP047 T12111233 FZRANO 20-01-22",0,0,6.7,10,0,0,66.60013888888888,-159.98575
"PASO","SELDOVIA","USA","20-01-22","""2020-01-22T15:53:00.000Z""","PASO 221553Z AUTO 00000KT 10SM OVC027 M08/M09 A2962 RMK AO2 SLP030 T10781094 TSNO 20-01-22",0,0,0,2.5,0,0,59.44390555555555,-151.70504166666666
"PAWD","SEWARD","USA","20-01-22","""2020-01-22T15:53:00.000Z""","PAWD 221553Z AUTO 36019G30KT 10SM CLR M08/M12 A2958 RMK AO2 PK WND 35030/1549 SLP018 T10831117 TSNO $ 20-01-22",0,4,0,0,0,0,60.13008055555556,-149.41684444444442
"PAHX","SHAGELUK","USA","20-01-22","""2020-01-22T16:23:00.000Z""","PAHX 221623Z AUTO 22004KT 10SM SCT011 BKN026 OVC031 M21/M23 A2974 RMK AO2 PWINO FZRANO 20-01-22",0,0,0,0,0,0,62.69230555555555,-159.5692222222222
"PASV","SPARREVOHN LRRS","USA","20-01-22","""2020-01-22T16:18:00.000Z""","PASV 221618Z AUTO 00000KT 10SM -SN BKN014 OVC065 M15/M17 A2960 RMK AO2 SLP080 20-01-22",0,0,6.7,10,0,0,61.09711388888889,-155.57480833333332
"PAGH","SHUNGNAK","USA","20-01-22","""2020-01-22T15:56:00.000Z""","PAGH 221556Z AUTO 11013KT 10SM FEW039 SCT055 M22/M25 A2967 RMK AO2 SLP058 T12221250 FZRANO 20-01-22",0,0,0,0,0,0,66.888075,-157.16240000000002
"PASX","SOLDOTNA","USA","20-01-22","""2020-01-22T15:56:00.000Z""","PASX 221556Z AUTO 00000KT 3SM BR CLR M14/M17 A2966 RMK AO2 SLP055 T11441167 FZRANO 20-01-22",0,0,0,7.5,0,0,60.47513888888889,-151.03963888888887
"PAGY","SKAGWAY","USA","20-01-22","""2020-01-22T15:53:00.000Z""","PAGY 221553Z AUTO 00000KT 10SM BKN038 OVC045 M02/M04 A2959 RMK SLP021 T10221039 TSNO VIA AUTODIAL 20-01-22",0,0,0,2.5,0,0,59.460061111111116,-135.3156638888889
"PAPB","SAINT GEORGE","USA","20-01-22","""2020-01-22T15:53:00.000Z""","PAPB 221553Z AUTO 35003KT 10SM CLR M12/M13 A2986 RMK AO2 SLP100 T11171133 TSNO 20-01-22",0,0,0,2.5,0,0,56.57736111111112,-169.66372222222222
"PASI","SITKA ROCKY GUTIERREZ","USA","20-01-22","""2020-01-22T15:53:00.000Z""","PASI 221553Z 00000KT 10SM SCT046 OVC060 03/02 A2947 RMK AO2 SLP981 T00280022 20-01-22",0,0,0,0,0,0,57.04683333333333,-135.36106666666666
"PAOO","TOKSOOK BAY","USA","20-01-22","""2020-01-22T16:24:00.000Z""","PAOO 221624Z AUTO 07011KT 1 1/2SM -SN BR OVC016 M09/M11 A2976 RMK AO2 P0000 FZRANO TSNO 20-01-22",0,0,6.7,7.5,0,0,60.541333333333334,-165.08719444444446
"PATE","TELLER","USA","20-01-22","""2020-01-22T16:22:00.000Z""","PATE 221622Z AUTO 23007KT 9SM -SN BKN010 OVC020 M13/M14 A2958 RMK AO2 P0000 FZRANO 20-01-22",0,0,6.7,7.5,0,0,65.24038888888889,-166.3393888888889
"PAMK","ST MICHAEL","USA","20-01-22","""2020-01-22T15:56:00.000Z""","PAMK 221556Z AUTO 18007KT 8SM -SN OVC030 M13/M14 A2965 RMK AO2 SLP042 P0000 T11281139 FZRANO 20-01-22",0,0,6.7,7.5,0,0,63.49005555555556,-162.11038888888888
"PAUN","UNALAKLEET","USA","20-01-22","""2020-01-22T15:56:00.000Z""","PAUN 221556Z AUTO 08011KT 9SM -SN BKN018 OVC037 M16/M18 A2967 RMK AO2 SLP051 P0000 T11561183 FZRANO 20-01-22",0,0,6.7,10,0,0,63.8885,-160.7991111111111
"PATL","TATALINA LRRS","USA","20-01-22","""2020-01-22T15:55:00.000Z""","PATL 221555Z AUTO 03001KT 6SM -SN OVC026 M25/M27 A2967 RMK AO2 SHSNB1455E1506 SLP099 P0000 T12531275 20-01-22",0,0,6.7,10,0,0,62.89490833333333,-155.9780388888889
"PASN","ST PAUL ISLAND","USA","20-01-22","""2020-01-22T15:53:00.000Z""","PASN 221553Z AUTO 27003KT 10SM CLR M09/M12 A2983 RMK AO2 SLP104 T10941122 TSNO $ 20-01-22",0,0,0,0,0,0,57.16630555555555,-170.22255555555554
"PATC","TIN CITY LRRS","USA","20-01-22","""2020-01-22T15:53:00.000Z""","PATC 221553Z 05010KT 10SM -SN BKN048 M16/M18 A2958 RMK AO2A SLP026 20-01-22",0,0,6.7,10,0,0,65.564025,-167.92251944444445
"PATK","TALKEETNA","USA","20-01-22","""2020-01-22T15:53:00.000Z""","PATK 221553Z AUTO 00000KT 10SM OVC009 M11/M13 A2963 RMK AO2 SLP041 T11061133 TSNO $ 20-01-22",0,0,0,2.5,0,0,62.321361111111116,-150.09272222222222
"PATA","RALPH M CALHOUN MEMORIAL","USA","20-01-22","""2020-01-22T15:52:00.000Z""","PATA 221552Z 03003KT 10SM CLR M36/ A2975 RMK AO2 SLP086 T1361 20-01-22",0,0,0,0,0,0,65.1743888888889,-152.1081111111111
"PADU","UNALASKA","USA","20-01-22","""2020-01-22T15:56:00.000Z""","PADU 221556Z 00000KT 10SM CLR M02/M09 A2986 RMK AO2 SLP115 T10221094 20-01-22",0,0,0,0,0,0,53.898944444444446,-166.5450277777778
"PAVD","VALDEZ PIONEER FIELD","USA","20-01-22","""2020-01-22T15:56:00.000Z""","PAVD 221556Z 00000KT 4SM -SN BR FEW002 BKN040 OVC060 M06/M08 A2961 RMK AO2 SNB35 SLP027 P0000 T10561078 20-01-22",0,0,6.7,7.5,0,0,61.13421388888889,-146.2447611111111
"PAWG","WRANGELL","USA","20-01-22","""2020-01-22T15:56:00.000Z""","PAWG 221556Z 08008KT 10SM -RA SCT020 BKN035 OVC055 04/03 A2961 RMK AO2 RAE04B21 SLP026 P0000 T00440033 20-01-22",0,0,0,0,0,0,56.48433333333333,-132.36983333333333
"PAWM","WHITE MOUNTAIN","USA","20-01-22","""2020-01-22T15:56:00.000Z""","PAWM 221556Z AUTO 00000KT 7SM -SN BKN030 OVC050 M15/M17 A2961 RMK AO2 SLP035 P0000 T11501167 FZRANO 20-01-22",0,0,6.7,10,0,0,64.68919444444445,-163.41275000000002
"PAWS","WASILLA","USA","20-01-22","""2020-01-22T15:56:00.000Z""","PAWS 221556Z AUTO 00000KT 9SM -SN FEW008 OVC020 M10/M12 A2964 RMK AO2 SLP046 P0000 T11001117 FZRANO 20-01-22",0,0,6.7,7.5,0,0,61.57165833333334,-149.54029444444444
"PAYA","YAKUTAT","USA","20-01-22","""2020-01-22T15:53:00.000Z""","PAYA 221553Z AUTO 08003KT 10SM BKN055 OVC100 01/00 A2952 RMK AO2 RAB01E37SNE01 SLP996 P0001 T00060000 TSNO $ 20-01-22",0,0,0,2.5,0,0,59.503305555555556,-139.66025000000002
"KALX","THOMAS C RUSSELL FLD","USA","20-01-22","""2020-01-22T16:15:00.000Z""","KALX 221615Z AUTO 06008KT 10SM CLR 03/M09 A3037 RMK AO2 T00291093 20-01-22",0,0,0,0,0,0,32.91475,-85.96294444444445
"KAUO","AUBURN UNIVERSITY RGNL","USA","20-01-22","""2020-01-22T15:56:00.000Z""","KAUO 221556Z AUTO 06009G15KT 10SM CLR 03/M09 A3035 RMK AO2 SLP306 T00281094 20-01-22",0,2,0,0,0,0,32.615116666666665,-85.4340138888889
"KOZR","CAIRNS AAF (FORT RUCKER)","USA","20-01-22","""2020-01-22T15:56:00.000Z""","KOZR 221556Z AUTO 05006KT 10SM CLR 05/M09 A3033 RMK AO2 SLP275 T00461092 20-01-22",0,0,0,0,0,0,31.275666666666666,-85.71333333333334
"KANB","ANNISTON RGNL","USA","20-01-22","""2020-01-22T15:53:00.000Z""","KANB 221553Z AUTO 05006KT 10SM CLR 01/M07 A3039 RMK AO2 SLP306 T00111072 20-01-22",0,0,0,0,0,0,33.588166666666666,-85.8581111111111
"KBHM","BIRMINGHAM-SHUTTLESWOTH INTL","USA","20-01-22","""2020-01-22T15:53:00.000Z""","KBHM 221553Z 11006KT 10SM BKN250 03/M09 A3042 RMK AO2 SLP305 T00281094 20-01-22",0,0,0,0,0,0,33.56388888888888,-86.75230555555555
"KDCU","PRYOR FIELD RGNL","USA","20-01-22","""2020-01-22T15:53:00.000Z""","KDCU 221553Z AUTO 13006KT 10SM CLR 02/M06 A3041 RMK AO2 SLP304 T00221061 $ 20-01-22",0,0,0,0,0,0,34.65264722222222,-86.94536666666667
"KDHN","DOTHAN RGNL","USA","20-01-22","""2020-01-22T15:53:00.000Z""","KDHN 221553Z 07010KT 10SM CLR 06/M09 A3036 RMK AO2 SLP282 T00561089 20-01-22",0,0,0,0,0,0,31.32102777777778,-85.44947222222223
"KGAD","NORTHEAST ALABAMA RGNL","USA","20-01-22","""2020-01-22T15:56:00.000Z""","KGAD 221556Z AUTO VRB03KT 10SM CLR 02/M07 A3043 RMK AO2 SLP314 T00171072 FZRANO 20-01-22",0,0,0,0,0,0,33.97264722222222,-86.08908333333333
"KMOB","MOBILE RGNL","USA","20-01-22","""2020-01-22T15:56:00.000Z""","KMOB 221556Z 07010KT 10SM FEW060 SCT180 BKN250 04/M07 A3035 RMK AO2 SLP278 T00391067 20-01-22",0,0,0,0,0,0,30.691416666666665,-88.24283333333334
"KMXF","MAXWELL AFB","USA","20-01-22","""2020-01-22T15:56:00.000Z""","KMXF 221556Z AUTO 06004KT 10SM CLR 03/M09 A3039 RMK AO2 SLP295 T00301090 $ 20-01-22",0,0,0,0,0,0,32.38294444444445,-86.36577777777777
"KHSV","HUNTSVILLE INTL-CARL T JONES FIELD","USA","20-01-22","""2020-01-22T15:53:00.000Z""","KHSV 221553Z 20003KT 10SM BKN250 02/M07 A3040 RMK AO2 SLP300 T00171072 20-01-22",0,0,0,0,0,0,34.63719444444445,-86.77505555555555
"KMGM","MONTGOMERY RGNL (DANNELLY FIELD)","USA","20-01-22","""2020-01-22T15:53:00.000Z""","KMGM 221553Z 05009KT 10SM CLR 05/M08 A3040 RMK AO2 SLP294 T00501078 20-01-22",0,0,0,0,0,0,32.300638888888884,-86.39397222222223
"KBFM","MOBILE DOWNTOWN","USA","20-01-22","""2020-01-22T15:53:00.000Z""","KBFM 221553Z 06007KT 10SM CLR 05/M04 A3039 RMK AO2 SLP289 T00501044 20-01-22",0,0,0,0,0,0,30.62677777777778,-88.06808333333333
"KMSL","NORTHWEST ALABAMA RGNL","USA","20-01-22","""2020-01-22T15:53:00.000Z""","KMSL 221553Z AUTO 14006KT 10SM CLR 02/M07 A3040 RMK AO2 SLP298 T00221067 $ 20-01-22",0,0,0,0,0,0,34.745305555555554,-87.61022222222222
"KSEM","CRAIG FIELD","USA","20-01-22","""2020-01-22T16:15:00.000Z""","KSEM 221615Z AUTO 09007KT 10SM 04/M07 A3040 RMK AO2 20-01-22",0,0,0,0,0,0,32.343947222222226,-86.98780277777777
"KASN","TALLADEGA MUNI","USA","20-01-22","""2020-01-22T16:15:00.000Z""","KASN 221615Z AUTO 06008KT 10SM CLR 03/M08 A3042 RMK AO2 T00261080 20-01-22",0,0,0,0,0,0,33.56950277777778,-86.0512
"KBVX","BATESVILLE RGNL","USA","20-01-22","""2020-01-22T15:56:00.000Z""","KBVX 221556Z AUTO VRB05KT 10SM CLR A3031 RMK AO2 SLPNO FZRANO $ 20-01-22",0,0,0,0,0,0,35.726222222222226,-91.64744444444445
"KTCL","TUSCALOOSA RGNL","USA","20-01-22","""2020-01-22T15:53:00.000Z""","KTCL 221553Z VRB03KT 10SM CLR 03/M07 A3043 RMK AO2 SLP304 T00331067 $ 20-01-22",0,0,0,0,0,0,33.220625000000005,-87.61139999999999
"KTOI","TROY MUNI AIRPORT AT N. KENNETH CAMPBELL FIELD","USA","20-01-22","""2020-01-22T15:53:00.000Z""","KTOI 221553Z AUTO 05007KT 10SM CLR 04/M08 A3035 RMK AO2 SLP279 T00391083 20-01-22",0,0,0,0,0,0,31.860000000000003,-86.01388888888889
"KXNA","NORTHWEST ARKANSAS RGNL","USA","20-01-22","""2020-01-22T16:23:00.000Z""","KXNA 221623Z 16016KT 10SM BKN029 OVC039 01/M01 A3009 RMK AO2 T00111011 20-01-22",0,2,0,2.5,0,0,36.28157777777778,-94.30776388888889
"KCDH","HARRELL FIELD","USA","20-01-22","""2020-01-22T16:15:00.000Z""","KCDH 221615Z AUTO 13009G16KT 4SM -RA FEW055 SCT070 00/M02 A3029 RMK AO2 20-01-22",0,2,0,2.5,0,0,33.62280555555556,-92.76338888888888
"KFLP","MARION COUNTY RGNL","USA","20-01-22","""2020-01-22T15:56:00.000Z""","KFLP 221556Z AUTO VRB04KT 10SM OVC060 01/M07 A3022 RMK AO2 SLP240 T00111067 FZRANO 20-01-22",0,0,0,0,0,0,36.29088888888889,-92.59025
"KELD","SOUTH ARKANSAS RGNL AT GOODWIN FIELD","USA","20-01-22","""2020-01-22T15:53:00.000Z""","KELD 221553Z AUTO 11012KT 7SM -FZRA OVC070 00/M01 A3030 RMK AO2 UPB11E19FZRAE11B19 PRESFR SLP262 P0002 I1001 T00001011 20-01-22",0,0,3.3,10,0,0,33.22097222222222,-92.81327777777777
"KFYV","DRAKE FIELD","USA","20-01-22","""2020-01-22T15:53:00.000Z""","KFYV 221553Z 15011G17KT 10SM OVC055 02/M02 A3010 RMK AO2 RAE44UPB1455E51 SLP200 P0000 T00221017 20-01-22",0,2,0,0,0,0,36.00508333333333,-94.17005555555556
"KHKA","BLYTHEVILLE MUNI","USA","20-01-22","""2020-01-22T15:53:00.000Z""","KHKA 221553Z AUTO 17009KT 10SM CLR 00/M07 A3037 RMK AO2 SLP286 T00001067 $ 20-01-22",0,0,0,0,0,0,35.940416666666664,-89.83080555555556
"KHOT","MEMORIAL FIELD","USA","20-01-22","""2020-01-22T16:21:00.000Z""","KHOT 221621Z AUTO 15007KT 7SM -FZRA SCT055 OVC080 01/M03 A3027 RMK AO2 UPE01RAB12E15FZRAB15 I1000 T00061028 PNO $ 20-01-22",0,0,3.3,10,0,0,34.47802777777778,-93.09622222222222
"KFSM","FORT SMITH RGNL","USA","20-01-22","""2020-01-22T16:20:00.000Z""","KFSM 221620Z 09010KT 2 1/2SM -FZRA BR SCT006 SCT010 OVC041 00/00 A3018 RMK AO2 P0001 I1003 T00000000 20-01-22",0,0,3.3,7.5,0,1,35.33658333333334,-94.36744444444444
"KLRF","LITTLE ROCK AFB","USA","20-01-22","""2020-01-22T15:56:00.000Z""","KLRF 221556Z AUTO 14010KT 10SM OVC120 01/M04 A3028 RMK AO2 SLP260 T00121039 20-01-22",0,0,0,0,0,0,34.91751111111111,-92.14500000000001
"KAWM","WEST MEMPHIS MUNI","USA","20-01-22","""2020-01-22T15:53:00.000Z""","KAWM 221553Z AUTO 14011KT 10SM CLR 01/M05 A3036 RMK AO2 SLP282 T00061050 20-01-22",0,0,0,0,0,0,35.13505833333333,-90.23444722222223
"KHRO","BOONE COUNTY","USA","20-01-22","""2020-01-22T15:53:00.000Z""","KHRO 221553Z AUTO 15013KT 10SM UP OVC060 M01/M05 A3014 RMK AO2 SLP218 P0000 I1000 T10111050 20-01-22",0,0,3.3,2.5,0,0,36.26152777777778,-93.15472222222223
"KJBR","JONESBORO MUNI","USA","20-01-22","""2020-01-22T15:53:00.000Z""","KJBR 221553Z AUTO 15010KT 10SM CLR 00/M05 A3034 RMK AO2 SLP276 T00001050 20-01-22",0,0,0,0,0,0,35.831722222222226,-90.64641666666667
"KLIT","BILL AND HILLARY CLINTON NATIONAL/ADAMS FIELD","USA","20-01-22","""2020-01-22T15:53:00.000Z""","KLIT 221553Z 14010KT 10SM SCT055 OVC095 01/M03 A3030 RMK AO2 SLP264 T00111033 20-01-22",0,0,0,0,0,0,34.72944444444445,-92.22477777777777
"KROG","ROGERS MUNI-CARTER FIELD","USA","20-01-22","""2020-01-22T15:58:00.000Z""","KROG 221558Z 15014KT 10SM -RA OVC060 01/M01 A3009 RMK AO2 UPE21RAB21 SLP197 P0000 T00061011 20-01-22",0,0,0,2.5,0,0,36.372416666666666,-94.10697222222221
"KSRC","SEARCY MUNI","USA","20-01-22","""2020-01-22T15:56:00.000Z""","KSRC 221556Z AUTO 15009KT 10SM CLR 01/M03 A3031 RMK AO2 SLP270 T00111028 FZRANO 20-01-22",0,0,0,0,0,0,35.21060833333333,-91.73753888888889
"KSLG","SMITH FIELD, AR","USA","20-01-22","""2020-01-22T15:56:00.000Z""","KSLG 221556Z AUTO 15010KT 10SM UP OVC041 01/M01 A3009 RMK AO2 UPE04B31RAB04E31 SLP199 P0002 T00111006 FZRANO TSNO 20-01-22",0,0,3.3,2.5,0,0,36.19186111111111,-94.49
"KSGT","STUTTGART MUNI","USA","20-01-22","""2020-01-22T15:56:00.000Z""","KSGT 221556Z AUTO 16012KT 10SM CLR 02/M04 A3033 RMK AO2 SLP274 T00221039 FZRANO 20-01-22",0,0,0,0,0,0,34.59947777777778,-91.575
"KTXK","TEXARKANA RGNL-WEBB FIELD","USA","20-01-22","""2020-01-22T15:53:00.000Z""","KTXK 221553Z 14007KT 10SM -RA SCT050 BKN065 OVC075 01/M01 A3025 RMK AO2 RAB1454 SLP244 P0000 T00061011 20-01-22",0,0,0,2.5,0,0,33.45370833333334,-93.99101944444445
"KPBF","GRIDER FIELD","USA","20-01-22","""2020-01-22T15:53:00.000Z""","KPBF 221553Z AUTO 15007KT 10SM CLR 02/M04 A3033 RMK AO2 SLP271 T00171044 20-01-22",0,0,0,0,0,0,34.17451111111111,-91.93560277777779
"KBXK","BUCKEYE MUNI","USA","20-01-22","""2020-01-22T16:15:00.000Z""","KBXK 221615Z AUTO 00000KT 10SM CLR 10/10 A3016 RMK A01 20-01-22",0,0,0,0,0,0,33.42041666666666,-112.68618055555557
"KCGZ","CASA GRANDE MUNI","USA","20-01-22","""2020-01-22T16:09:00.000Z""","KCGZ 221609Z AUTO 00000KT 1SM BR BKN003 OVC050 11/11 A3016 RMK AO2 20-01-22",0,0,0,0,0,1,32.95488888888889,-111.76683333333334
"KIWA","PHOENIX, AZ, PHOENIX-MESA GATEWAY ARPT","USA","20-01-22","""2020-01-22T16:00:00.000Z""","KIWA 221600Z 26004KT 10SM SCT010 SCT025 BKN040 11/11 A3015 20-01-22",0,0,0,0,0,0,33.30783333333333,-111.65547222222223
"KARG","WALNUT RIDGE RGNL","USA","20-01-22","""2020-01-22T15:56:00.000Z""","KARG 221556Z AUTO 16009KT 10SM CLR M01/M04 A3033 RMK AO2 SLP276 T10061039 FZRANO 20-01-22",0,0,0,0,0,0,36.12466388888889,-90.92509722222222
"KDMA","DAVIS MONTHAN AFB","USA","20-01-22","""2020-01-22T15:56:00.000Z""","KDMA 221556Z AUTO 26006KT 10SM OVC033 10/08 A3013 RMK AO2 SLP189 T01030081 FZRANO $ 20-01-22",0,0,0,0,0,0,32.16636388888889,-110.88317222222221
"KTUS","TUCSON INTl","USA","20-01-22","""2020-01-22T15:53:00.000Z""","KTUS 221553Z 33003KT 10SM OVC034 11/08 A3015 RMK AO2 SLP193 T01110083 20-01-22",0,0,0,0,0,0,32.116083333333336,-110.94102777777778
"KPHX","PHOENIX SKY HARBOR INTL","USA","20-01-22","""2020-01-22T15:51:00.000Z""","KPHX 221551Z 23004KT 9SM BKN010 BKN040 12/10 A3013 RMK AO2 SLP198 T01170100 20-01-22",0,0,0,0,0,0,33.43427777777777,-112.01158333333333
"KIFP","LAUGHLIN/BULLHEAD INTL","USA","20-01-22","""2020-01-22T15:50:00.000Z""","KIFP 221550Z 00000KT 20SM FEW140 09/05 A3018 20-01-22",0,0,0,0,0,0,35.15597222222222,-114.55944444444444
"KFHU","SIERRA VISTA MUNI-LIBBY AAF","USA","20-01-22","""2020-01-22T16:23:00.000Z""","KFHU 221623Z 36005KT 10SM BKN014 OVC023 09/06 A3016 RMK AO2A CIG 011V017 SLP184 20-01-22",0,0,0,0,0,0,31.588472222222222,-110.34438888888889
"KHII","LAKE HAVASU CITY","USA","20-01-22","""2020-01-22T16:15:00.000Z""","KHII 221615Z AUTO 00000KT 10SM CLR 08/07 A3018 RMK AO2 20-01-22",0,0,0,0,0,0,34.571111111111115,-114.35827777777777
"KGYR","PHOENIX GOODYEAR","USA","20-01-22","""2020-01-22T16:10:00.000Z""","KGYR 221610Z 00000KT 1/2SM FG OVC005 10/09 A3016 20-01-22",0,0,0,0,0,1,33.42327777777778,-112.3753611111111
"KLUF","LUKE AFB","USA","20-01-22","""2020-01-22T16:04:00.000Z""","KLUF 221604Z 35003KT 9SM CLR 10/10 A3014 RMK SLP206 $ 20-01-22",0,0,0,0,0,0,33.534977777777776,-112.38317777777777
"KFLG","FLAGSTAFF PULLIAM","USA","20-01-22","""2020-01-22T15:57:00.000Z""","KFLG 221557Z 00000KT 10SM CLR M02/M03 A3014 RMK AO2 SLP194 T10221028 20-01-22",0,0,0,2.5,0,0,35.14030555555556,-111.66925
"KDUG","BISBEE DOUGLAS INTL","USA","20-01-22","""2020-01-22T15:56:00.000Z""","KDUG 221556Z AUTO 09003KT 10SM BKN042 09/07 A3014 RMK AO2 SLP181 T00890072 20-01-22",0,0,0,0,0,0,31.468944444444443,-109.60374999999999
"KGCN","GRAND CANYON NATIONAL PARK","USA","20-01-22","""2020-01-22T15:54:00.000Z""","KGCN 221554Z 00000KT 1SM BR OVC002 M02/M02 A3016 RMK AO2 SLP209 T10171017 20-01-22",0,0,0,7.5,0,1,35.95236111111112,-112.14697222222223
"KIGM","KINGMAN","USA","20-01-22","""2020-01-22T15:51:00.000Z""","KIGM 221551Z AUTO 00000KT 10SM CLR 03/01 A3017 RMK AO2 SLP193 T00280011 $ 20-01-22",0,0,0,0,0,0,35.25947222222222,-113.93805555555556
"KOLS","NOGALES INTL","USA","20-01-22","""2020-01-22T16:20:00.000Z""","KOLS 221620Z AUTO 00000KT 10SM BKN015 10/07 A3013 RMK AO2 T01000067 20-01-22",0,0,0,0,0,0,31.417722222222224,-110.84788888888889
"KSOW","SHOW LOW RGNL","USA","20-01-22","""2020-01-22T16:15:00.000Z""","KSOW 221615Z AUTO 00000KT 10SM SCT003 BKN018 OVC025 02/01 A3016 RMK AO2 20-01-22",0,0,0,2.5,0,0,34.26547222222222,-110.00566666666667
"KPGA","PAGE MUNI","USA","20-01-22","""2020-01-22T16:12:00.000Z""","KPGA 221612Z AUTO 00000KT 3SM BR OVC002 02/01 A3015 RMK AO2 T00170006 PWINO FZRANO TSNO $ 20-01-22",0,0,0,7.5,0,1,36.92608333333333,-111.44836111111111
"KPRC","ERNEST A LOVE FIELD","USA","20-01-22","""2020-01-22T15:53:00.000Z""","KPRC 221553Z 00000KT 10SM CLR 03/01 A3016 RMK AO2 SLP194 T00330011 20-01-22",0,0,0,0,0,0,34.65483333333333,-112.41922222222223
"KDVT","PHOENIX DEER VALLEY","USA","20-01-22","""2020-01-22T15:53:00.000Z""","KDVT 221553Z 00000KT 8SM CLR 11/09 A3014 RMK AO2 SLP200 T01110094 20-01-22",0,0,0,0,0,0,33.68830555555555,-112.08255555555556
"KSAD","SAFFORD RGNL","USA","20-01-22","""2020-01-22T15:51:00.000Z""","KSAD 221551Z AUTO 29009KT 10SM OVC049 10/08 A3011 RMK AO2 SLP180 T01000083 20-01-22",0,0,0,0,0,0,32.85333333333333,-109.63508333333334
"KAUN","AUBURN MUNI","USA","20-01-22","""2020-01-22T16:15:00.000Z""","KAUN 221615Z AUTO 14004KT 4SM BR OVC005 09/09 A3026 RMK A01 20-01-22",0,0,0,0,0,0,38.95480555555556,-121.08172222222221
"KNYL","YUMA MCAS/YUMA INTL,AZ.","USA","20-01-22","""2020-01-22T15:57:00.000Z""","KNYL 221557Z 03003KT 2SM BR FEW100 10/09 A3016 RMK AO2 SFC VIS 5 SLP211 SFC VIS 5SM T01000089 20-01-22",0,0,0,0,0,0,32.656575,-114.60598611111111
"KINW","WINSLOW-LINDBERGH RGNL","USA","20-01-22","""2020-01-22T15:56:00.000Z""","KINW 221556Z AUTO 00000KT 10SM CLR 03/01 A3015 RMK AO2 SLP204 T00330006 20-01-22",0,0,0,0,0,0,35.02169444444444,-110.72291666666666
"KSJN","ST JOHNS INDUSTRIAL AIR PARK","USA","20-01-22","""2020-01-22T15:54:00.000Z""","KSJN 221554Z AUTO 30009KT 10SM OVC036 03/01 A3013 RMK AO2 SLP182 T00330011 20-01-22",0,0,0,0,0,0,34.51855555555556,-109.37875
"KACV","ARCATA","USA","20-01-22","""2020-01-22T15:53:00.000Z""","KACV 221553Z AUTO 14006KT 10SM BKN040 OVC047 11/05 A3021 RMK AO2 RAB19E29 SLP236 P0000 T01060050 20-01-22",0,0,0,0,0,0,40.977833333333336,-124.10847222222222
"KAVX","CATALINA","USA","20-01-22","""2020-01-22T16:23:00.000Z""","KAVX 221623Z AUTO 29008KT 10SM SCT002 10/08 A3019 RMK AO2 T01000083 20-01-22",0,0,0,0,0,0,33.40499722222222,-118.41576944444445
"KBYS","BICYCLE LAKE AAF","USA","20-01-22","""2020-01-22T15:58:00.000Z""","KBYS 221558Z AUTO 02007KT 10SM CLR 04/01 A3017 RMK AO2 SLP219 T00440014 $ 20-01-22",0,0,0,0,0,0,35.2805276666667,-116.630027666667
"KBAB","BEALE AFB","USA","20-01-22","""2020-01-22T15:56:00.000Z""","KBAB 221556Z AUTO 21003KT 10SM OVC011 10/10 A3025 RMK AO2 SLP247 T01020102 $ 20-01-22",0,0,0,0,0,0,39.1361,-121.43658611111111
"KBIH","EASTERN SIERRA RGNL","USA","20-01-22","""2020-01-22T15:56:00.000Z""","KBIH 221556Z AUTO 34003KT 10SM OVC095 03/M02 A3017 RMK AO2 SLP218 T00331017 20-01-22",0,0,0,0,0,0,37.373111111111115,-118.36361111111111
"KBFL","MEADOWS FIELD","USA","20-01-22","""2020-01-22T15:54:00.000Z""","KBFL 221554Z 12004KT 10SM OVC055 09/06 A3025 RMK AO2 SLP244 T00940061 20-01-22",0,0,0,0,0,0,35.433861111111106,-119.05766666666666
"KBUR","BOB HOPE","USA","20-01-22","""2020-01-22T15:53:00.000Z""","KBUR 221553Z 00000KT 10SM CLR 08/05 A3019 RMK AO2 SLP218 T00780050 $ 20-01-22",0,0,0,0,0,0,34.200694444444444,-118.35866666666666
"KCEC","JACK MCNAMARA FIELD","USA","20-01-22","""2020-01-22T15:56:00.000Z""","KCEC 221556Z AUTO 15017G25KT 9SM OVC040 08/07 A3019 RMK AO2 RAE13 SLP225 P0000 T00830067 20-01-22",0,4,0,0,0,0,41.780166666666666,-124.23652777777778
"KNFG","OCEANSIDE/CAMP PENDELTON MCAS,CA.","USA","20-01-22","""2020-01-22T15:55:00.000Z""","KNFG 221555Z 00000KT 10SM SCT030 BKN045 08/06 A3020 RMK AO2 SLP226 T00830061 $ 20-01-22",0,0,0,0,0,0,33.30125555555555,-117.35516666666666
"KCNO","CHINO","USA","20-01-22","""2020-01-22T15:53:00.000Z""","KCNO 221553Z 00000KT 5SM BR OVC017 11/09 A3020 RMK AO2 SLP227 T01110089 20-01-22",0,0,0,0,0,0,33.97477777777778,-117.63648055555556
"KCCR","BUCHANAN FIELD","USA","20-01-22","""2020-01-22T15:53:00.000Z""","KCCR 221553Z 00000KT 5SM BR SCT040 09/08 A3026 RMK AO2 SLP232 T00940083 20-01-22",0,0,0,0,0,0,37.989666666666665,-122.05688888888889
"KCRQ","MC CLELLAN-PALOMAR","USA","20-01-22","""2020-01-22T15:53:00.000Z""","KCRQ 221553Z 00000KT 7SM SCT031 11/09 A3018 RMK AO2 SLP221 T01060094 20-01-22",0,0,0,0,0,0,33.12825,-117.28008333333334
"KCIC","CHICO MUNI","USA","20-01-22","""2020-01-22T15:47:00.000Z""","KCIC 221547Z 00000KT 10SM BKN010 OVC027 10/09 A3027 20-01-22",0,0,0,0,0,0,39.79538888888889,-121.85841666666666
"KEDW","EDWARDS AFB","USA","20-01-22","""2020-01-22T15:56:00.000Z""","KEDW 221556Z 24005KT 50SM BKN220 09/04 A3015 RMK AO2A SLP210 T00910039 20-01-22",0,0,0,0,0,0,34.918033333333334,-117.87904999999999
"KFAT","FRESNO YOSEMITE INTL","USA","20-01-22","""2020-01-22T15:53:00.000Z""","KFAT 221553Z 29003KT 4SM BR SCT060 BKN200 11/09 A3025 RMK AO2 SLP243 VIS SE 2 1/2 T01060089 20-01-22",0,0,0,0,0,0,36.776555555555554,-119.71883333333334
"KBLU","BLUE CANYON - NYACK","USA","20-01-22","""2020-01-22T15:52:00.000Z""","KBLU 221552Z AUTO 15004KT M1/4SM FG VV002 03/02 A3024 RMK AO2 SLP240 T00280022 20-01-22",0,0,0,2.5,0,0,39.274972222222225,-120.70975
"KDAG","BARSTOW-DAGGETT","USA","20-01-22","""2020-01-22T15:50:00.000Z""","KDAG 221550Z AUTO 26004KT 10SM CLR 09/03 A3017 RMK AO2 SLP210 T00890033 20-01-22",0,0,0,0,0,0,34.853722222222224,-116.78669444444444
"KEMT","EL MONTE","USA","20-01-22","""2020-01-22T15:45:00.000Z""","KEMT 221545Z 00000KT 8SM BKN026 09/08 A3020 20-01-22",0,0,0,0,0,0,34.08600833333334,-118.03484444444445
"KHAF","HALF MOON BAY","USA","20-01-22","""2020-01-22T16:15:00.000Z""","KHAF 221615Z AUTO 00000KT 10SM FEW005 OVC014 11/10 A3026 RMK AO2 20-01-22",0,0,0,0,0,0,37.513444444444445,-122.50116666666666
"KHWD","HAYWARD EXECUTIVE","USA","20-01-22","""2020-01-22T16:10:00.000Z""","KHWD 221610Z 00000KT 2 1/2SM BR FEW005 OVC021 12/11 A3025 RMK AO2 T01220111 20-01-22",0,0,0,0,0,1,37.65892777777778,-122.1217361111111
"KNRS","IMPERIAL BEACH NOLF (REAM FLD)","USA","20-01-22","""2020-01-22T15:56:00.000Z""","KNRS 221556Z 06007KT 9SM FEW020 BKN250 11/09 A3020 RMK AO2 SLP227 T01110089 $ 20-01-22",0,0,0,0,0,0,32.566155555555554,-117.11352222222222
"KFUL","FULLERTON MUNI","USA","20-01-22","""2020-01-22T15:53:00.000Z""","KFUL 221553Z 00000KT 6SM BR FEW020 BKN200 11/08 A3019 RMK AO2 SLP221 T01060083 20-01-22",0,0,0,0,0,0,33.87201388888889,-117.97978333333333
"KHHR","JACK NORTHROP FIELD/HAWTHORNE MUNI","USA","20-01-22","""2020-01-22T15:53:00.000Z""","KHHR 221553Z 00000KT 5SM HZ CLR 12/08 A3020 RMK AO2 SLP227 T01170078 $ 20-01-22",0,0,0,0,0,0,33.92283333333333,-118.33519444444444
"KIPL","IMPERIAL COUNTY","USA","20-01-22","""2020-01-22T15:53:00.000Z""","KIPL 221553Z AUTO 25003KT 10SM CLR 10/06 A3015 RMK AO2 SLP210 T01000056 20-01-22",0,0,0,0,0,0,32.83422222222222,-115.57875
"KLVK","LIVERMORE MUNI","USA","20-01-22","""2020-01-22T16:19:00.000Z""","KLVK 221619Z 00000KT 2SM BR SCT004 OVC017 11/11 A3025 RMK AO2 T01110111 20-01-22",0,0,0,0,0,1,37.69338888888888,-121.82036111111111
"KLPC","LOMPOC","USA","20-01-22","""2020-01-22T15:56:00.000Z""","KLPC 221556Z AUTO 08004KT 10SM BKN018 OVC025 RMK AO2 SLPNO FZRANO $ 20-01-22",0,0,0,0,0,0,34.665619444444445,-120.46750277777778
"KSLI","LOS ALAMITOS/AAF,CA.","USA","20-01-22","""2020-01-22T15:56:00.000Z""","KSLI 221556Z 36003KT 8SM SCT020 BKN200 09/09 A3019 RMK AO2A SLP226 T00880086 20-01-22",0,0,0,0,0,0,33.79,-118.05199999999999
"KWJF","GENERAL WM J FOX AIRFIELD","USA","20-01-22","""2020-01-22T15:56:00.000Z""","KWJF 221556Z 26013KT 10SM CLR 11/05 A3018 RMK AO2 PK WND 29029/1503 SLP222 T01110050 20-01-22",0,0,0,0,0,0,34.741055555555555,-118.21863888888889
"KLAX","LOS ANGELES INTL","USA","20-01-22","""2020-01-22T15:53:00.000Z""","KLAX 221553Z 04005KT 7SM FEW009 FEW019 SCT170 BKN190 12/08 A3020 RMK AO2 SLP224 T01220083 20-01-22",0,0,0,0,0,0,33.942502777777776,-118.40711111111112
"KLGB","LONG BEACH/DAUGHERTY FIELD","USA","20-01-22","""2020-01-22T15:53:00.000Z""","KLGB 221553Z 00000KT 5SM BR CLR 09/08 A3019 RMK AO2 SLP224 T00940083 20-01-22",0,0,0,0,0,0,33.81762777777778,-118.15147222222222
"KNLC","LEMOORE NAS (REEVES FLD)","USA","20-01-22","""2020-01-22T15:28:00.000Z""","KNLC 221528Z 19003KT 2 1/2SM BR OVC055 08/08 A3025 RMK AO2 T00830078 20-01-22",0,0,0,0,0,0,36.33301111111111,-119.95208055555555
"KMAE","MADERA MUNI","USA","20-01-22","""2020-01-22T16:24:00.000Z""","KMAE 221624Z AUTO 3SM BR BKN025 OVC043 11/10 A3026 RMK AO2 T01110100 20-01-22",0,0,0,0,0,0,36.98650555555556,-120.11262777777777
"KMCE","MERCED RGNL/MACREADY FIELD","USA","20-01-22","""2020-01-22T16:24:00.000Z""","KMCE 221624Z AUTO 00000KT 4SM BR BKN013 OVC043 11/11 A3025 RMK AO2 T01110106 20-01-22",0,0,0,0,0,0,37.284749999999995,-120.51391666666666
"KMYV","YUBA COUNTY","USA","20-01-22","""2020-01-22T16:22:00.000Z""","KMYV 221622Z AUTO 15003KT 5SM BR FEW002 OVC024 11/11 A3028 RMK AO2 T01060106 20-01-22",0,0,0,0,0,0,39.09777777777778,-121.56983333333334
"KMMH","MAMMOTH YOSEMITE","USA","20-01-22","""2020-01-22T16:18:00.000Z""","KMMH 221618Z AUTO 11006KT 10SM BKN075 OVC110 03/M02 A3020 RMK AO2 20-01-22",0,0,0,0,0,0,37.62405555555556,-118.83874999999999
"KMHV","MOJAVE","USA","20-01-22","""2020-01-22T16:00:00.000Z""","KMHV 221600Z AUTO 09007KT 09/02 A3017 RMK A01 20-01-22",0,0,0,0,0,0,35.05894166666666,-118.15060833333334
"KNKX","SAN DIEGO/MIRAMAR MCAS, CA ","USA","20-01-22","""2020-01-22T15:55:00.000Z""","KNKX 221555Z 12004KT 10SM FEW040 BKN200 11/09 A3018 RMK AO2 SLP219 T01110089 $ 20-01-22",0,0,0,0,0,0,32.86852777777778,-117.1431888888889
"KMOD","MODESTO CITY-CO-HARRY SHAM FLD","USA","20-01-22","""2020-01-22T15:53:00.000Z""","KMOD 221553Z COR 00000KT 5SM BR BKN024 11/10 A3024 RMK AO2 SLP239 T01110100 20-01-22",0,0,0,0,0,0,37.62583333333333,-120.95441666666667
"KMER","CASTLE","USA","20-01-22","""2020-01-22T15:45:00.000Z""","KMER 221545Z 00000KT 10SM OVC038 12/12 A3025 20-01-22",0,0,0,0,0,0,37.380472222222224,-120.56819444444444
"KMHR","SACRAMENTO MATHER","USA","20-01-22","""2020-01-22T15:45:00.000Z""","KMHR 221545Z 10003KT 5SM BR OVC006 11/11 A3025 20-01-22",0,0,0,0,0,0,38.555305555555556,-121.29719444444444
"KOAK","METROPOLITAN OAKLAND INTL","USA","20-01-22","""2020-01-22T16:21:00.000Z""","KOAK 221621Z 00000KT 3SM FEW004 OVC024 12/12 A3026 RMK AO2 T01220117 20-01-22",0,0,0,0,0,1,37.72125833333334,-122.22114722222223
"KMRY","MONTEREY RGNL","USA","20-01-22","""2020-01-22T16:13:00.000Z""","KMRY 221613Z 00000KT 6SM BR OVC005 13/12 A3024 RMK AO2 T01280117 20-01-22",0,0,0,0,0,0,36.58695,-121.84278055555555
"KEED","NEEDLES","USA","20-01-22","""2020-01-22T15:56:00.000Z""","KEED 221556Z AUTO 29003KT 10SM CLR 09/06 A3018 RMK AO2 SLP210 T00890056 20-01-22",0,0,0,0,0,0,34.76634444444444,-114.62327777777777
"KAPC","NAPA COUNTY","USA","20-01-22","""2020-01-22T15:54:00.000Z""","KAPC 221554Z 02005KT 1/4SM FG VV002 09/08 A3026 RMK AO2 SLP236 T00890083 20-01-22",0,0,0,0,0,0,38.21319444444445,-122.28069444444445
"KSIY","SISKIYOU COUNTY","USA","20-01-22","""2020-01-22T15:53:00.000Z""","KSIY 221553Z AUTO 00000KT 10SM OVC060 02/00 A3018 RMK AO2 SLP246 T00170000 20-01-22",0,0,0,2.5,0,0,41.781444444444446,-122.46810833333333
"KNZY","NORTH ISLAND NAS/HALSEY FIELD","USA","20-01-22","""2020-01-22T15:52:00.000Z""","KNZY 221552Z 00000KT 10SM FEW020 SCT035 BKN200 13/10 A3019 RMK AO2 SLP223 T01330100 $ 20-01-22",0,0,0,0,0,0,32.69819444444444,-117.21310833333334
"KPRB","PASO ROBLES MUNI","USA","20-01-22","""2020-01-22T16:11:00.000Z""","KPRB 221611Z AUTO 08005KT 10SM OVC015 09/07 A3025 RMK AO2 T00890072 20-01-22",0,0,0,0,0,0,35.672888888888885,-120.62708333333333
"KONT","ONTARIO INTL","USA","20-01-22","""2020-01-22T15:53:00.000Z""","KONT 221553Z 00000KT 5SM BR OVC015 11/09 A3018 RMK AO2 DZE06 SLP221 VIS NW 2 P0000 T01110089 $ 20-01-22",0,0,0,0,0,0,34.056,-117.60119444444445
"KOVE","OROVILLE MUNI","USA","20-01-22","""2020-01-22T15:53:00.000Z""","KOVE 221553Z AUTO 14005KT 10SM OVC033 12/09 A3027 RMK AO2 SLP251 T01170094 PNO $ 20-01-22",0,0,0,0,0,0,39.48780555555555,-121.622
"KPMD","PALMDALE USAF PLANT 42","USA","20-01-22","""2020-01-22T15:53:00.000Z""","KPMD 221553Z 28015KT 10SM CLR 11/03 A3018 RMK AO2 SLP215 T01110033 20-01-22",0,0,0,0,0,0,34.62938888888889,-118.08455277777777
"KPSP","PALM SPRINGS INTL","USA","20-01-22","""2020-01-22T15:53:00.000Z""","KPSP 221553Z 00000KT 10SM CLR 10/06 A3017 RMK AO2 SLP217 T01000061 20-01-22",0,0,0,0,0,0,33.82966666666667,-116.50669444444445
"KSAC","SACRAMENTO EXECUTIVE","USA","20-01-22","""2020-01-22T16:05:00.000Z""","KSAC 221605Z 13004KT 1 1/2SM BR OVC002 11/11 A3026 RMK AO2 T01110106 20-01-22",0,0,0,0,0,1,38.51252777777778,-121.49347222222222
"KRAL","RIVERSIDE MUNI","USA","20-01-22","""2020-01-22T16:01:00.000Z""","KRAL 221601Z 00000KT 5SM HZ BKN028 11/08 A3020 RMK AO2 T01060078 $ 20-01-22",0,0,0,0,0,0,33.951888888888895,-117.44511111111112
"KPTV","PORTERVILLE MUNI","USA","20-01-22","""2020-01-22T15:56:00.000Z""","KPTV 221556Z AUTO 15004KT 10SM SCT060 OVC090 08/07 A3026 RMK AO2 SLP248 T00780067 20-01-22",0,0,0,0,0,0,36.029583333333335,-119.06272222222222
"KRIV","MARCH ARB","USA","20-01-22","""2020-01-22T15:56:00.000Z""","KRIV 221556Z 00000KT 6SM BR FEW015 SCT026 BKN250 09/09 A3018 RMK AO2A SLP220 T00890089 $ 20-01-22",0,0,0,0,0,0,33.88071111111111,-117.25945
"KPVF","PLACERVILLE","USA","20-01-22","""2020-01-22T15:55:00.000Z""","KPVF 221555Z AUTO 15003KT 10SM OVC017 07/07 A3026 RMK AO1 20-01-22",0,0,0,0,0,0,38.72421111111111,-120.75333888888889
"KRDD","REDDING MUNI","USA","20-01-22","""2020-01-22T15:53:00.000Z""","KRDD 221553Z 33003KT 2 1/2SM -RA BR FEW006 OVC018 08/08 A3024 RMK AO2 RAB43 SLP241 P0000 T00830078 20-01-22",0,0,0,0,0,1,40.509,-122.29338888888888
"KNTD","POINT MUGU NAS (NAVAL BASE VENTURA CO)","USA","20-01-22","""2020-01-22T15:52:00.000Z""","KNTD 221552Z 00000KT 10SM FEW060 FEW150 SCT200 SCT280 10/07 A3021 RMK SLP229 T01010068 20-01-22",0,0,0,0,0,0,34.119275,-119.1195861111111
"KRBL","RED BLUFF MUNI","USA","20-01-22","""2020-01-22T15:49:00.000Z""","KRBL 221549Z AUTO 34003KT 3SM BR BKN002 OVC013 10/09 A3026 RMK AO2 SLP246 T01000089 20-01-22",0,0,0,0,0,1,40.150305555555555,-122.25219444444444
"KSMF","SACRAMENTO INTL","USA","20-01-22","""2020-01-22T16:19:00.000Z""","KSMF 221619Z 00000KT 6SM BR BCFG BKN004 OVC017 11/11 A3027 RMK AO2 VIS SW-N 2 T01110111 $ 20-01-22",0,0,0,0,0,0,38.69544444444444,-121.59077777777777
"KSJC","NORMAN Y. MINETA SAN JOSE INTL","USA","20-01-22","""2020-01-22T16:13:00.000Z""","KSJC 221613Z 30003KT 10SM FEW001 BKN011 OVC026 12/11 A3025 RMK AO2 T01220106 20-01-22",0,0,0,0,0,0,37.362991666666666,-121.92861944444445
"KSFO","SAN FRANCISCO INTL","USA","20-01-22","""2020-01-22T15:56:00.000Z""","KSFO 221556Z 01003KT 2SM BR FEW002 OVC015 12/10 A3025 RMK AO2 SLP242 T01170100 20-01-22",0,0,0,0,0,1,37.618805555555554,-122.37541666666667
"KMYF","MONTGOMERY FIELD","USA","20-01-22","""2020-01-22T15:53:00.000Z""","KMYF 221553Z 00000KT 10SM CLR 12/09 A3019 RMK AO2 SLP223 T01170094 20-01-22",0,0,0,0,0,0,32.81572222222222,-117.13958333333333
"KSDM","BROWN FIELD MUNI","USA","20-01-22","""2020-01-22T15:53:00.000Z""","KSDM 221553Z 00000KT 10SM FEW037 BKN250 11/10 A3019 RMK AO2 SLP222 T01110100 20-01-22",0,0,0,0,0,0,32.572272222222225,-116.98016111111112
"KSAN","SAN DIEGO INTL","USA","20-01-22","""2020-01-22T15:51:00.000Z""","KSAN 221551Z 00000KT 10SM SCT037 BKN250 13/11 A3021 RMK AO2 SLP229 T01330111 20-01-22",0,0,0,0,0,0,32.733555555555554,-117.18966666666667
"KSEE","GILLESPIE FIELD","USA","20-01-22","""2020-01-22T15:47:00.000Z""","KSEE 221547Z 00000KT 10SM SKC 10/09 A3020 20-01-22",0,0,0,0,0,0,32.82622222222223,-116.97244444444445
"KSQL","SAN CARLOS","USA","20-01-22","""2020-01-22T15:47:00.000Z""","KSQL 221547Z 00000KT 2SM SCT005 BKN011 OVC023 11/11 A3026 20-01-22",0,0,0,0,0,1,37.511852777777776,-122.24952222222223
"KSBP","SAN LUIS COUNTY RGNL","USA","20-01-22","""2020-01-22T15:56:00.000Z""","KSBP 221556Z 00000KT 10SM BKN018 OVC026 09/08 A3025 RMK AO2 SLP243 T00890078 20-01-22",0,0,0,0,0,0,35.23727777777778,-120.64261111111112
"KSBA","SANTA BARBARA MUNI","USA","20-01-22","""2020-01-22T15:53:00.000Z""","KSBA 221553Z 05005KT 10SM FEW030 SCT090 12/08 A3019 RMK AO2 SLP222 T01170078 20-01-22",0,0,0,0,0,0,34.42619444444444,-119.8415
"KSNA","JOHN WAYNE AIRPORT-ORANGE COUNTY","USA","20-01-22","""2020-01-22T15:53:00.000Z""","KSNA 221553Z 09004KT 10SM BKN023 BKN060 14/09 A3019 RMK AO2 SLP222 T01440094 20-01-22",0,0,0,0,0,0,33.675666666666665,-117.86822222222222
"KSMO","SANTA MONICA MUNI","USA","20-01-22","""2020-01-22T15:51:00.000Z""","KSMO 221551Z 00000KT 10SM CLR 10/07 A3020 RMK AO2 SLP225 T01000072 20-01-22",0,0,0,0,0,0,34.01583333333333,-118.45130555555556
"KSMX","SANTA MARIA PUB/CAPT G ALLAN HANCOCK FLD","USA","20-01-22","""2020-01-22T15:51:00.000Z""","KSMX 221551Z 00000KT 10SM OVC019 09/07 A3025 RMK AO2 SLP247 T00890072 $ 20-01-22",0,0,0,0,0,0,34.89993333333333,-120.45807222222223
"KRHV","REID-HILLVIEW OF SANTA CLARA COUNTY","USA","20-01-22","""2020-01-22T15:47:00.000Z""","KRHV 221547Z 00000KT 04SM BR BKN010 OVC025 12/11 A3025 20-01-22",0,0,0,0,0,0,37.332861111111114,-121.81980555555555
"KSUU","TRAVIS AFB","USA","20-01-22","""2020-01-22T16:23:00.000Z""","KSUU 221623Z AUTO 00000KT 1/2SM R21L/2400V3000FT FG FEW001 08/07 A3026 RMK AO2 SLP254 $ 20-01-22",0,0,0,0,0,1,38.26453611111111,-121.92413055555556
"KIZA","SANTA YNEZ","USA","20-01-22","""2020-01-22T16:15:00.000Z""","KIZA 221615Z AUTO 00000KT M1/4SM FG OVC001 05/05 A3024 RMK AO2 20-01-22",0,0,0,0,0,1,34.60681388888889,-120.07554999999999
"KTSP","TEHACHAPI MUNI","USA","20-01-22","""2020-01-22T16:15:00.000Z""","KTSP 221615Z AUTO 31014G17KT 4SM BR FEW006 SCT014 BKN028 05/05 A3024 RMK AO2 20-01-22",0,2,0,0,0,0,35.134994444444445,-118.4393
"KSCK","STOCKTON METROPOLITAN","USA","20-01-22","""2020-01-22T15:55:00.000Z""","KSCK 221555Z 6SM BR OVC032 12/11 A3024 RMK AO2 SLP241 T01170106 20-01-22",0,0,0,0,0,0,37.89416666666666,-121.23830555555556
"KTVL","LAKE TAHOE","USA","20-01-22","""2020-01-22T15:53:00.000Z""","KTVL 221553Z AUTO 00000KT 10SM FEW065 BKN080 OVC100 02/M02 A3020 RMK AO2 SLP224 T00171017 20-01-22",0,0,0,0,0,0,38.89388888888889,-119.99533333333333
"KTRM","JACQUELINE COCHRAN RGNL","USA","20-01-22","""2020-01-22T15:52:00.000Z""","KTRM 221552Z AUTO 00000KT 7SM CLR 09/06 A3015 RMK AO2 SLP207 T00890056 20-01-22",0,0,0,0,0,0,33.626666666666665,-116.15965277777778
"KTOA","ZAMPERINI FIELD","USA","20-01-22","""2020-01-22T15:47:00.000Z""","KTOA 221547Z 00000KT 5SM BR FEW017 SCT180 BKN250 A3019 20-01-22",0,0,0,0,0,0,33.803380555555556,-118.33960555555555
"KUKI","UKIAH MUNI","USA","20-01-22","""2020-01-22T16:24:00.000Z""","KUKI 221624Z AUTO 00000KT 4SM BR OVC005 08/07 A3027 RMK AO2 CIG 002V009 T00780067 20-01-22",0,0,0,0,0,0,39.12594444444444,-123.20086111111111
"KVBG","VANDENBURG AFB","USA","20-01-22","""2020-01-22T16:13:00.000Z""","KVBG 221613Z AUTO 00000KT 10SM BKN007 OVC012 10/09 A3025 RMK AO2 SLP248 20-01-22",0,0,0,0,0,0,34.73733611111111,-120.58430833333333
"KWVI","WATSONVILLE MUNI","USA","20-01-22","""2020-01-22T16:02:00.000Z""","KWVI 221602Z AUTO 00000KT 1 1/4SM BR OVC003 12/11 A3025 RMK AO2 T01170111 20-01-22",0,0,0,0,0,1,36.93572222222222,-121.78963888888889
"KVIS","VISALIA MUNI","USA","20-01-22","""2020-01-22T15:56:00.000Z""","KVIS 221556Z AUTO 09004KT 8SM SCT070 08/08 A3025 RMK AO2 SLP254 T00830078 20-01-22",0,0,0,0,0,0,36.31863888888889,-119.39286111111112
"KDEN","DENVER INTL","USA","20-01-22","""2020-01-22T15:53:00.000Z""","KDEN 221553Z 26004KT 10SM FEW080 SCT160 BKN220 05/M06 A2986 RMK AO2 SLP105 T00501056 20-01-22",0,0,0,0,0,0,39.861666666666665,-104.67316666666667
"KAKO","COLORADO PLAINS RGNL","USA","20-01-22","""2020-01-22T15:53:00.000Z""","KAKO 221553Z AUTO 31019G32KT 10SM CLR 07/M04 A2981 RMK AO2 PK WND 31032/1550 SLP094 T00671044 20-01-22",0,4,0,0,0,0,40.175638888888884,-103.22202777777778
"KVNY","VAN NUYS","USA","20-01-22","""2020-01-22T15:51:00.000Z""","KVNY 221551Z COR 00000KT 9SM CLR 08/06 A3019 RMK AO2 SLP222 T00780056 20-01-22",0,0,0,0,0,0,34.20980555555556,-118.48997222222222
"KVCV","SOUTHERN CALIFORNIA LOGISTICS","USA","20-01-22","""2020-01-22T15:45:00.000Z""","KVCV 221545Z 24010KT 10SM SKC A3017 20-01-22",0,0,0,0,0,0,34.59745277777778,-117.38299444444444
"KASE","ASPEN-PITKIN CO/SARDY FIELD","USA","20-01-22","""2020-01-22T16:16:00.000Z""","KASE 221616Z 36005KT 6SM -SN BR SCT003 OVC008 M02/M04 A3004 RMK AO2 P0000 T10221044 20-01-22",0,0,6.7,7.5,0,0,39.22187777777778,-106.86823333333332
"KBKF","AURORA/BUCKLEY ANGB,CO.","USA","20-01-22","""2020-01-22T15:58:00.000Z""","KBKF 221558Z 30004KT 10SM FEW070 FEW130 BKN220 05/M06 A2987 RMK AO2A SLP110 T00531063 20-01-22",0,0,0,0,0,0,39.70176666666667,-104.75196111111111
"KCOS","CITY OF COLORADO SPRINGS MUNI","USA","20-01-22","""2020-01-22T15:54:00.000Z""","KCOS 221554Z 33006KT 10SM FEW140 BKN200 BKN250 07/M09 A2987 RMK AO2 SLP101 T00721089 20-01-22",0,0,0,0,0,0,38.80580555555555,-104.70077777777779
"KCEZ","CORTEZ MUNI","USA","20-01-22","""2020-01-22T15:53:00.000Z""","KCEZ 221553Z AUTO 00000KT 10SM CLR 01/M01 A3009 RMK AO2 SLP190 T00061006 20-01-22",0,0,0,2.5,0,0,37.303,-108.62806666666665
"KALS","SAN LUIS VALLEY RGNL/BERGMAN FIELD","USA","20-01-22","""2020-01-22T15:52:00.000Z""","KALS 221552Z AUTO 00000KT 10SM CLR M06/M09 A2999 RMK AO2 SLP196 T10611094 20-01-22",0,0,0,0,0,0,37.435125,-105.867875
"KBJC","ROCKY MOUNTAIN METROPOLITAN","USA","20-01-22","""2020-01-22T15:45:00.000Z""","KBJC 221545Z 26007G20KT 10SM BKN090 BKN200 07/M08 A2987 20-01-22",0,2,0,0,0,0,39.90880555555555,-105.11719444444444
"KDRO","DURANGO-LA PLATA COUNTY","USA","20-01-22","""2020-01-22T16:21:00.000Z""","KDRO 221621Z AUTO 23003KT 10SM OVC014 M01/M02 A3005 RMK AO2 T10061017 20-01-22",0,0,0,2.5,0,0,37.15152777777778,-107.75377777777778
"KGJT","GRAND JUNCTION REGIONAL","USA","20-01-22","""2020-01-22T16:17:00.000Z""","KGJT 221617Z 00000KT 3SM BR BKN005 BKN012 OVC018 M01/M02 A3014 RMK AO2 T10061022 20-01-22",0,0,0,7.5,0,1,39.122413888888886,-108.5267361111111
"KGXY","GREELEY-WELD COUNTY","USA","20-01-22","""2020-01-22T15:56:00.000Z""","KGXY 221556Z AUTO 23007KT 10SM CLR 02/M04 A2986 RMK AO2 SLP140 T00171039 FZRANO 20-01-22",0,0,0,0,0,0,40.437416666666664,-104.63322222222222
"KGUC","GUNNISON-CRESTED BUTTE RGNL","USA","20-01-22","""2020-01-22T15:56:00.000Z""","KGUC 221556Z AUTO 00000KT 10SM CLR M03/M06 A3003 RMK AO2 SLP210 T10331061 FZRANO 20-01-22",0,0,0,0,0,0,38.53433333333333,-106.93175000000001
"KFNL","FORT COLLINS-LOVELAND MUNI","USA","20-01-22","""2020-01-22T15:56:00.000Z""","KFNL 221556Z AUTO 32010G15KT 10SM CLR 06/M06 A2986 RMK AO2 SLP106 T00611061 20-01-22",0,2,0,0,0,0,40.45181666666667,-105.01133888888889
"KFCS","BUTTS AAF (FORT CARSON)","USA","20-01-22","""2020-01-22T15:56:00.000Z""","KFCS 221556Z AUTO 00000KT 10SM FEW140 04/M04 A2986 RMK AO2 SLP138 T00431042 $ 20-01-22",0,0,0,0,0,0,38.67833333333333,-104.7565
"KEGE","EAGLE COUNTY RGNL","USA","20-01-22","""2020-01-22T15:56:00.000Z""","KEGE 221556Z 13005KT 9SM UP OVC065 M04/M05 A3007 RMK AO2 UPB53SNB18E53 SLP226 T10441050 PNO $ 20-01-22",0,0,3.3,2.5,0,0,39.64276111111111,-106.91593333333334
"KLXV","LAKE COUNTY,CO","USA","20-01-22","""2020-01-22T16:19:00.000Z""","KLXV 221619Z AUTO 31008KT 290V360 1 1/2SM -SN BKN022 OVC034 M06/M09 A2997 RMK AO2 SNB02 P0000 T10561094 20-01-22",0,0,6.7,7.5,0,0,39.21947222222222,-106.31641666666667
"KRIL","GARFIELD COUNTY RGNL","USA","20-01-22","""2020-01-22T16:00:00.000Z""","KRIL 221600Z AUTO 27003KT 5SM BR FEW019 BKN033 BKN110 00/M02 A3010 RMK AO2 SNE00 P0000 T00001017 20-01-22",0,0,0,7.5,0,0,39.52661111111111,-107.72800000000001
"KHDN","YAMPA VALLEY","USA","20-01-22","""2020-01-22T15:56:00.000Z""","KHDN 221556Z AUTO 20005KT 10SM -SN SCT033 OVC048 M02/M03 A3005 RMK AO2 UPB02E09B31E50SNE02B09E31B50 SLP196 P0000 T10221028 FZRANO 20-01-22",0,0,6.7,7.5,0,0,40.48119444444445,-107.21766666666667
"KLIC","LIMON MUNI","USA","20-01-22","""2020-01-22T15:55:00.000Z""","KLIC 221555Z AUTO 33013KT 10SM CLR 06/M06 A2985 RMK AO2 SLP105 T00611061 20-01-22",0,0,0,0,0,0,39.27477777777778,-103.66586111111111
"KLAA","LAMAR MUNI","USA","20-01-22","""2020-01-22T15:53:00.000Z""","KLAA 221553Z AUTO 22004KT 10SM SCT085 BKN110 06/M03 A2983 RMK AO2 SLP095 T00561033 20-01-22",0,0,0,0,0,0,38.069700000000005,-102.68849444444444
"KMTJ","MONTROSE RGNL","USA","20-01-22","""2020-01-22T15:53:00.000Z""","KMTJ 221553Z AUTO 00000KT 7SM OVC003 M01/M02 A3013 RMK AO2 SLP207 T10111022 20-01-22",0,0,0,2.5,0,0,38.50980555555556,-107.89425
"KPUB","PUEBLO MEMORIAL","USA","20-01-22","""2020-01-22T15:53:00.000Z""","KPUB 221553Z 23006KT 10SM CLR 07/M03 A2986 RMK AO2 SLP114 T00671033 20-01-22",0,0,0,0,0,0,38.289944444444444,-104.49802777777778
"KSTK","STERLING MUNI","USA","20-01-22","""2020-01-22T16:20:00.000Z""","KSTK 221620Z AUTO 32017G26KT 10SM CLR 07/M03 A2979 RMK AO2 20-01-22",0,4,0,0,0,0,40.61429722222223,-103.26426111111111
"KSBS","STEAMBOAT SPRINGS/BOB ADAMS FIELD","USA","20-01-22","""2020-01-22T16:15:00.000Z""","KSBS 221615Z AUTO 00000KT 10SM SCT008 BKN035 OVC041 M02/M02 A3002 RMK AO1 T10201020 20-01-22",0,0,0,2.5,0,0,40.51625,-106.86630555555556
"KTEX","TELLURIDE RGNL","USA","20-01-22","""2020-01-22T16:15:00.000Z""","KTEX 221615Z AUTO 28008KT 10SM -SN SCT020 BKN029 OVC060 M03/M03 A3009 RMK AO2 20-01-22",0,0,6.7,7.5,0,0,37.95380555555556,-107.90875000000001
"KAFF","USAF ACADEMY AFLD","USA","20-01-22","""2020-01-22T15:56:00.000Z""","KAFF 221556Z AUTO 35008KT 10SM FEW150 04/M10 A2986 RMK AO2 SLP116 T00431098 20-01-22",0,0,0,0,0,0,38.97416944444445,-104.81790555555555
"KTAD","PERRY STOKES","USA","20-01-22","""2020-01-22T15:54:00.000Z""","KTAD 221554Z AUTO 28007KT 10SM CLR 06/M03 A2990 RMK AO2 SLP107 T00561028 20-01-22",0,0,0,0,0,0,37.25922222222222,-104.34086111111111
"KGON","GROTON-NEW LONDON","USA","20-01-22","""2020-01-22T15:56:00.000Z""","KGON 221556Z 33004KT 10SM CLR M01/M09 A3046 RMK AO2 SLP315 T10061094 20-01-22",0,0,0,0,0,0,41.33005555555556,-72.04513888888889
"KHFD","HARTFORD-BRAINARD","USA","20-01-22","""2020-01-22T15:53:00.000Z""","KHFD 221553Z 00000KT 10SM CLR M03/M10 A3048 RMK AO2 SLP322 T10331100 20-01-22",0,0,0,0,0,0,41.73672222222223,-72.64944444444446
"KBDR","IGOR I SIKORSKY MEMORIAL","USA","20-01-22","""2020-01-22T15:52:00.000Z""","KBDR 221552Z 24005KT 10SM CLR 00/M09 A3049 RMK AO2 SLP323 T00001089 20-01-22",0,0,0,0,0,0,41.16347222222222,-73.12616666666666
"KDOV","DOVER AFB","USA","20-01-22","""2020-01-22T15:56:00.000Z""","KDOV 221556Z AUTO 33004KT 10SM CLR 01/M08 A3050 RMK AO2 SLP332 T00091079 $ 20-01-22",0,0,0,0,0,0,39.12953888888889,-75.46596111111111
"KAAF","APALACHICOLA RGNL-CLEVE RANDOLPH FIELD","USA","20-01-22","""2020-01-22T15:53:00.000Z""","KAAF 221553Z AUTO 03007KT 10SM CLR 07/M07 A3031 RMK AO2 SLP263 T00721067 20-01-22",0,0,0,0,0,0,29.72754722222222,-85.02737499999999
"KBCT","BOCA RATON","USA","20-01-22","""2020-01-22T15:53:00.000Z""","KBCT 221553Z 32015G26KT 10SM CLR 11/04 A3006 20-01-22",0,2,0,0,0,0,26.3785,-80.10769444444443
"KHVN","TWEED-NEW HAVEN","USA","20-01-22","""2020-01-22T15:53:00.000Z""","KHVN 221553Z 02004KT 10SM CLR 01/M08 A3047 RMK AO2 SLP317 T00061083 20-01-22",0,0,0,0,0,0,41.26375,-72.88680555555557
"KBDL","BRADLEY INTL","USA","20-01-22","""2020-01-22T15:51:00.000Z""","KBDL 221551Z 00000KT 10SM FEW250 M04/M11 A3046 RMK AO2 SLP318 T10391111 20-01-22",0,0,0,0,0,0,41.939144444444445,-72.68336944444445
"KILG","NEW CASTLE","USA","20-01-22","""2020-01-22T15:51:00.000Z""","KILG 221551Z 00000KT 10SM CLR 01/M09 A3051 RMK AO2 SLP333 T00061094 20-01-22",0,0,0,0,0,0,39.67872222222222,-75.60663888888888
"KOXC","WATERBURY-OXFORD","USA","20-01-22","""2020-01-22T15:51:00.000Z""","KOXC 221551Z 29005KT 10SM CLR M03/M09 A3044 RMK AO2 SLP333 T10331094 20-01-22",0,0,0,0,0,0,41.47855555555556,-73.13525000000001
"KBOW","BARTOW MUNI","USA","20-01-22","""2020-01-22T15:50:00.000Z""","KBOW 221550Z 33010G18KT 10SM SKC 08/M02 A3014 20-01-22",0,2,0,0,0,0,27.943361111111113,-81.78341666666667
"KXMR","COCOA BEACH/CAPE CANAVERAL AFS SKID STRIP,FL.","USA","20-01-22","""2020-01-22T16:24:00.000Z""","KXMR 221624Z AUTO 30013KT 9SM -RA SCT003 OVC008 10/08 A3004 RMK AO2 RAE01DZB09E10RAB10 CIG 003V010 SLP176 $ 20-01-22",0,0,0,0,0,0,28.46758611111111,-80.56661388888888
"KCTY","CROSS CITY","USA","20-01-22","""2020-01-22T16:15:00.000Z""","KCTY 221615Z AUTO 36010KT 10SM CLR 09/M05 A3024 RMK AO2 T00861050 20-01-22",0,0,0,0,0,0,29.635527777777778,-83.10475
"KEGI","DUKE FIELD,(EGLIN AF AUX NR 3)","USA","20-01-22","""2020-01-22T15:56:00.000Z""","KEGI 221556Z AUTO 07007KT 10SM FEW200 05/M09 A3035 RMK AO2 SLP280 T00531093 $ 20-01-22",0,0,0,0,0,0,30.64858611111111,-86.52195833333333
"KCEW","BOB SIKES","USA","20-01-22","""2020-01-22T15:53:00.000Z""","KCEW 221553Z AUTO VRB06KT 10SM CLR 06/M08 A3037 RMK AO2 SLP284 T00611083 20-01-22",0,0,0,0,0,0,30.77883333333333,-86.52211111111112
"KDAB","DAYTONA BEACH INTL","USA","20-01-22","""2020-01-22T15:53:00.000Z""","KDAB 221553Z 31010KT 10SM -RA OVC014 08/04 A3015 RMK AO2 RAB46 SLP210 P0000 T00780044 20-01-22",0,0,0,0,0,0,29.179916666666667,-81.05805555555555
"KVPS","EGLIN AFB","USA","20-01-22","""2020-01-22T16:01:00.000Z""","KVPS 221601Z 03006KT 10SM CLR 06/M09 A3034 RMK AO2 SLP282 $ 20-01-22",0,0,0,0,0,0,30.483227777777778,-86.52603611111111
"KHST","HOMESTEAD AFB","USA","20-01-22","""2020-01-22T15:56:00.000Z""","KHST 221556Z AUTO 31017G23KT 10SM CLR 11/01 A3005 RMK AO2 SLP179 T01060006 $ 20-01-22",0,4,0,0,0,0,25.48855,-80.38356666666667
"KFMY","PAGE FIELD","USA","20-01-22","""2020-01-22T15:53:00.000Z""","KFMY 221553Z 35009KT 10SM CLR 11/M01 A3015 RMK AO2 SLP210 T01061011 20-01-22",0,0,0,0,0,0,26.58661111111111,-81.86325
"KFPR","ST LUCIE COUNTY INTL","USA","20-01-22","""2020-01-22T15:53:00.000Z""","KFPR 221553Z 29017G24KT 10SM BKN019 OVC027 10/04 A3003 RMK AO2 PK WND 29026/1538 SLP169 T01000039 20-01-22",0,4,0,0,0,0,27.497472222222225,-80.37263888888889
"KFXE","FORT LAUDERDALE EXECUTIVE","USA","20-01-22","""2020-01-22T15:53:00.000Z""","KFXE 221553Z 28014G18KT 10SM BKN070 11/03 A3007 RMK AO2 SLP184 T01060028 20-01-22",0,2,0,0,0,0,26.197280555555555,-80.17070833333334
"KFLL","FORT LAUDERDALE HOLLYWOOD INTL","USA","20-01-22","""2020-01-22T15:53:00.000Z""","KFLL 221553Z 30014G18KT 10SM FEW030 BKN085 10/03 A3006 RMK AO2 SLP179 T01000028 $ 20-01-22",0,2,0,0,0,0,26.071666666666665,-80.14969444444445
"KHWO","NORTH PERRY","USA","20-01-22","""2020-01-22T15:53:00.000Z""","KHWO 221553Z 30013KT 10SM -RA FEW085 11/02 A3009 RMK AO2 SLP190 P0000 T01110022 $ 20-01-22",0,0,0,0,0,0,26.00122222222222,-80.24072222222222
"KRSW","SOUTHWEST FLORIDA INTL","USA","20-01-22","""2020-01-22T15:53:00.000Z""","KRSW 221553Z 33007KT 290V350 10SM CLR 09/M01 A3015 RMK AO2 SLP205 T00941006 20-01-22",0,0,0,0,0,0,26.53616666666667,-81.75516666666667
"KGNV","GAINESVILLE RGNL","USA","20-01-22","""2020-01-22T15:53:00.000Z""","KGNV 221553Z 02008KT 10SM CLR 08/M03 A3024 RMK AO2 SLP243 T00831033 20-01-22",0,0,0,0,0,0,29.690055555555556,-82.27177777777777
"KIMM","IMMOKALEE RGNL","USA","20-01-22","""2020-01-22T16:15:00.000Z""","KIMM 221615Z AUTO 29009G16KT 10SM CLR 11/M00 A3012 RMK AO2 20-01-22",0,2,0,0,0,0,26.433819444444445,-81.401375
"KJAX","JACKSONVILLE INTL","USA","20-01-22","""2020-01-22T15:56:00.000Z""","KJAX 221556Z 03011KT 10SM BKN020 BKN250 08/M04 A3026 RMK AO2 SLP246 T00781039 $ 20-01-22",0,0,0,0,0,0,30.494055555555555,-81.68783333333333
"KCRG","JACKSONVILLE EXECUTIVE AT CRAIG","USA","20-01-22","""2020-01-22T15:53:00.000Z""","KCRG 221553Z 02011G17KT 10SM OVC022 07/M01 A3026 RMK AO2 SLP244 T00671006 20-01-22",0,2,0,0,0,0,30.336333333333332,-81.51444444444445
"KEYW","KEY WEST INTL","USA","20-01-22","""2020-01-22T15:53:00.000Z""","KEYW 221553Z 35014G20KT 10SM SCT027 14/07 A3015 RMK AO2 SLP208 T01390067 20-01-22",0,2,0,0,0,0,24.55611111111111,-81.75955555555555
"KNIP","JACKSONVILLE NAS (TOWERS FIELD)","USA","20-01-22","""2020-01-22T15:53:00.000Z""","KNIP 221553Z 01015KT 10SM BKN020 BKN250 07/M03 A3025 RMK AO2 SLP239 T00721028 20-01-22",0,0,0,0,0,0,30.233855555555557,-81.6749638888889
"KNQX","KEY WEST NAS/BOCA CHICA FIELD","USA","20-01-22","""2020-01-22T15:53:00.000Z""","KNQX 221553Z 35015KT 10SM SCT030 14/04 A3015 RMK AO2 SLP208 T01390044 $ 20-01-22",0,0,0,0,0,0,24.57463611111111,-81.68664444444445
"KVQQ","CECIL","USA","20-01-22","""2020-01-22T15:50:00.000Z""","KVQQ 221550Z 03012KT 10SM BKN022 09/M04 A3025 20-01-22",0,0,0,0,0,0,30.218777777777778,-81.87716666666665
"KMLB","MELBOURNE INTL","USA","20-01-22","""2020-01-22T16:05:00.000Z""","KMLB 221605Z 31017G23KT 10SM OVC014 09/06 A3004 RMK AO2 RAE1556 P0000 T00940061 20-01-22",0,4,0,0,0,0,28.10275,-80.64525
"KMCF","MACDILL AFB","USA","20-01-22","""2020-01-22T15:56:00.000Z""","KMCF 221556Z AUTO 36008KT 10SM CLR 08/M05 A3018 RMK AO2 SLP223 T00771047 FZRANO $ 20-01-22",0,0,0,0,0,0,27.84933333333333,-82.52116666666666
"KISM","KISSIMMEE GATEWAY","USA","20-01-22","""2020-01-22T15:56:00.000Z""","KISM 221556Z 36012KT 10SM BKN021 09/01 A3016 RMK AO2 SLP212 T00890011 PNO $ 20-01-22",0,0,0,0,0,0,28.289805555555557,-81.43708333333333
"KLEE","LEESBURG INTL","USA","20-01-22","""2020-01-22T15:53:00.000Z""","KLEE 221553Z 35010KT 10SM BKN020 09/M02 A3020 RMK AO2 SLP226 T00891017 20-01-22",0,0,0,0,0,0,28.82288888888889,-81.80841666666666
"KMTH","THE FLORIDA KEYS MARATHON","USA","20-01-22","""2020-01-22T15:53:00.000Z""","KMTH 221553Z AUTO CLR 13/04 A3012 RMK AO2 SLP198 T01280039 PNO $ 20-01-22",0,0,0,0,0,0,24.72619444444444,-81.0513611111111
"KNRB","MAYPORT NS (ADM DAVID L. MCDONALD FIELD)","USA","20-01-22","""2020-01-22T15:52:00.000Z""","KNRB 221552Z 01015G23KT 10SM BKN020 OVC250 07/01 A3025 RMK AO2 SLP242 T00670011 $ 20-01-22",0,2,0,0,0,0,30.391375,-81.42451944444444
"KLAL","LAKELAND LINDER RGNL","USA","20-01-22","""2020-01-22T15:50:00.000Z""","KLAL 221550Z 34010KT 10SM SKC 07/M03 A3018 20-01-22",0,0,0,0,0,0,27.988916666666668,-82.01855555555555
"KOBE","OKEECHOBEE COUNTY","USA","20-01-22","""2020-01-22T16:15:00.000Z""","KOBE 221615Z AUTO 34015G18KT 10SM SCT040 BKN049 BKN055 10/02 A3009 RMK AO2 20-01-22",0,2,0,0,0,0,27.266583333333333,-80.85038888888889
"KMCO","ORLANDO INTL","USA","20-01-22","""2020-01-22T15:53:00.000Z""","KMCO 221553Z 33016KT 8SM BKN019 09/01 A3013 RMK AO2 SLP203 T00890011 20-01-22",0,2,0,0,0,0,28.42938888888889,-81.309
"KMIA","MIAMI INTL","USA","20-01-22","""2020-01-22T15:53:00.000Z""","KMIA 221553Z 29007G19KT 10SM FEW030 11/01 A3009 RMK AO2 SLP187 T01110011 20-01-22",0,2,0,0,0,0,25.795361111111113,-80.29011111111112
"KOPF","OPA-LOCKA EXECUTIVE","USA","20-01-22","""2020-01-22T15:53:00.000Z""","KOPF 221553Z 32014G23KT 10SM CLR 11/02 A3009 RMK AO2 SLP189 T01060022 20-01-22",0,2,0,0,0,0,25.907416666666666,-80.27822222222223
"KTMB","KENDALL-TAMIAMI EXECUTIVE","USA","20-01-22","""2020-01-22T15:53:00.000Z""","KTMB 221553Z 33015KT CLR 10/02 A3009 RMK AO2 SLP190 T01000017 20-01-22",0,0,0,0,0,0,25.64756111111111,-80.43322222222223
"KAPF","NAPLES MUNI","USA","20-01-22","""2020-01-22T15:53:00.000Z""","KAPF 221553Z 34009KT 10SM CLR 12/01 A3015 RMK AO2 SLP207 T01170011 20-01-22",0,0,0,0,0,0,26.152438888888888,-81.77563611111111
"KOCF","OCALA INTL-JIM TAYLOR FIELD","USA","20-01-22","""2020-01-22T15:51:00.000Z""","KOCF 221551Z 01008G14KT 10SM CLR 07/M02 A3022 RMK AO2 SLP235 T00721022 $ 20-01-22",0,2,0,0,0,0,29.171875,-82.2241138888889
"KCOF","PATRICK AFB","USA","20-01-22","""2020-01-22T16:12:00.000Z""","KCOF 221612Z AUTO 32021G27KT 10SM -RA OVC013 10/10 A3004 RMK AO2 RAB12 CIG 012 RWY21 SLP177 $ 20-01-22",0,6,0,0,0,0,28.234922222222224,-80.610125
"KNPA","PENSACOLA NAS/FORREST SHERMAN FIELD","USA","20-01-22","""2020-01-22T15:56:00.000Z""","KNPA 221556Z 07011KT 10SM BKN200 06/M07 A3036 RMK AO2 SLP283 T00611072 20-01-22",0,0,0,0,0,0,30.352855555555557,-87.31861944444444
"KECP","NORTHWEST FLORIDA BEACHES INTL","USA","20-01-22","""2020-01-22T15:53:00.000Z""","KECP 221553Z 02009KT 10SM CLR 07/M08 A3031 RMK AO2 SLP277 T00671078 20-01-22",0,0,0,0,0,0,30.35825,-85.79561111111111
"KORL","EXECUTIVE","USA","20-01-22","""2020-01-22T15:53:00.000Z""","KORL 221553Z 33010KT 10SM OVC019 09/01 A3014 RMK AO2 SLP214 T00890006 20-01-22",0,0,0,0,0,0,28.545472222222223,-81.33291666666666
"KPNS","PENSACOLA INTL","USA","20-01-22","""2020-01-22T15:53:00.000Z""","KPNS 221553Z 07006KT 10SM CLR 06/M07 A3037 RMK AO2 SLP287 T00561072 20-01-22",0,0,0,0,0,0,30.473425,-87.18661111111112
"KPGD","PUNTA GORDA","USA","20-01-22","""2020-01-22T15:53:00.000Z""","KPGD 221553Z 35011KT 10SM CLR 10/M02 A3017 RMK AO2 SLP217 T01001022 20-01-22",0,0,0,0,0,0,26.918936111111112,-81.990925
"KTLH","TALLAHASSEE RGNL","USA","20-01-22","""2020-01-22T15:53:00.000Z""","KTLH 221553Z 02007KT 350V050 10SM BKN250 07/M07 A3030 RMK AO2 SLP261 T00721072 20-01-22",0,0,0,0,0,0,30.39675,-84.3508611111111
"KSRQ","SARASOTA/BRADENTON INTL","USA","20-01-22","""2020-01-22T15:53:00.000Z""","KSRQ 221553Z 35012KT 10SM CLR 10/M02 A3017 RMK AO2 SLP216 T01001017 20-01-22",0,0,0,0,0,0,27.395444444444443,-82.55438888888888
"KSPG","ALBERT WHITTED","USA","20-01-22","""2020-01-22T15:53:00.000Z""","KSPG 221553Z 02014KT 10SM CLR 08/M01 A3018 RMK AO2 SLP219 T00831011 $ 20-01-22",0,0,0,0,0,0,27.76511111111111,-82.62697222222222
"KSFB","ORLANDO SANFORD INTL","USA","20-01-22","""2020-01-22T15:53:00.000Z""","KSFB 221553Z 34016G21KT 10SM OVC017 10/04 A3013 RMK AO2 SLP203 T01000044 20-01-22",0,4,0,0,0,0,28.77697222222222,-81.23491666666666
"KPIE","ST. PETE-CLEARWATER INTL","USA","20-01-22","""2020-01-22T15:53:00.000Z""","KPIE 221553Z 02008KT 10SM CLR 09/M03 A3020 RMK AO2 SLP227 T00941033 $ 20-01-22",0,0,0,0,0,0,27.90868611111111,-82.68649166666667
"KTPA","TAMPA INTL","USA","20-01-22","""2020-01-22T15:53:00.000Z""","KTPA 221553Z 01008KT 10SM FEW300 09/M05 A3021 RMK AO2 SLP228 T00891050 20-01-22",0,0,0,0,0,0,27.97547222222222,-82.53325
"KSUA","WITHAM FIELD","USA","20-01-22","""2020-01-22T15:47:00.000Z""","KSUA 221547Z 29013G20KT 7SM BKN020 OVC031 10/03 A3005 20-01-22",0,2,0,0,0,0,27.181694444444446,-80.22130555555556
"KZPH","ZEPHYRHILLS MUNI","USA","20-01-22","""2020-01-22T16:15:00.000Z""","KZPH 221615Z AUTO 32010KT 10SM CLR 09/M02 A3018 RMK A02 T00891018 20-01-22",0,0,0,0,0,0,28.227988888888888,-82.15599444444445
"KNSE","WHITING FIELD NAS NORTH","USA","20-01-22","""2020-01-22T15:56:00.000Z""","KNSE 221556Z VRB04KT 10SM FEW180 BKN250 04/M06 A3037 RMK AO2 SLP274 T00391056 $ 20-01-22",0,0,0,0,0,0,30.724166666666665,-87.02194444444444
"KPAM","TYNDALL AFB","USA","20-01-22","""2020-01-22T15:56:00.000Z""","KPAM 221556Z AUTO 05008KT 10SM CLR 06/M06 A3032 RMK AO2 SLP271 T00591064 $ 20-01-22",0,0,0,0,0,0,30.069566666666667,-85.57541388888889
"KGIF","WINTER HAVEN'S GILBERT","USA","20-01-22","""2020-01-22T15:53:00.000Z""","KGIF 221553Z AUTO 33010KT 10SM CLR 09/M02 A3016 RMK AO2 SLP214 T00891017 20-01-22",0,0,0,0,0,0,28.062916666666666,-81.75330555555556
"KPBI","PALM BEACH INTL","USA","20-01-22","""2020-01-22T15:53:00.000Z""","KPBI 221553Z 29018G23KT 10SM SCT020 SCT085 12/03 A3004 RMK AO2 SLP173 T01220028 20-01-22",0,4,0,0,0,0,26.68316666666667,-80.09558333333332
"KVRB","VERO BEACH MUNI","USA","20-01-22","""2020-01-22T15:53:00.000Z""","KVRB 221553Z 30017G27KT 10SM OVC015 09/04 A3004 20-01-22",0,4,0,0,0,0,27.655555555555555,-80.41794444444444
"KTIX","SPACE COAST RGNL","USA","20-01-22","""2020-01-22T15:47:00.000Z""","KTIX 221547Z 33015G25KT 2SM BR OVC015 09/05 A3009 20-01-22",0,2,0,0,0,0,28.5148,-80.79922777777777
"KPUJ","PAULDING NORTHWEST ATLANTA","USA","20-01-22","""2020-01-22T16:15:00.000Z""","KPUJ 221615Z AUTO 11010G14KT 10SM CLR 02/M09 A3034 RMK AO2 20-01-22",0,2,0,0,0,0,33.91204166666667,-84.94061944444445
"KABY","SOUTHWEST GEORGIA RGNL","USA","20-01-22","""2020-01-22T15:53:00.000Z""","KABY 221553Z 02009KT 10SM CLR 06/M07 A3036 RMK AO2 SLP282 T00611067 20-01-22",0,0,0,0,0,0,31.53552777777778,-84.19447222222223
"KFTY","FULTON COUNTY AIRPORT-BROWN FIELD","USA","20-01-22","""2020-01-22T15:53:00.000Z""","KFTY 221553Z 08011KT 10SM CLR 03/M11 A3038 RMK AO2 SLP292 T00331106 20-01-22",0,0,0,0,0,0,33.779125,-84.52136388888889
"KATL","HARTSFIELD - JACKSON  ATLANTA INTL","USA","20-01-22","""2020-01-22T15:52:00.000Z""","KATL 221552Z 07014KT 10SM BKN250 03/M11 A3037 RMK AO2 SLP294 T00331106 20-01-22",0,0,0,0,0,0,33.636697222222224,-84.4278638888889
"KAHN","ATHENS/BEN EPPS","USA","20-01-22","""2020-01-22T15:51:00.000Z""","KAHN 221551Z 07011KT 10SM CLR 03/M10 A3040 RMK AO2 SLP302 T00331100 20-01-22",0,0,0,0,0,0,33.94863888888889,-83.32591666666666
"KBGE","DECATUR COUNTY INDUSTRIAL AIR PARK","USA","20-01-22","""2020-01-22T16:15:00.000Z""","KBGE 221615Z AUTO 05009KT 10SM CLR 06/M07 A3032 RMK AO2 T00641069 20-01-22",0,0,0,0,0,0,30.971597222222222,-84.63692777777779
"KBQK","BRUNSWICK GOLDEN ISLES","USA","20-01-22","""2020-01-22T16:15:00.000Z""","KBQK 221615Z AUTO 03011G17KT 10SM CLR 08/M05 A3028 RMK AO2 T00801049 20-01-22",0,2,0,0,0,0,31.259033333333335,-81.46631388888889
"KSSI","MALCOM MC KINNON","USA","20-01-22","""2020-01-22T15:53:00.000Z""","KSSI 221553Z AUTO 02011G21KT 10SM CLR 08/M04 A3028 RMK AO2 SLP256 T00781039 20-01-22",0,2,0,0,0,0,31.15197222222222,-81.39105555555557
"KDNL","DANIEL FIELD","USA","20-01-22","""2020-01-22T15:53:00.000Z""","KDNL 221553Z AUTO 02010KT 10SM CLR 05/M12 A3039 RMK AO2 SLP293 T00501117 20-01-22",0,0,0,0,0,0,33.46658333333334,-82.0393888888889
"KAGS","AUGUSTA RGNL AT BUSH FIELD","USA","20-01-22","""2020-01-22T15:53:00.000Z""","KAGS 221553Z 03011KT 10SM CLR 07/M11 A3039 RMK AO2 SLP293 T00671106 20-01-22",0,0,0,0,0,0,33.36994444444444,-81.9645
"KDBN","W H 'BUD' BARRON","USA","20-01-22","""2020-01-22T16:15:00.000Z""","KDBN 221615Z AUTO 04011G16KT 10SM 06/M12 A3037 RMK AO2 20-01-22",0,2,0,0,0,0,32.56472222222222,-82.98497222222223
"KDNN","DALTON MUNI","USA","20-01-22","""2020-01-22T16:15:00.000Z""","KDNN 221615Z AUTO 00000KT 10SM CLR 01/M07 A3043 RMK AO2 20-01-22",0,0,0,0,0,0,34.72293611111111,-84.87023888888888
"KLSF","LAWSON AAF (FORT BENNING)","USA","20-01-22","""2020-01-22T15:56:00.000Z""","KLSF 221556Z AUTO 03006KT 10SM CLR 05/M11 A3034 RMK AO2 SLP281 T00521110 20-01-22",0,0,0,0,0,0,32.33733333333333,-84.99133333333333
"KMGE","DOBBINS AIR RESERVE BASE","USA","20-01-22","""2020-01-22T15:56:00.000Z""","KMGE 221556Z 08011KT 10SM BKN250 03/M10 A3036 RMK AO2A SLP292 T00321105 $ 20-01-22",0,0,0,0,0,0,33.91444166666667,-84.51424722222222
"KCSG","COLUMBUS","USA","20-01-22","""2020-01-22T15:51:00.000Z""","KCSG 221551Z 10013G17KT 10SM CLR 05/M12 A3035 RMK AO2 SLP280 T00501117 20-01-22",0,2,0,0,0,0,32.516333333333336,-84.93886111111111
"KLGC","LAGRANGE-CALLAWAY","USA","20-01-22","""2020-01-22T16:15:00.000Z""","KLGC 221615Z AUTO 08007KT 10SM CLR 04/M12 A3036 RMK AO2 T00351117 20-01-22",0,0,0,0,0,0,33.00886111111111,-85.0726111111111
"KLZU","GWINNETT COUNTY - BRISCOE FIELD","USA","20-01-22","""2020-01-22T15:56:00.000Z""","KLZU 221556Z 08012G19KT 10SM CLR 03/M09 A3038 RMK AO2 SLP308 T00281089 20-01-22",0,2,0,0,0,0,33.978075000000004,-83.96237777777777
"KGVL","LEE GILMER MEMORIAL","USA","20-01-22","""2020-01-22T15:53:00.000Z""","KGVL 221553Z AUTO 06010KT 10SM CLR 03/M10 A3039 RMK AO2 SLP299 T00281100 20-01-22",0,0,0,0,0,0,34.272625,-83.83022222222222
"KMCN","MIDDLE GEORGIA RGNL","USA","20-01-22","""2020-01-22T15:53:00.000Z""","KMCN 221553Z 06011KT 10SM CLR 06/M11 A3036 RMK AO2 SLP282 T00611111 20-01-22",0,0,0,0,0,0,32.69283333333333,-83.64922222222224
"KMLJ","BALDWIN COUNTY","USA","20-01-22","""2020-01-22T16:15:00.000Z""","KMLJ 221615Z AUTO 06007KT 10SM CLR 05/M10 A3039 RMK AO2 20-01-22",0,0,0,0,0,0,33.15416666666667,-83.24069444444444
"KMGR","MOULTRIE MUNI","USA","20-01-22","""2020-01-22T16:15:00.000Z""","KMGR 221615Z AUTO 01006KT 10SM CLR 06/M06 A3030 RMK AO2 20-01-22",0,0,0,0,0,0,31.084916666666665,-83.80324999999999
"KVAD","MOODY AFB","USA","20-01-22","""2020-01-22T15:56:00.000Z""","KVAD 221556Z AUTO 04008KT 10SM CLR 07/M08 A3027 RMK AO2 SLP255 T00741078 $ 20-01-22",0,0,0,0,0,0,30.9687,-83.1929638888889
"KPDK","DEKALB-PEACHTREE","USA","20-01-22","""2020-01-22T15:53:00.000Z""","KPDK 221553Z 10005KT 10SM CLR 03/M11 A3038 RMK AO2 SLP305 T00281106 20-01-22",0,0,0,0,0,0,33.87561111111111,-84.30197222222222
"KRMG","RICHARD B. RUSSELL REGIONAL-J.H. TOWERS FIELD","USA","20-01-22","""2020-01-22T15:53:00.000Z""","KRMG 221553Z AUTO 00000KT 10SM CLR 01/M08 A3040 RMK AO2 SLP298 T00111078 20-01-22",0,0,0,0,0,0,34.35078055555556,-85.15866666666668
"KRYY","ATLANTA/COBB COUNTY INTL-MCCOLLUM FIELD, GA","USA","20-01-22","""2020-01-22T15:50:00.000Z""","KRYY 221550Z 11014G20KT 10SM CLR 02/M11 A3037 RMK AO2 SLP006 T00221111 $ 20-01-22",0,2,0,0,0,0,34.01316666666666,-84.59702777777777
"KTVI","THOMASVILLE RGNL","USA","20-01-22","""2020-01-22T16:15:00.000Z""","KTVI 221615Z AUTO 00000KT 10SM CLR 06/M06 A3031 RMK AO2 20-01-22",0,0,0,0,0,0,30.901805555555555,-83.88113888888888
"KTOC","TOCCOA RG LETOURNEAU FIELD","USA","20-01-22","""2020-01-22T16:15:00.000Z""","KTOC 221615Z AUTO 05003KT 10SM CLR 03/M08 A3041 RMK AO2 T00341082 20-01-22",0,0,0,0,0,0,34.59281111111111,-83.29636944444444
"KTMA","HENRY TIFT MYERS","USA","20-01-22","""2020-01-22T16:15:00.000Z""","KTMA 221615Z AUTO 02008KT 360V080 10SM CLR 07/M07 A3029 RMK AO2 T00681071 20-01-22",0,0,0,0,0,0,31.429555555555556,-83.48922222222222
"KTBR","STATESBORO-BULLOCH COUNTY","USA","20-01-22","""2020-01-22T16:15:00.000Z""","KTBR 221615Z AUTO 03009G16KT 10SM CLR 06/M08 A3034 RMK AO2 T00631082 20-01-22",0,2,0,0,0,0,32.48275,-81.73694444444445
"KSVN","HUNTER AAF","USA","20-01-22","""2020-01-22T15:56:00.000Z""","KSVN 221556Z AUTO 01007G16KT 10SM CLR 07/M05 A3029 RMK AO2 SLP260 T00721046 $ 20-01-22",0,2,0,0,0,0,32.01,-81.14566666666667
"KSAV","SAVANNAH/HILTON HEAD INTL","USA","20-01-22","""2020-01-22T15:53:00.000Z""","KSAV 221553Z 02010KT 10SM SCT250 08/M04 A3033 RMK AO2 SLP269 T00831039 20-01-22",0,0,0,0,0,0,32.127583333333334,-81.2021388888889
"KVLD","VALDOSTA RGNL","USA","20-01-22","""2020-01-22T15:53:00.000Z""","KVLD 221553Z 02010KT 10SM CLR 08/M07 A3028 RMK AO2 SLP264 T00831067 $ 20-01-22",0,0,0,0,0,0,30.78137222222222,-83.27621944444445
"KVDI","VIDALIA RGNL","USA","20-01-22","""2020-01-22T16:15:00.000Z""","KVDI 221615Z AUTO 03011G15KT 10SM CLR 07/M10 A3033 RMK AO2 20-01-22",0,2,0,0,0,0,32.192722222222216,-82.37116666666665
"KWDR","BARROW COUNTY","USA","20-01-22","""2020-01-22T16:15:00.000Z""","KWDR 221615Z AUTO 08006KT 10SM CLR 03/M12 A3042 RMK AO2 20-01-22",0,0,0,0,0,0,33.98286111111111,-83.66741666666667
"PHSF","BRADSHAW ARMY AIRFIELD","USA","20-01-22","""2020-01-22T15:58:00.000Z""","PHSF 221558Z AUTO 08004KT 10SM CLR 03/M09 A3031 RMK AO2 SLP181 T00311090 TSNO $ 20-01-22",0,0,0,0,0,0,19.76001388888889,-155.5537666666667
"KWRB","ROBINS AFB","USA","20-01-22","""2020-01-22T15:56:00.000Z""","KWRB 221556Z AUTO 06010G18KT 10SM CLR 05/M11 A3036 RMK AO2 SLP286 T00511115 20-01-22",0,2,0,0,0,0,32.64017222222222,-83.59191944444444
"PHOG","KAHULUI","USA","20-01-22","""2020-01-22T15:54:00.000Z""","PHOG 221554Z 16004KT 10SM CLR 14/10 A3005 RMK AO2 SLP180 T01390100 $ 20-01-22",0,0,0,0,0,0,20.89865,-156.43045833333332
"PHNL","HONOLULU INTL","USA","20-01-22","""2020-01-22T15:53:00.000Z""","PHNL 221553Z 34004KT 10SM CLR 19/16 A3006 RMK AO2 SLP177 T01890156 20-01-22",0,0,0,0,0,0,21.317825,-157.9202611111111
"PHTO","HILO INTL","USA","20-01-22","""2020-01-22T15:53:00.000Z""","PHTO 221553Z 24005KT 10SM OVC050 21/13 A3007 RMK AO2 SLP180 T02060128 20-01-22",0,0,0,0,0,0,19.720263888888887,-155.04846944444444
"PMDY","HENDERSON FIELD","USA","20-01-22","""2020-01-22T16:09:00.000Z""","PMDY 221609Z AUTO 20014KT 10SM FEW013 BKN017 OVC110 22/20 A2973 RMK AO2 20-01-22",0,0,0,0,0,0,28.201483333333332,-177.38130833333335
"PHHI","WHEELER AAF","USA","20-01-22","""2020-01-22T15:56:00.000Z""","PHHI 221556Z AUTO 00000KT 10SM CLR 16/16 A3006 RMK AO2 SLP174 T01600158 $ 20-01-22",0,0,0,0,0,0,21.4835,-158.03966666666668
"PHNY","LANAI","USA","20-01-22","""2020-01-22T15:56:00.000Z""","PHNY 221556Z AUTO 08005KT 1 1/4SM HZ CLR 15/12 A3010 RMK AO2 SLP177 T01500117 PWINO $ 20-01-22",0,0,0,0,0,0,20.785611111111113,-156.95141666666666
"PHMK","MOLOKAI","USA","20-01-22","""2020-01-22T15:54:00.000Z""","PHMK 221554Z 33004KT 10SM CLR 14/12 A3006 RMK AO2 SLP184 T01390122 20-01-22",0,0,0,0,0,0,21.152833333333334,-157.09633333333335
"PHKO","KONA INTL AT KEAHOLE ","USA","20-01-22","""2020-01-22T15:53:00.000Z""","PHKO 221553Z 10008KT 10SM CLR 21/14 A3004 RMK AO2 SLP172 T02060139 20-01-22",0,0,0,0,0,0,19.73876388888889,-156.04563055555556
"PHLI","LIHUE","USA","20-01-22","""2020-01-22T15:53:00.000Z""","PHLI 221553Z AUTO 28007KT 10SM CLR 18/17 A3006 RMK AO2 SLP177 T01830172 TSNO 20-01-22",0,0,0,0,0,0,21.975980555555555,-159.33895555555557
"KAMW","AMES MUNI","USA","20-01-22","""2020-01-22T16:22:00.000Z""","KAMW 221622Z AUTO 16013KT 2 1/2SM -SN BR BKN013 BKN026 OVC036 00/M02 A2999 RMK AO2 P0000 T00001017 20-01-22",0,0,6.7,7.5,0,1,41.99205555555556,-93.62183333333333
"KAIO","ATLANTIC MUNI","USA","20-01-22","""2020-01-22T16:15:00.000Z""","KAIO 221615Z AUTO 17012KT 3SM -UP FEW007 FEW013 01/01 A2992 RMK AO2 20-01-22",0,0,0,2.5,0,1,41.40383333333333,-95.04875
"KBNW","BOONE MUNI","USA","20-01-22","""2020-01-22T16:15:00.000Z""","KBNW 221615Z AUTO 17013KT 1SM BR BKN011 BKN021 OVC039 M00/M00 A2995 RMK AO2 20-01-22",0,0,0,7.5,0,1,42.04955555555556,-93.8476111111111
"KCIN","ARTHUR N NEU","USA","20-01-22","""2020-01-22T16:15:00.000Z""","KCIN 221615Z AUTO 18014KT 2 1/2SM BR BKN007 BKN013 01/01 A2991 RMK AO2 20-01-22",0,0,0,7.5,0,1,42.04666666666667,-94.78869444444445
"KBRL","SOUTHEAST IOWA RGNL","USA","20-01-22","""2020-01-22T15:53:00.000Z""","KBRL 221553Z AUTO 18013G18KT 10SM FEW100 M02/M07 A3015 RMK AO2 SLP220 T10171072 20-01-22",0,2,0,0,0,0,40.78322222222222,-91.12549999999999
"KCID","CEDAR RAPIDS MUNI,IA.","USA","20-01-22","""2020-01-22T15:52:00.000Z""","KCID 221552Z 18015G21KT 9SM BKN095 M03/M06 A3007 RMK AO2 SLP197 T10331061 20-01-22",0,2,0,0,0,0,41.88468611111111,-91.71079722222223
"KDNS","DENISON MUNI","USA","20-01-22","""2020-01-22T16:15:00.000Z""","KDNS 221615Z AUTO 18014G22KT 3SM BR FEW008 SCT013 BKN020 01/01 A2990 RMK AO2 20-01-22",0,2,0,7.5,0,1,41.986583333333336,-95.3805
"KDEH","DECORAH MUNI","USA","20-01-22","""2020-01-22T16:15:00.000Z""","KDEH 221615Z AUTO 18009G16KT 10SM SCT017 OVC023 M02/M04 A3000 RMK AO2 20-01-22",0,2,0,2.5,0,0,43.2755,-91.7393888888889
"KICL","SCHENCK FIELD","USA","20-01-22","""2020-01-22T16:15:00.000Z""","KICL 221615Z AUTO 18011KT 1 3/4SM -SN OVC008 01/01 A2997 RMK AO2 20-01-22",0,0,6.7,7.5,0,1,40.72219444444445,-95.02661111111111
"KCSQ","CRESTON MUNI","USA","20-01-22","""2020-01-22T16:15:00.000Z""","KCSQ 221615Z AUTO 16013KT 1 1/2SM -UP OVC007 M00/M00 A2996 RMK AO2 20-01-22",0,0,0,2.5,0,1,41.02144444444444,-94.36330555555556
"KCCY","NORTHEAST IOWA RGNL","USA","20-01-22","""2020-01-22T16:15:00.000Z""","KCCY 221615Z AUTO 17014KT 3SM -UP SCT014 SCT032 M01/M02 A2998 RMK AO2 20-01-22",0,0,0,2.5,0,1,43.07250277777778,-92.61080833333332
"KCBF","COUNCIL BLUFFS MUNI","USA","20-01-22","""2020-01-22T16:15:00.000Z""","KCBF 221615Z AUTO 17009G14KT 1SM -SN OVC005 00/00 A2988 RMK AO2 20-01-22",0,2,6.7,7.5,0,1,41.26011111111111,-95.75863888888888
"KCWI","CLINTON MUNI","USA","20-01-22","""2020-01-22T15:56:00.000Z""","KCWI 221556Z AUTO 17009KT 10SM CLR M02/M06 A3015 RMK AO2 SLP225 T10221056 FZRANO 20-01-22",0,0,0,0,0,0,41.83075,-90.32897222222222
"KDVN","DAVENPORT MUNI","USA","20-01-22","""2020-01-22T15:52:00.000Z""","KDVN 221552Z AUTO 17013KT 9SM CLR M03/M07 A3016 RMK AO2 SLP219 T10281072 20-01-22",0,0,0,0,0,0,41.61027777777778,-90.58836111111111
"KFOD","FORT DODGE RGNL","USA","20-01-22","""2020-01-22T16:26:00.000Z""","KFOD 221626Z AUTO 18011G16KT 4SM -SN BR OVC005 01/M01 A2993 RMK AO2 P0001 FZRANO 20-01-22",0,2,6.7,7.5,0,0,42.55119444444444,-94.19183333333334
"KDSM","DES MOINES INTL","USA","20-01-22","""2020-01-22T16:25:00.000Z""","KDSM 221625Z 17013KT 3SM -FZRASN BR BKN012 OVC036 M01/M02 A3000 RMK AO2 P0002 I1000 T10061022 20-01-22",0,0,10,7.5,0,1,41.53397222222222,-93.66308333333333
"KFXY","FOREST CITY MUNI","USA","20-01-22","""2020-01-22T16:15:00.000Z""","KFXY 221615Z AUTO 19013KT 2 1/2SM -SN OVC006 01/01 A2992 RMK AO2 20-01-22",0,0,6.7,7.5,0,1,43.23475555555556,-93.62410277777776
"KFFL","FAIRFIELD MUNI","USA","20-01-22","""2020-01-22T16:15:00.000Z""","KFFL 221615Z AUTO 16009KT 10SM CLR M02/M04 A3008 RMK A01 20-01-22",0,0,0,2.5,0,0,41.05571944444444,-91.98081944444445
"KEST","ESTHERVILLE MUNI","USA","20-01-22","""2020-01-22T16:09:00.000Z""","KEST 221609Z AUTO 19015KT 1 3/4SM -SN BR OVC006 00/M01 A2986 RMK AO2 CIG 005V010 P0001 T00001006 20-01-22",0,0,6.7,7.5,0,1,43.407180555555556,-94.74644444444445
"KDBQ","DUBUQUE RGNL","USA","20-01-22","""2020-01-22T15:53:00.000Z""","KDBQ 221553Z 18016KT 8SM CLR M04/M07 A3008 RMK AO2 SLP203 T10391067 $ 20-01-22",0,2,0,0,0,0,42.402,-90.70947222222223
"KEOK","KEOKUK MUNI","USA","20-01-22","""2020-01-22T16:15:00.000Z""","KEOK 221615Z AUTO 15009KT 10SM CLR M02/M06 A3014 RMK AO2 20-01-22",0,0,0,0,0,0,40.45990833333334,-91.4285
"KMXO","MONTICELLO RGNL","USA","20-01-22","""2020-01-22T16:15:00.000Z""","KMXO 221615Z AUTO 17011KT 10SM CLR M03/M05 A3010 RMK AO2 20-01-22",0,0,0,2.5,0,0,42.22036111111111,-91.16329722222223
"KMPZ","MOUNT PLEASANT MUNI, IA","USA","20-01-22","""2020-01-22T16:15:00.000Z""","KMPZ 221615Z AUTO 18010KT 10SM SCT070 OVC090 00/M04 A3013 RMK AO2 20-01-22",0,0,0,0,0,0,40.94658888888888,-91.51106944444444
"KLRJ","LE MARS MUNI","USA","20-01-22","""2020-01-22T16:15:00.000Z""","KLRJ 221615Z AUTO 18012KT 2 1/2SM -UP OVC005 01/01 A2984 RMK AO2 20-01-22",0,0,0,2.5,0,1,42.777944444444444,-96.19369444444445
"KIFA","IOWA FALLS MUNI","USA","20-01-22","""2020-01-22T16:15:00.000Z""","KIFA 221615Z AUTO 16014KT 2 1/2SM -SN BKN009 BKN021 OVC030 00/M02 A2999 RMK AO2 T00001024 20-01-22",0,0,6.7,7.5,0,1,42.471358333333335,-93.27071944444444
"KMIW","MARSHALLTOWN MUNI","USA","20-01-22","""2020-01-22T15:53:00.000Z""","KMIW 221553Z AUTO 16014KT 10SM BKN018 OVC028 M02/M03 A3001 RMK AO2 UPB03E20 SLP177 P0000 T10171033 20-01-22",0,0,0,2.5,0,0,42.11275,-92.91777777777779
"KMCW","MASON CITY MUNI","USA","20-01-22","""2020-01-22T15:53:00.000Z""","KMCW 221553Z AUTO 18014KT 5SM UP BR OVC008 01/M01 A2995 RMK AO2 SLP153 P0000 T00061011 20-01-22",0,0,3.3,7.5,0,0,43.157805555555555,-93.33125
"KIOW","IOWA CITY MUNI","USA","20-01-22","""2020-01-22T15:52:00.000Z""","KIOW 221552Z AUTO 18009KT 10SM CLR M02/M06 A3014 RMK AO2 SLP216 T10171061 20-01-22",0,0,0,0,0,0,41.63977777777778,-91.54813888888889
"KMUT","MUSCATINE MUNI","USA","20-01-22","""2020-01-22T16:15:00.000Z""","KMUT 221615Z AUTO 16007KT 10SM CLR M02/M06 A3016 RMK AO2 20-01-22",0,0,0,0,0,0,41.36788888888889,-91.14822222222223
"KOOA","OSKALOOSA MUNI","USA","20-01-22","""2020-01-22T16:15:00.000Z""","KOOA 221615Z AUTO 17010KT 10SM SCT039 BKN048 BKN060 00/M03 A3007 RMK AO2 T10011029 20-01-22",0,0,0,0,0,0,41.226111111111116,-92.49383333333333
"KPRO","PERRY MUNI","USA","20-01-22","""2020-01-22T16:15:00.000Z""","KPRO 221615Z AUTO 16011KT 4SM -SN OVC012 00/M01 A2996 RMK AO2 T00021008 20-01-22",0,0,6.7,7.5,0,0,41.828,-94.15983333333334
"KTNU","NEWTON MUNI","USA","20-01-22","""2020-01-22T16:15:00.000Z""","KTNU 221615Z AUTO 17013KT 3SM BR BKN022 OVC027 M00/M02 A3002 RMK A01 20-01-22",0,0,0,7.5,0,0,41.674416666666666,-93.02172222222222
"KOTM","OTTUMWA RGNL","USA","20-01-22","""2020-01-22T15:53:00.000Z""","KOTM 221553Z AUTO 18014G22KT 10SM SCT042 BKN090 OVC110 M02/M06 A3008 RMK AO2 SLP197 T10171056 20-01-22",0,2,0,0,0,0,41.10718055555556,-92.44707222222223
"KSLB","STORM LAKE MUNI","USA","20-01-22","""2020-01-22T16:15:00.000Z""","KSLB 221615Z AUTO 18017KT 1 1/4SM BR BKN004 00/00 A2983 RMK AO2 20-01-22",0,2,0,7.5,0,1,42.59722222222222,-95.24066666666667
"KEBS","WEBSTER CITY MUNI","USA","20-01-22","""2020-01-22T16:15:00.000Z""","KEBS 221615Z AUTO 17016KT 1 3/4SM BR BKN008 OVC012 00/00 A2993 RMK AO2 20-01-22",0,2,0,7.5,0,1,42.436411111111106,-93.86896666666667
"KALO","WATERLOO RGNL","USA","20-01-22","""2020-01-22T16:03:00.000Z""","KALO 221603Z 17016G22KT 10SM FEW021 BKN025 OVC047 M01/M06 A3003 RMK AO2 T10111056 20-01-22",0,4,0,0,0,0,42.55708333333333,-92.40033333333334
"KBYI","BURLEY MUNI","USA","20-01-22","""2020-01-22T15:53:00.000Z""","KBYI 221553Z AUTO 24010KT 10SM CLR 01/M03 A3012 RMK AO2 SLP208 T00111033 20-01-22",0,0,0,0,0,0,42.54261111111111,-113.77152777777778
"KBOI","BOISE AIR TERMINAL/GOWEN FLD","USA","20-01-22","""2020-01-22T15:53:00.000Z""","KBOI 221553Z 13006KT 10SM OVC080 00/M02 A3015 RMK AO2 SLP225 T00001017 20-01-22",0,0,0,2.5,0,0,43.56436111111111,-116.22286111111111
"KSUX","SIOUX GATEWAY/COL. BUD DAY FIELD","USA","20-01-22","""2020-01-22T15:52:00.000Z""","KSUX 221552Z 16015KT 3SM -SN OVC009 A2985 RMK AO2 SLPNO PNO $ 20-01-22",0,0,6.7,0,0,1,42.402611111111106,-96.38436111111112
"KCOE","COEUR D'ALENE - PAPPY BOYINGTON FIELD","USA","20-01-22","""2020-01-22T15:56:00.000Z""","KCOE 221556Z AUTO 00000KT 10SM OVC016 01/M01 A3004 RMK AO2 SLP209 T00111006 FZRANO 20-01-22",0,0,0,2.5,0,0,47.77430555555556,-116.81958333333333
"KLWS","LEWISTON-NEZ PERCE COUNTY","USA","20-01-22","""2020-01-22T15:56:00.000Z""","KLWS 221556Z 00000KT 10SM CLR 03/M01 A3008 RMK AO2 SLP197 T00331011 20-01-22",0,0,0,0,0,0,46.374497222222224,-117.01539444444444
"KIDA","IDAHO FALLS RGNL","USA","20-01-22","""2020-01-22T15:53:00.000Z""","KIDA 221553Z 21012KT 10SM BKN010 BKN033 OVC150 M02/M04 A3009 RMK AO2 SLP214 T10221044 20-01-22",0,0,0,2.5,0,0,43.51372222222222,-112.07074999999999
"KSUN","FRIEDMAN MEMORIAL","USA","20-01-22","""2020-01-22T15:47:00.000Z""","KSUN 221547Z 31008KT 10SM BKN140 M06/M10 A3010 20-01-22",0,0,0,0,0,0,43.50378055555556,-114.29555833333333
"KMYL","MC CALL MUNI","USA","20-01-22","""2020-01-22T16:05:00.000Z""","KMYL 221605Z AUTO 00000KT 1/2SM FZFG OVC002 M05/M07 A3008 RMK AO2 T10501067 20-01-22",0,0,10,10,0,1,44.88880277777778,-116.10175277777778
"KMUO","MOUNTAIN HOME AFB","USA","20-01-22","""2020-01-22T15:56:00.000Z""","KMUO 221556Z AUTO 00000KT 7SM CLR M01/ A3016 RMK AO2 SLP231 $ 20-01-22",0,0,0,0,0,0,43.04359722222222,-115.87243333333333
"KSMN","LEMHI COUNTY","USA","20-01-22","""2020-01-22T15:56:00.000Z""","KSMN 221556Z AUTO 15005KT 10SM FEW060 SCT080 M11/M12 A3012 RMK AO2 SLP260 T11111122 FZRANO 20-01-22",0,0,0,2.5,0,0,45.12327777777778,-113.88144444444444
"KPIH","POCATELLO RGNL","USA","20-01-22","""2020-01-22T15:53:00.000Z""","KPIH 221553Z 24013KT 10SM BKN013 00/M03 A3012 RMK AO2 SLP215 T00001028 20-01-22",0,0,0,0,0,0,42.90980555555556,-112.5959111111111
"KRXE","REXBURG-MADISON COUNTY","USA","20-01-22","""2020-01-22T15:53:00.000Z""","KRXE 221553Z AUTO 22007KT 10SM SCT035 M03/M04 A3007 RMK AO2 SLP209 T10281044 20-01-22",0,0,0,2.5,0,0,43.83391666666667,-111.8051111111111
"KTWF","JOSLIN FIELD-MAGIC VALLEY RGNL","USA","20-01-22","""2020-01-22T15:53:00.000Z""","KTWF 221553Z 23008KT 10SM OVC070 01/M02 A3014 RMK AO2 SLP205 T00111017 20-01-22",0,0,0,0,0,0,42.48180833333333,-114.48773611111112
"KENL","CENTRALIA MUNI","USA","20-01-22","""2020-01-22T16:15:00.000Z""","KENL 221615Z AUTO 17010KT 10SM CLR M01/M05 A3032 RMK AO2 T10061050 20-01-22",0,0,0,0,0,0,38.51508333333334,-89.09113888888888
"KCIR","CAIRO RGNL","USA","20-01-22","""2020-01-22T16:15:00.000Z""","KCIR 221615Z AUTO 15008KT 10SM CLR M01/M06 A3036 RMK AO2 T10071056 20-01-22",0,0,0,0,0,0,37.064138888888884,-89.21952777777778
"KBMI","CENTRAL IL RGNL ARPT AT BLOOMINGTON-NORMAL","USA","20-01-22","""2020-01-22T15:56:00.000Z""","KBMI 221556Z 18015KT 10SM CLR M02/M06 A3025 RMK AO2 SLP252 T10221056 20-01-22",0,0,0,0,0,0,40.477111111111114,-88.91591666666667
"KCMI","UNIVERSITY OF ILLINOIS-WILLARD","USA","20-01-22","""2020-01-22T15:53:00.000Z""","KCMI 221553Z 18017G22KT 10SM CLR M03/M06 A3030 RMK AO2 SLP270 T10281056 20-01-22",0,4,0,0,0,0,40.03883333333333,-88.27780555555556
"KCPS","ST LOUIS DOWNTOWN","USA","20-01-22","""2020-01-22T15:53:00.000Z""","KCPS 221553Z 15011KT 9SM CLR M02/M07 A3027 RMK AO2 SLP256 T10221067 20-01-22",0,0,0,0,0,0,38.57036111111111,-90.15508333333334
"KMDW","CHICAGO MIDWAY INTL","USA","20-01-22","""2020-01-22T15:53:00.000Z""","KMDW 221553Z 20011G20KT 10SM FEW200 OVC250 M03/M07 A3024 RMK AO2 SLP255 T10281072 20-01-22",0,2,0,0,0,0,41.785983333333334,-87.752425
"KMDH","SOUTHERN ILLINOIS","USA","20-01-22","""2020-01-22T15:52:00.000Z""","KMDH 221552Z 17007KT 10SM CLR M02/M06 A3034 RMK AO2 SLP280 T10171056 20-01-22",0,0,0,0,0,0,37.778083333333335,-89.25202777777778
"KALN","ST LOUIS RGNL","USA","20-01-22","""2020-01-22T15:47:00.000Z""","KALN 221547Z 12011KT 10SM BKN150 BKN200 M03/M05 A3027 20-01-22",0,0,0,2.5,0,0,38.88991388888889,-90.0459861111111
"KDNV","VERMILION REGIONAL","USA","20-01-22","""2020-01-22T16:15:00.000Z""","KDNV 221615Z AUTO 18012KT 10SM CLR M02/M06 A3030 RMK AO2 T10201059 20-01-22",0,0,0,0,0,0,40.19969444444444,-87.59552777777778
"KFEP","ALBERTUS","USA","20-01-22","""2020-01-22T16:15:00.000Z""","KFEP 221615Z AUTO 20012G17KT 7SM CLR M04/M06 A3017 RMK AO2 T10381063 20-01-22",0,2,0,2.5,0,0,42.246158333333334,-89.5819861111111
"KDEC","DECATUR","USA","20-01-22","""2020-01-22T15:54:00.000Z""","KDEC 221554Z 18015KT 10SM CLR M02/M07 A3029 RMK AO2 SLP266 T10221072 20-01-22",0,0,0,0,0,0,39.834563888888894,-88.86568888888888
"KDPA","DUPAGE","USA","20-01-22","""2020-01-22T15:52:00.000Z""","KDPA 221552Z 19012G20KT 9SM CLR M04/M07 A3021 RMK AO2 SLP242 T10391072 20-01-22",0,2,0,0,0,0,41.90705277777778,-88.24799722222222
"KORD","CHICAGO-O'HARE INTL","USA","20-01-22","""2020-01-22T15:51:00.000Z""","KORD 221551Z 20009KT 10SM SCT210 OVC250 M03/M07 A3022 RMK AO2 SLP241 T10281072 $ 20-01-22",0,0,0,0,0,0,41.97731944444445,-87.90800555555556
"KJOT","JOLIET RGNL","USA","20-01-22","""2020-01-22T16:15:00.000Z""","KJOT 221615Z AUTO 19009G14KT 10SM CLR M01/M06 A3025 RMK AO2 T10131056 20-01-22",0,2,0,0,0,0,41.51765833333333,-88.17552222222223
"KIKK","GREATER KANKAKEE","USA","20-01-22","""2020-01-22T16:15:00.000Z""","KIKK 221615Z AUTO 19010KT 10SM CLR M02/M06 A3029 RMK AO2 T10191058 20-01-22",0,0,0,0,0,0,41.07138888888889,-87.84627777777777
"KIJX","JACKSONVILLE MUNI","USA","20-01-22","""2020-01-22T16:15:00.000Z""","KIJX 221615Z AUTO 16011G16KT 10SM CLR M02/M06 A3021 RMK AO2 T10201065 20-01-22",0,2,0,0,0,0,39.77461111111111,-90.23827777777778
"KHSB","HARRISBURG-RALEIGH","USA","20-01-22","""2020-01-22T16:15:00.000Z""","KHSB 221615Z AUTO 15006KT 10SM CLR M01/M05 A3037 RMK AO2 T10101047 20-01-22",0,0,0,0,0,0,37.811255555555555,-88.55025833333333
"KGBG","GALESBURG MUNI","USA","20-01-22","""2020-01-22T16:15:00.000Z""","KGBG 221615Z AUTO 11009G15KT 10SM CLR M02/M07 A3018 RMK AO2 T10221070 20-01-22",0,2,0,0,0,0,40.937999999999995,-90.43112222222223
"KLWV","LAWRENCEVILLE-VINCENNES INTL","USA","20-01-22","""2020-01-22T15:53:00.000Z""","KLWV 221553Z AUTO 15010KT 10SM CLR M02/M06 A3039 RMK AO2 SLP295 T10221056 20-01-22",0,0,0,0,0,0,38.76427777777778,-87.60549999999999
"KOLY","OLNEY-NOBLE","USA","20-01-22","""2020-01-22T16:15:00.000Z""","KOLY 221615Z AUTO 17010KT 10SM CLR M02/M05 A3037 RMK AO2 T10181054 20-01-22",0,0,0,0,0,0,38.72182777777778,-88.17643333333334
"KMQB","MACOMB MUNI","USA","20-01-22","""2020-01-22T16:15:00.000Z""","KMQB 221615Z AUTO 17012KT 10SM CLR M02/M06 A3020 RMK AO2 T10231059 20-01-22",0,0,0,0,0,0,40.52008333333333,-90.6523888888889
"KMVN","MOUNT VERNON","USA","20-01-22","""2020-01-22T15:56:00.000Z""","KMVN 221556Z AUTO 16007KT 10SM CLR M01/M05 A3035 RMK AO2 SLP288 T10111050 FZRANO 20-01-22",0,0,0,0,0,0,38.32336111111111,-88.85849999999999
"KMTO","COLES COUNTY MEMORIAL","USA","20-01-22","""2020-01-22T15:53:00.000Z""","KMTO 221553Z AUTO 17011G19KT 10SM CLR M02/M07 A3031 RMK AO2 SLP273 T10221067 20-01-22",0,2,0,0,0,0,39.47788888888889,-88.27997222222223
"KMLI","QUAD CITY INTL","USA","20-01-22","""2020-01-22T15:52:00.000Z""","KMLI 221552Z 17005KT 10SM CLR M02/M07 A3016 RMK AO2 SLP220 T10221072 20-01-22",0,0,0,0,0,0,41.448277777777776,-90.50752777777778
"KPWK","CHICAGO EXECUTIVE","USA","20-01-22","""2020-01-22T15:52:00.000Z""","KPWK 221552Z 20010G19KT 10SM CLR M02/M08 A3023 RMK AO2 SLP244 T10221078 20-01-22",0,2,0,0,0,0,42.11427777777778,-87.90152777777779
"KMWA","WILLIAMSON COUNTY RGNL","USA","20-01-22","""2020-01-22T15:45:00.000Z""","KMWA 221545Z 16009KT 20SM BKN150 M02/M05 A3034 20-01-22",0,0,0,0,0,0,37.75497222222222,-89.01108333333333
"KVYS","ILLINOIS VALLEY RGNL-WALTER A DUNCAN FIELD","USA","20-01-22","""2020-01-22T16:15:00.000Z""","KVYS 221615Z AUTO 18016KT 10SM CLR M03/M07 A3022 RMK AO2 T10331070 20-01-22",0,2,0,0,0,0,41.350147222222226,-89.15294444444444
"KRFD","CHICAGO/ROCKFORD INTL","USA","20-01-22","""2020-01-22T15:54:00.000Z""","KRFD 221554Z 18014KT 9SM OVC250 M04/M07 A3020 RMK AO2 SLP239 T10391067 20-01-22",0,0,0,0,0,0,42.195361111111104,-89.09722222222221
"KUIN","QUINCY RGNL-BALDWIN FIELD","USA","20-01-22","""2020-01-22T15:54:00.000Z""","KUIN 221554Z AUTO 16012G18KT 10SM BKN110 M02/M08 A3017 RMK AO2 SLP225 T10221078 20-01-22",0,2,0,0,0,0,39.943016666666665,-91.19446111111111
"KPIA","GENERAL DOWNING-PEORIA INTL","USA","20-01-22","""2020-01-22T15:54:00.000Z""","KPIA 221554Z 17013KT 9SM CLR M03/M06 A3023 RMK AO2 SLP246 T10281061 20-01-22",0,0,0,0,0,0,40.66419444444444,-89.69325
"KANQ","TRI-STATE STEUBEN COUNTY","USA","20-01-22","""2020-01-22T16:15:00.000Z""","KANQ 221615Z AUTO 21010G15KT 10SM CLR M03/M08 A3032 RMK AO2 20-01-22",0,2,0,0,0,0,41.639697222222225,-85.08349444444444
"KSLO","SALEM-LECKRONE","USA","20-01-22","""2020-01-22T16:15:00.000Z""","KSLO 221615Z AUTO 17008KT 10SM CLR M01/M06 A3033 RMK AO2 T10061056 20-01-22",0,0,0,0,0,0,38.64287222222222,-88.96418611111112
"KSAR","SPARTA COMMUNITY-HUNTER FIELD","USA","20-01-22","""2020-01-22T16:15:00.000Z""","KSAR 221615Z AUTO 16010KT 10SM CLR M01/M05 A3031 RMK AO2 T10151052 20-01-22",0,0,0,0,0,0,38.14886111111111,-89.69850277777778
"KLOT","LEWIS UNIVERSITY","USA","20-01-22","""2020-01-22T16:15:00.000Z""","KLOT 221615Z AUTO 20011KT 10SM CLR M03/M06 A3024 RMK AO2 T10271057 20-01-22",0,0,0,0,0,0,41.608111111111114,-88.09619444444444
"KSQI","WHITESIDE CO ARPT-JOS H BITTORF FLD","USA","20-01-22","""2020-01-22T15:56:00.000Z""","KSQI 221556Z 17006KT 10SM CLR M03/M06 A3019 RMK AO2 SLP093 T10281061 FZRANO 20-01-22",0,0,0,0,0,0,41.74283333333334,-89.67627777777778
"KBLV","SCOTT AFB/MIDAMERICA","USA","20-01-22","""2020-01-22T15:56:00.000Z""","KBLV 221556Z AUTO 15007KT 10SM FEW170 FEW200 M02/M06 A3029 RMK AO2 SLP266 T10181058 $ 20-01-22",0,0,0,0,0,0,38.54516666666667,-89.83519444444444
"KUGN","WAUKEGAN RGNL","USA","20-01-22","""2020-01-22T15:55:00.000Z""","KUGN 221555Z 22014KT 9SM CLR M02/M08 A3019 RMK AO2 SLP238 T10221078 20-01-22",0,0,0,0,0,0,42.42216111111111,-87.86790833333333
"KSPI","ABRAHAM LINCOLN CAPITAL","USA","20-01-22","""2020-01-22T15:52:00.000Z""","KSPI 221552Z 18016G23KT 10SM CLR M01/M07 A3026 RMK AO2 SLP255 T10111067 20-01-22",0,4,0,0,0,0,39.84422222222222,-89.67808333333333
"KEVV","EVANSVILLE RGNL","USA","20-01-22","""2020-01-22T15:54:00.000Z""","KEVV 221554Z 18004KT 10SM CLR M02/M07 A3041 RMK AO2 SLP303 T10221072 20-01-22",0,0,0,0,0,0,38.04080555555555,-87.5285
"KFWA","FORT WAYNE INTL","USA","20-01-22","""2020-01-22T15:54:00.000Z""","KFWA 221554Z 21013KT 10SM FEW170 OVC230 M03/M07 A3036 RMK AO2 SLP293 T10281072 20-01-22",0,0,0,0,0,0,40.97847222222222,-85.19516666666667
"KBMG","MONROE COUNTY .IN","USA","20-01-22","""2020-01-22T15:53:00.000Z""","KBMG 221553Z 16004KT 10SM CLR M02/M08 A3039 RMK AO2 SLP300 T10221078 20-01-22",0,0,0,0,0,0,39.14601944444444,-86.61667777777777
"KGSH","GOSHEN MUNI","USA","20-01-22","""2020-01-22T15:53:00.000Z""","KGSH 221553Z AUTO 21011KT 9SM CLR M03/M07 A3031 RMK AO2 SLP276 T10281072 20-01-22",0,0,0,0,0,0,41.526263888888884,-85.79416111111111
"KBAK","COLUMBUS MUNI,IN.","USA","20-01-22","""2020-01-22T15:45:00.000Z""","KBAK 221545Z 00000KT 10SM SKC M04/M08 A3043 20-01-22",0,0,0,0,0,0,39.261916666666664,-85.89633333333335
"KGYY","GARY/CHICAGO INTL","USA","20-01-22","""2020-01-22T15:45:00.000Z""","KGYY 221545Z 20010KT 10SM OVC200 M02/M08 A3027 20-01-22",0,0,0,0,0,0,41.61725,-87.41452777777778
"KGUS","GRISSOM AFB","USA","20-01-22","""2020-01-22T15:56:00.000Z""","KGUS 221556Z AUTO 20012KT 10SM FEW150 SCT200 M03/M04 A3033 RMK AO2 SLP286 T10311045 $ 20-01-22",0,0,0,2.5,0,0,40.648091666666666,-86.15211944444445
"KOKK","KOKOMO MUNI","USA","20-01-22","""2020-01-22T15:56:00.000Z""","KOKK 221556Z AUTO 19014KT 10SM CLR M03/M06 A3036 RMK AO2 SLP293 T10281061 FZRANO 20-01-22",0,0,0,0,0,0,40.527655555555555,-86.0597361111111
"KIND","INDIANAPOLIS INTL","USA","20-01-22","""2020-01-22T15:54:00.000Z""","KIND 221554Z 16006KT 10SM OVC220 M03/M07 A3038 RMK AO2 SLP299 T10331072 20-01-22",0,0,0,0,0,0,39.717305555555555,-86.29463888888888
"KLAF","PURDUE UNIVERSITY","USA","20-01-22","""2020-01-22T15:54:00.000Z""","KLAF 221554Z 19007KT 10SM CLR M02/M07 A3034 RMK AO2 SLP282 T10221072 20-01-22",0,0,0,0,0,0,40.412305555555555,-86.93688888888889
"KMZZ","MARION MUNI, IN","USA","20-01-22","""2020-01-22T16:15:00.000Z""","KMZZ 221615Z AUTO 19012KT 10SM CLR M03/M06 A3037 RMK AO2 T10321057 20-01-22",0,0,0,0,0,0,40.489916666666666,-85.67977777777779
"KMGC","MICHIGAN CITY MUNI-PHILLIPS FIELD","USA","20-01-22","""2020-01-22T16:15:00.000Z""","KMGC 221615Z AUTO 20010KT 10SM CLR M02/M04 A3028 RMK AO2 20-01-22",0,0,0,2.5,0,0,41.703319444444446,-86.82124999999999
"KRCR","FULTON COUNTY","USA","20-01-22","""2020-01-22T16:15:00.000Z""","KRCR 221615Z AUTO 21011G15KT 10SM CLR M01/M07 A3033 RMK AO2 20-01-22",0,2,0,0,0,0,41.06554722222222,-86.18170277777779
"KSBN","SOUTH BEND INTL","USA","20-01-22","""2020-01-22T15:54:00.000Z""","KSBN 221554Z 20013KT 10SM CLR M03/M08 A3029 RMK AO2 SLP269 T10281083 20-01-22",0,0,0,0,0,0,41.708222222222226,-86.31733333333332
"KMIE","DELAWARE COUNTY RGNL","USA","20-01-22","""2020-01-22T15:53:00.000Z""","KMIE 221553Z 21007KT 10SM CLR M02/M08 A3038 RMK AO2 SLP296 T10171083 20-01-22",0,0,0,0,0,0,40.242472222222226,-85.39575
"KCNU","CHANUTE MARTIN JOHNSON","USA","20-01-22","""2020-01-22T16:25:00.000Z""","KCNU 221625Z AUTO 17012KT 2 1/2SM -SN BR OVC007 02/00 A3002 RMK AO2 RAE07UPB07E09SNB09 CIG 005V009 P0001 T00170000 20-01-22",0,0,6.7,7.5,0,1,37.66788888888889,-95.48672222222223
"KCNK","BLOSSER MUNI","USA","20-01-22","""2020-01-22T16:22:00.000Z""","KCNK 221622Z AUTO 19017G26KT 7SM UP BKN007 BKN029 02/01 A2984 RMK AO2 PK WND 19026/1557 UPB12SNE09 P0001 T00170006 20-01-22",0,4,3.3,2.5,0,0,39.54922222222222,-97.65230555555556
"KDDC","DODGE CITY RGNL","USA","20-01-22","""2020-01-22T16:22:00.000Z""","KDDC 221622Z AUTO 21008KT 2SM BR OVC002 04/04 A2983 RMK AO2 T00440039 20-01-22",0,0,0,0,0,1,37.76311111111111,-99.96541666666667
"KGCK","GARDEN CITY RGNL","USA","20-01-22","""2020-01-22T16:17:00.000Z""","KGCK 221617Z 22005KT 2SM BR OVC002 03/03 A2981 RMK AO2 T00280028 20-01-22",0,0,0,7.5,0,1,37.927527777777776,-100.72441666666667
"KCFV","COFFEYVILLE MUNI","USA","20-01-22","""2020-01-22T16:11:00.000Z""","KCFV 221611Z AUTO 17014KT 2 1/2SM -RA BR OVC006 01/00 A3004 RMK AO2 UPE09RAB09 P0000 T00110000 20-01-22",0,0,0,7.5,0,1,37.094,-95.572
"KFRI","MARSHALL AAF","USA","20-01-22","""2020-01-22T15:56:00.000Z""","KFRI 221556Z 19011KT 10SM -RA OVC011 02/00 A2991 RMK AO2A RAE26RAB47 SLP135 P0000 T00200002 20-01-22",0,0,0,2.5,0,0,39.05533333333333,-96.7645
"KVPZ","PORTER COUNTY RGNL","USA","20-01-22","""2020-01-22T15:56:00.000Z""","KVPZ 221556Z AUTO 20013G19KT 9SM CLR M03/M07 A3028 RMK AO2 SLP265 T10281072 20-01-22",0,2,0,0,0,0,41.453966666666666,-87.00707222222222
"KHUF","TERRE HAUTE INTL-HULMAN FIELD","USA","20-01-22","""2020-01-22T15:53:00.000Z""","KHUF 221553Z 17008KT 10SM CLR M02/M07 A3037 RMK AO2 SLP292 T10221067 20-01-22",0,0,0,0,0,0,39.45147222222222,-87.30758333333333
"KEMP","EMPORIA MUNI","USA","20-01-22","""2020-01-22T15:53:00.000Z""","KEMP 221553Z AUTO 17020G30KT 8SM OVC007 01/01 A2994 RMK AO2 PK WND 18030/1544 UPB27E32SNE27 CIG 006V010 SLP149 P0004 T00060006 20-01-22",0,4,0,2.5,0,0,38.330555555555556,-96.18994444444445
"KHYS","HAYS RGNL","USA","20-01-22","""2020-01-22T16:23:00.000Z""","KHYS 221623Z AUTO 18005KT 1/4SM FG OVC003 02/01 A2982 RMK AO2 FZRANO 20-01-22",0,0,0,2.5,0,1,38.842222222222226,-99.27316666666667
"KHLC","HILL CITY MUNI","USA","20-01-22","""2020-01-22T16:15:00.000Z""","KHLC 221615Z AUTO 22008KT 2 1/2SM BR OVC002 03/03 A2978 RMK AO2 T00280028 20-01-22",0,0,0,7.5,0,1,39.38019444444444,-99.83147222222222
"KIDP","INDEPENDENCE MUNI","USA","20-01-22","""2020-01-22T16:10:00.000Z""","KIDP 221610Z AUTO 18019G25KT 4SM -RA BR OVC006 01/00 A3004 RMK AO2 T00100004 20-01-22",0,4,0,7.5,0,0,37.157925,-95.77839444444444
"KIAB","MC CONNELL AFB","USA","20-01-22","""2020-01-22T16:07:00.000Z""","KIAB 221607Z AUTO 18014KT 5SM -RA BR OVC004 01/01 A2994 RMK AO2 RAE1557RAB07 SLP151 $ 20-01-22",0,0,0,7.5,0,0,37.62311666666667,-97.26763055555556
"KGBD","GREAT BEND MUNI","USA","20-01-22","""2020-01-22T16:06:00.000Z""","KGBD 221606Z AUTO 19009KT 6SM -RA BR OVC003 01/01 A2985 RMK AO2 P0000 FZRANO 20-01-22",0,0,0,7.5,0,0,38.34425,-98.85919444444444
"KHUT","HUTCHINSON MUNI","USA","20-01-22","""2020-01-22T16:03:00.000Z""","KHUT 221603Z 16014KT 2 1/2SM -SN BR OVC004 01/00 A2989 RMK AO2 P0000 T00110000 20-01-22",0,0,6.7,7.5,0,1,38.0655,-97.86063888888889
"KLBL","LIBERAL MID-AMERICA RGNL","USA","20-01-22","""2020-01-22T15:56:00.000Z""","KLBL 221556Z AUTO 33006KT 10SM SCT090 03/02 A2983 RMK AO2 SLP111 T00280017 20-01-22",0,0,0,0,0,0,37.04391666666667,-100.95997222222222
"KGLD","RENNER FLD /GOODLAND MUNI/","USA","20-01-22","""2020-01-22T15:53:00.000Z""","KGLD 221553Z AUTO 31016G23KT 10SM CLR 07/M02 A2978 RMK AO2 SLP086 T00671022 20-01-22",0,4,0,0,0,0,39.37063888888889,-101.699
"KMHK","MANHATTAN RGNL","USA","20-01-22","""2020-01-22T15:52:00.000Z""","KMHK 221552Z 20014KT 10SM OVC013 02/01 A2992 RMK AO2 UPB02E43SNE02 SLP138 P0001 T00220006 20-01-22",0,0,0,2.5,0,0,39.14123333333333,-96.67179444444444
"KPPF","TRI-CITY, KS","USA","20-01-22","""2020-01-22T16:27:00.000Z""","KPPF 221627Z AUTO 18010G18KT 2 1/2SM UP BR OVC006 01/01 A3004 RMK AO2 RAE16UPB16 P0001 T00110006 20-01-22",0,2,3.3,7.5,0,1,37.33080555555556,-95.50616666666667
"KFOE","FORBES FIELD","USA","20-01-22","""2020-01-22T16:17:00.000Z""","KFOE 221617Z 17012G20KT 5SM -SN BR OVC006 02/00 A2996 RMK AO2 CIG 005V008 P0001 T00170000 20-01-22",0,2,6.7,7.5,0,0,38.950944444444445,-95.66361111111112
"KPTS","ATKINSON MUNI","USA","20-01-22","""2020-01-22T16:15:00.000Z""","KPTS 221615Z AUTO 16009G14KT 7SM -RA SCT008 OVC014 01/01 A3004 RMK AO2 T00130009 20-01-22",0,2,0,2.5,0,0,37.44947222222222,-94.73113888888889
"KPTT","PRATT RGNL","USA","20-01-22","""2020-01-22T16:15:00.000Z""","KPTT 221615Z AUTO 18011KT 2 1/2SM BR OVC003 02/01 A2986 RMK AO2 T00200013 20-01-22",0,0,0,7.5,0,1,37.70252777777778,-98.747
"KRSL","RUSSELL MUNI","USA","20-01-22","""2020-01-22T16:06:00.000Z""","KRSL 221606Z AUTO 18015KT 10SM OVC004 01/00 A2981 RMK AO2 T00110000 20-01-22",0,0,0,2.5,0,0,38.87136111111111,-98.81160277777778
"KEWK","NEWTON-CITY-COUNTY","USA","20-01-22","""2020-01-22T15:56:00.000Z""","KEWK 221556Z AUTO 17016KT 5SM UP BR OVC005 00/00 A2992 RMK AO2 UPB14SNE14 SLP140 P0003 T00000000 FZRANO 20-01-22",0,2,3.3,7.5,0,0,38.05707777777778,-97.27522777777777
"KOJC","JOHNSON COUNTY EXECUTIVE","USA","20-01-22","""2020-01-22T15:53:00.000Z""","KOJC 221553Z 17013KT 5SM UP BR OVC009 00/M01 A3001 RMK AO2 UPB30FZRAE30 CIG 007V011 SLP173 P0000 I1001 T00001006 20-01-22",0,0,3.3,7.5,0,0,38.84760277777778,-94.73758611111111
"KSLN","SALINA RGNL","USA","20-01-22","""2020-01-22T15:53:00.000Z""","KSLN 221553Z COR 18014G23KT 10SM -RA OVC013 01/M01 A2988 RMK AO2 PK WND 17026/1523 UPB18SNE18B21E33 SLP128 P0000 T00111006 20-01-22",0,2,0,2.5,0,0,38.79061111111111,-97.65222222222222
"KCBK","SHALZ FIELD","USA","20-01-22","""2020-01-22T16:15:00.000Z""","KCBK 221615Z AUTO 31013G18KT 10SM CLR 06/00 A2979 RMK AO2 PWINO 20-01-22",0,2,0,0,0,0,39.42744444444444,-101.0466111111111
"KBWG","BOWLING GREEN-WARREN COUNTY RGNL","USA","20-01-22","""2020-01-22T15:53:00.000Z""","KBWG 221553Z AUTO 00000KT 10SM CLR M01/M07 A3042 RMK AO2 SLP308 T10111072 20-01-22",0,0,0,0,0,0,36.96452777777778,-86.41966666666667
"KTOP","PHILIP BILLARD MUNI","USA","20-01-22","""2020-01-22T15:53:00.000Z""","KTOP 221553Z 16011G21KT 5SM UP BR OVC009 02/M01 A2996 RMK AO2 RAE49UPB49 SLP153 P0002 T00171006 20-01-22",0,2,3.3,7.5,0,0,39.06866666666667,-95.62249999999999
"KICT","WICHITA DWIGHT D. EISENHOWER NATIONAL","USA","20-01-22","""2020-01-22T15:53:00.000Z""","KICT 221553Z 17017G25KT 1 3/4SM -SN BR OVC005 01/00 A2993 RMK AO2 TWR VIS 3 SLP143 P0002 T00110000 20-01-22",0,4,6.7,7.5,0,1,37.64994444444444,-97.43305555555555
"KCVG","CINCINNATI/NORTHERN KENTUCKY INTL","USA","20-01-22","""2020-01-22T15:52:00.000Z""","KCVG 221552Z 18009KT 10SM BKN300 M01/M09 A3040 RMK AO2 SLP303 T10111089 20-01-22",0,0,0,0,0,0,39.04883611111111,-84.66782222222223
"KGLW","GLASGOW MUNI","USA","20-01-22","""2020-01-22T16:15:00.000Z""","KGLW 221615Z AUTO 00000KT 10SM CLR 00/M07 A3041 RMK AO2 T10051066 20-01-22",0,0,0,0,0,0,37.031777777777776,-85.95375
"KHOP","CAMPBELL AAF (FORT CAMPBELL)","USA","20-01-22","""2020-01-22T15:56:00.000Z""","KHOP 221556Z AUTO 18004KT 10SM CLR M02/M07 A3040 RMK AO2 SLP304 T10221075 20-01-22",0,0,0,0,0,0,36.668499999999995,-87.49616666666667
"KFTK","GODMAN AAF","USA","20-01-22","""2020-01-22T15:56:00.000Z""","KFTK 221556Z AUTO 23003KT 10SM FEW220 M02/M07 A3042 RMK AO2 SLP314 T10211074 $ 20-01-22",0,0,0,0,0,0,37.907063888888885,-85.97203333333333
"KSDF","LOUISVILLE INTL-STANDIFORD FIELD","USA","20-01-22","""2020-01-22T15:56:00.000Z""","KSDF 221556Z 00000KT 10SM OVC220 M02/M09 A3043 RMK AO2 SLP310 T10171089 20-01-22",0,0,0,0,0,0,38.17408333333333,-85.73649722222223
"KLEX","BLUE GRASS","USA","20-01-22","""2020-01-22T15:54:00.000Z""","KLEX 221554Z 14005KT 10SM CLR 01/M09 A3039 RMK AO2 SLP302 T00061089 20-01-22",0,0,0,0,0,0,38.03675,-84.60863888888888
"KFFT","CAPITAL CITY","USA","20-01-22","""2020-01-22T15:53:00.000Z""","KFFT 221553Z AUTO 18005KT 10SM CLR 00/M07 A3040 RMK AO2 SLP303 T00001067 20-01-22",0,0,0,0,0,0,38.18173055555555,-84.90674722222222
"KLOZ","LONDON-CORBIN ARPT-MAGEE FIELD","USA","20-01-22","""2020-01-22T15:53:00.000Z""","KLOZ 221553Z AUTO 14004KT 10SM CLR M03/M08 A3036 RMK AO2 SLP296 T10281083 20-01-22",0,0,0,0,0,0,37.08688888888889,-84.07738888888889
"KCEY","KYLE-OAKLEY FIELD","USA","20-01-22","""2020-01-22T16:15:00.000Z""","KCEY 221615Z AUTO 16003KT 10SM CLR M02/M06 A3038 RMK AO1 20-01-22",0,0,0,0,0,0,36.66458333333333,-88.37277777777777
"KLOU","BOWMAN FIELD","USA","20-01-22","""2020-01-22T15:53:00.000Z""","KLOU 221553Z 00000KT 10SM CLR M02/M09 A3043 RMK AO2 SLP311 T10171094 20-01-22",0,0,0,0,0,0,38.227983333333334,-85.66374722222223
"KBAD","BARKDALE AFB","USA","20-01-22","""2020-01-22T15:56:00.000Z""","KBAD 221556Z 12007KT 10SM -RA OVC060 02/01 A3026 RMK AO2A RAE1424 SLP251 P0001 T00150008 20-01-22",0,0,0,2.5,0,0,32.501933333333334,-93.66262777777779
"KOWB","OWENSBORO-DAVIES COUNTY","USA","20-01-22","""2020-01-22T15:56:00.000Z""","KOWB 221556Z 16005KT 10SM CLR M02/M06 A3042 RMK AO2 SLP306 T10171056 20-01-22",0,0,0,0,0,0,37.73883333333333,-87.16682777777778
"KAEX","ALEXANDRIA INTL","USA","20-01-22","""2020-01-22T15:53:00.000Z""","KAEX 221553Z 12010KT 10SM FEW065 SCT075 OVC090 04/M03 A3030 RMK AO2 SLP268 T00391033 20-01-22",0,0,0,0,0,0,31.327372222222223,-92.54855555555555
"KBTR","BATON ROUGE METROPOLITAN,RYAN FIELD","USA","20-01-22","""2020-01-22T15:53:00.000Z""","KBTR 221553Z 07006KT 10SM CLR 05/M03 A3035 RMK AO2 SLP276 T00501028 20-01-22",0,0,0,0,0,0,30.532916666666665,-91.1498888888889
"KESF","ESLER RGNL","USA","20-01-22","""2020-01-22T15:53:00.000Z""","KESF 221553Z AUTO 13006KT 10SM OVC100 A3032 RMK AO2 SLPNO 20-01-22",0,0,0,0,0,0,31.394902777777776,-92.29577222222223
"KPAH","BARKLEY RGNL","USA","20-01-22","""2020-01-22T15:53:00.000Z""","KPAH 221553Z 16006KT 9SM CLR M02/M07 A3037 RMK AO2 SLP289 T10221067 20-01-22",0,0,0,0,0,0,37.06028611111111,-88.77295833333334
"KPOE","FORT POLK AAF","USA","20-01-22","""2020-01-22T16:16:00.000Z""","KPOE 221616Z AUTO 10010KT 7SM OVC080 03/00 A3024 RMK AO2 UPE16 SLP244 20-01-22",0,0,0,0,0,0,31.044788888888892,-93.19164166666667
"KBXA","GEORGE R CARR MEMORIAL AIR FLD","USA","20-01-22","""2020-01-22T16:15:00.000Z""","KBXA 221615Z AUTO 13003KT 10SM CLR 07/M04 A3037 RMK AO2 T00661043 20-01-22",0,0,0,0,0,0,30.81368611111111,-89.86496388888888
"KDRI","BEAUREGARD RGNL","USA","20-01-22","""2020-01-22T16:15:00.000Z""","KDRI 221615Z AUTO 11003KT 10SM -DZ OVC095 04/M02 A3027 RMK AO2 T00421016 20-01-22",0,0,0,0,0,0,30.831722222222222,-93.33991666666667
"KCWF","CHENNAULT INTL","USA","20-01-22","""2020-01-22T15:45:00.000Z""","KCWF 221545Z 10011G16KT 10SM OVC100 06/00 A3028 20-01-22",0,2,0,0,0,0,30.210583333333332,-93.14319444444445
"KLCH","LAKE CHARLES RGNL","USA","20-01-22","""2020-01-22T15:53:00.000Z""","KLCH 221553Z 11009KT 10SM FEW080 SCT095 OVC120 06/01 A3028 RMK AO2 SLP260 T00610006 20-01-22",0,0,0,0,0,0,30.126097222222224,-93.22340277777778
"KLFT","LAFAYETTE RGNL","USA","20-01-22","""2020-01-22T15:53:00.000Z""","KLFT 221553Z 08007KT 10SM FEW020 06/M01 A3031 RMK AO2 SLP264 T00611006 20-01-22",0,0,0,0,0,0,30.205027777777776,-91.98775
"KHUM","HOUMA-TERREBONNE","USA","20-01-22","""2020-01-22T15:50:00.000Z""","KHUM 221550Z 05005KT 7SM CLR 07/02 A3032 20-01-22",0,0,0,0,0,0,29.5665,-90.660425
"KOPL","ST LANDRY PARISH-AHART FIELD","USA","20-01-22","""2020-01-22T16:15:00.000Z""","KOPL 221615Z AUTO 13007KT 10SM OVC100 05/M01 A3031 RMK AO2 T00501014 20-01-22",0,0,0,0,0,0,30.55838888888889,-92.09938888888888
"KNBG","NEW ORLEANS NAS JRB/ALVIN CALLENDER FIELD","USA","20-01-22","""2020-01-22T15:55:00.000Z""","KNBG 221555Z 05007KT 7SM FEW030 BKN150 OVC250 08/03 A3033 RMK AO2 SLP270 T00780028 $ 20-01-22",0,0,0,0,0,0,29.82721388888889,-90.02658888888888
"KMLU","MONROE RGNL","USA","20-01-22","""2020-01-22T15:53:00.000Z""","KMLU 221553Z 16006KT 10SM FEW095 03/M05 A3037 RMK AO2 SLP283 T00331050 20-01-22",0,0,0,0,0,0,32.51086111111111,-92.03766666666667
"KMSY","LOUIS ARMSTRONG NEW ORLEANS INTL","USA","20-01-22","""2020-01-22T15:53:00.000Z""","KMSY 221553Z 08008KT 060V120 10SM FEW010 BKN200 OVC250 08/02 A3034 RMK AO2 SLP275 T00830022 20-01-22",0,0,0,0,0,0,29.993277777777777,-90.25902777777777
"KNEW","LAKEFRONT","USA","20-01-22","""2020-01-22T15:53:00.000Z""","KNEW 221553Z 07009KT 10SM CLR 07/01 A3035 RMK AO2 SLP270 T00720011 20-01-22",0,0,0,0,0,0,30.042416666666668,-90.02826666666667
"KRSN","RUSTON RGNL","USA","20-01-22","""2020-01-22T16:15:00.000Z""","KRSN 221615Z AUTO 12004KT 10SM UP OVC075 01/M01 A3035 RMK AO2 T00051014 20-01-22",0,0,3.3,2.5,0,0,32.5146,-92.58844166666667
"KPTN","HARRY P WILLIAMS MEMORIAL","USA","20-01-22","""2020-01-22T15:56:00.000Z""","KPTN 221556Z AUTO 08008KT 10SM CLR 07/02 A3032 RMK AO2 SLP269 T00720022 20-01-22",0,0,0,0,0,0,29.709544444444443,-91.33897777777777
"KSHV","SHREVEPORT RGNL","USA","20-01-22","""2020-01-22T15:56:00.000Z""","KSHV 221556Z 13009KT 10SM -RA FEW060 OVC080 02/00 A3026 RMK AO2 RAB01UPB11E12PLE01 SLP246 P0001 T00170000 20-01-22",0,0,0,2.5,0,0,32.44661111111111,-93.8256111111111
"KDTN","SHREVEPORT DOWNTOWN","USA","20-01-22","""2020-01-22T15:53:00.000Z""","KDTN 221553Z 12010KT 10SM UP BKN060 OVC080 02/M01 A3027 RMK AO2 RAB46E47 SLP250 P0000 T00221006 20-01-22",0,0,3.3,2.5,0,0,32.54021944444444,-93.74502222222222
"KCEF","WESTOVER AFB METROPOLITAN","USA","20-01-22","""2020-01-22T15:56:00.000Z""","KCEF 221556Z 00000KT 10SM FEW035 FEW200 M07/M15 A3044 RMK AO2A SLP319 T10721152 20-01-22",0,0,0,0,0,0,42.19401388888888,-72.53478333333334
"KBOS","GENERAL EDWARD LAWRENCE LOGAN INTL","USA","20-01-22","""2020-01-22T15:54:00.000Z""","KBOS 221554Z 27005KT 10SM FEW250 02/M09 A3045 RMK AO2 SLP309 T00171094 20-01-22",0,0,0,0,0,0,42.362944444444445,-71.00638888888889
"KBVY","BEVERLY MUNI","USA","20-01-22","""2020-01-22T15:53:00.000Z""","KBVY 221553Z VRB05KT 10SM CLR M01/M09 A3044 RMK AO2 SLP305 T10111094 20-01-22",0,0,0,0,0,0,42.584138888888894,-70.91614166666668
"KBED","LAURENCE G HANSCOM FLD","USA","20-01-22","""2020-01-22T15:51:00.000Z""","KBED 221551Z VRB03KT 10SM CLR M01/M11 A3043 RMK AO2 SLP324 T10111106 20-01-22",0,0,0,0,0,0,42.469944444444444,-71.289
"KHYA","BARNSTABLE MUNI-BOARDMAN/POLANDO FIELD","USA","20-01-22","""2020-01-22T15:56:00.000Z""","KHYA 221556Z VRB04KT 10SM CLR 01/M12 A3042 RMK AO2 SLP303 I1000 T00111117 20-01-22",0,0,0,0,0,0,41.669333333333334,-70.2803611111111
"KFMH","CAPE COD COAST GUARD AIR STATION","USA","20-01-22","""2020-01-22T15:56:00.000Z""","KFMH 221556Z 00000KT 10SM CLR M01/M14 A3044 20-01-22",0,0,0,0,0,0,41.65913888888889,-70.52280555555555
"KLWM","LAWRENCE MUNI .MA","USA","20-01-22","""2020-01-22T15:54:00.000Z""","KLWM 221554Z 22004KT 10SM CLR M03/M10 A3045 RMK AO2 SLP314 T10331100 20-01-22",0,0,0,0,0,0,42.717194444444445,-71.12341666666666
"KMVY","MARTHA'S VINEYARD","USA","20-01-22","""2020-01-22T15:53:00.000Z""","KMVY 221553Z 30005KT 10SM CLR 01/M12 A3044 RMK AO2 SLP309 T00061117 20-01-22",0,0,0,0,0,0,41.39341944444445,-70.61388333333333
"KACK","NANTUCKET MEMORIAL","USA","20-01-22","""2020-01-22T15:53:00.000Z""","KACK 221553Z 23007KT 10SM CLR 01/M10 A3044 RMK AO2 SLP309 T00061100 20-01-22",0,0,0,0,0,0,41.252975,-70.0599111111111
"KEWB","NEW BEDFORD RGNL","USA","20-01-22","""2020-01-22T15:53:00.000Z""","KEWB 221553Z VRB05KT 10SM CLR M01/M11 A3044 RMK AO2 SLP307 T10111111 20-01-22",0,0,0,0,0,0,41.676563888888886,-70.95783333333334
"KOWD","NORWOOD MEMORIAL","USA","20-01-22","""2020-01-22T15:53:00.000Z""","KOWD 221553Z VRB03KT 10SM CLR 01/M11 A3044 RMK AO2 SLP310 T00061106 20-01-22",0,0,0,0,0,0,42.190527777777774,-71.17294444444445
"KPSF","PITTSFIELD MUNI","USA","20-01-22","""2020-01-22T16:21:00.000Z""","KPSF 221621Z AUTO 29008KT 10SM OVC015 M04/M08 A3038 RMK AO2 T10391083 20-01-22",0,0,0,0,0,0,42.42761944444444,-73.29083888888889
"KADW","JOINT BASE ANDREWS","USA","20-01-22","""2020-01-22T15:56:00.000Z""","KADW 221556Z AUTO 00000KT 10SM CLR 00/M10 A3050 RMK AO2 SLP339 T00041099 $ 20-01-22",0,0,0,0,0,0,38.810824999999994,-76.86704444444443
"KPVC","PROVINCETOWN MUNI","USA","20-01-22","""2020-01-22T15:56:00.000Z""","KPVC 221556Z AUTO 27006KT 10SM CLR M01/M07 A3045 RMK AO2 SLP309 T10061072 FZRANO PNO $ 20-01-22",0,0,0,0,0,0,42.07227777777778,-70.22072222222222
"KORH","WORCESTER RGNL","USA","20-01-22","""2020-01-22T15:54:00.000Z""","KORH 221554Z 26007G15KT 10SM CLR M03/M11 A3038 RMK AO2 SLP306 T10331106 20-01-22",0,2,0,0,0,0,42.26713888888889,-71.8756111111111
"KBWI","BALTIMORE/WASHINGTON INTL THURGOOD MARSHALL","USA","20-01-22","""2020-01-22T15:54:00.000Z""","KBWI 221554Z 17004KT 10SM FEW250 01/M09 A3051 RMK AO2 SLP333 T00061094 20-01-22",0,0,0,0,0,0,39.175725,-76.66899166666667
"KBAF","WESTFIELD-BARNES RGNL","USA","20-01-22","""2020-01-22T15:53:00.000Z""","KBAF 221553Z 18003KT 10SM CLR M06/M12 A3045 20-01-22",0,0,0,0,0,0,42.157944444444446,-72.71586111111111
"KPYM","PLYMOUTH MUNI","USA","20-01-22","""2020-01-22T15:52:00.000Z""","KPYM 221552Z AUTO 28004KT 10SM CLR M01/M12 A3043 RMK AO2 SLP309 T10111122 20-01-22",0,0,0,0,0,0,41.90902777777777,-70.72877777777778
"KCGE","CAMBRIDGE-DORCHESTER","USA","20-01-22","""2020-01-22T16:25:00.000Z""","KCGE 221625Z AUTO 00000KT 10SM CLR 01/M08 A3050 RMK A01 20-01-22",0,0,0,0,0,0,38.53933333333333,-76.0303888888889
"KFME","TIPTON","USA","20-01-22","""2020-01-22T16:06:00.000Z""","KFME 221606Z AUTO 00000KT 10SM CLR 00/M07 A3054 RMK AO1 20-01-22",0,0,0,0,0,0,39.08538611111111,-76.75941388888889
"KCBE","GREATER CUMBERLAND RGNL","USA","20-01-22","""2020-01-22T16:00:00.000Z""","KCBE 221600Z AUTO 16004KT 10SM CLR M03/M09 A3052 RMK AO2 T10311092 20-01-22",0,0,0,0,0,0,39.615386111111114,-78.76080555555555
"KMTN","MARTIN STATE","USA","20-01-22","""2020-01-22T15:54:00.000Z""","KMTN 221554Z 17005KT 10SM SKC 00/M06 A3054 20-01-22",0,0,0,0,0,0,39.32566666666667,-76.41377777777778
"KFDK","FREDERICK MUNI","USA","20-01-22","""2020-01-22T15:47:00.000Z""","KFDK 221547Z 00000KT 10SM SKC 00/M09 A3051 20-01-22",0,0,0,0,0,0,39.41755555555555,-77.37430555555555
"KESN","EASTON/NEWNAM FIELD","USA","20-01-22","""2020-01-22T15:45:00.000Z""","KESN 221545Z 34003KT 10SM SKC 01/M07 A3055 20-01-22",0,0,0,0,0,0,38.80416666666667,-76.069
"KGAI","MONTGOMERY COUNTY AIRPARK","USA","20-01-22","""2020-01-22T15:56:00.000Z""","KGAI 221556Z AUTO VRB03KT 10SM CLR 01/M09 A3050 RMK AO2 SLP350 T00061094 FZRANO 20-01-22",0,0,0,0,0,0,39.16833333333333,-77.16600000000001
"KLEW","AUBURN/LEWISTON MUNI","USA","20-01-22","""2020-01-22T15:56:00.000Z""","KLEW 221556Z AUTO 00000KT 10SM CLR M03/M13 A3040 RMK AO2 SLP308 T10331133 FZRANO 20-01-22",0,0,0,0,0,0,44.04847222222222,-70.28350833333333
"KSBY","SALISBURY-OCEAN CITY WICOMICO RGNL","USA","20-01-22","""2020-01-22T15:54:00.000Z""","KSBY 221554Z VRB04KT 10SM CLR 02/M07 A3051 RMK AO2 SLP333 T00221072 20-01-22",0,0,0,0,0,0,38.34018888888889,-75.50947777777778
"KHGR","HAGERSTOWN RGNL-RICHARD A HENSON FLD","USA","20-01-22","""2020-01-22T15:53:00.000Z""","KHGR 221553Z VRB03KT 10SM CLR M02/M11 A3048 RMK AO2 SLP342 T10221106 20-01-22",0,0,0,0,0,0,39.7085,-77.7265
"KAUG","AUGUSTA STATE","USA","20-01-22","""2020-01-22T15:53:00.000Z""","KAUG 221553Z AUTO VRB03KT 10SM CLR M02/M12 A3040 RMK AO2 SLP300 T10221122 FZRANO 20-01-22",0,0,0,0,0,0,44.32064722222223,-69.79731666666666
"KNHK","PATUXENT RIVER NAS/TRAPNELL FIELD","USA","20-01-22","""2020-01-22T15:52:00.000Z""","KNHK 221552Z 36004KT 10SM CLR 02/M05 A3052 RMK AO2 SLP334 T00171050 20-01-22",0,0,0,0,0,0,38.28633333333333,-76.40997222222222
"KCAR","CARIBOU MUNI","USA","20-01-22","""2020-01-22T16:05:00.000Z""","KCAR 221605Z AUTO 18006KT 10SM BKN021 M08/M12 A3029 RMK AO2 T10831122 20-01-22",0,0,0,0,0,0,46.8715,-68.01791666666666
"KBHB","HANCOCK COUNTY-BAR HARBOR","USA","20-01-22","""2020-01-22T15:56:00.000Z""","KBHB 221556Z AUTO 00000KT 10SM BKN075 OVC100 01/M11 A3042 RMK AO2 SLP303 T00061111 FZRANO 20-01-22",0,0,0,0,0,0,44.44976666666666,-68.36156388888888
"KFVE","FRENCHVILLE/NORTHERN AROOSTOOK RGNL,ME.","USA","20-01-22","""2020-01-22T15:53:00.000Z""","KFVE 221553Z AUTO 15008KT 10SM OVC013 M10/M13 A3024 RMK AO2 SLP259 T11001128 20-01-22",0,0,0,0,0,0,47.2855,-68.31272222222222
"KBGR","BANGOR INTL","USA","20-01-22","""2020-01-22T15:53:00.000Z""","KBGR 221553Z 00000KT 10SM FEW075 BKN095 M04/M11 A3040 RMK AO2 SLP299 T10391111 20-01-22",0,0,0,0,0,0,44.80744444444444,-68.82813888888889
"KHUL","HOULTON INTL","USA","20-01-22","""2020-01-22T15:53:00.000Z""","KHUL 221553Z AUTO 20007KT 10SM OVC032 M07/M12 A3033 RMK AO2 SLP282 T10671117 20-01-22",0,0,0,0,0,0,46.124608333333335,-67.7923611111111
"KMLT","MILLINOCKET MUNI","USA","20-01-22","""2020-01-22T15:53:00.000Z""","KMLT 221553Z AUTO 00000KT 10SM OVC031 M06/M11 A3036 RMK AO2 SLP296 T10611111 20-01-22",0,0,0,0,0,0,45.64783333333333,-68.68555555555555
"KPWM","PORTLAND INTL JETPORT","USA","20-01-22","""2020-01-22T15:51:00.000Z""","KPWM 221551Z 28004KT 10SM FEW032 FEW100 M02/M12 A3043 RMK AO2 SLP304 T10221117 20-01-22",0,0,0,0,0,0,43.64564166666666,-70.30861388888889
"KAMN","GRATIOT COMMUNITY","USA","20-01-22","""2020-01-22T16:15:00.000Z""","KAMN 221615Z AUTO 20010KT 10SM CLR M04/M08 A3024 RMK AO2 T10401082 20-01-22",0,0,0,0,0,0,43.322138888888894,-84.68794444444445
"KWVL","WATERVILLE ROBERT LAFLEUR","USA","20-01-22","""2020-01-22T15:56:00.000Z""","KWVL 221556Z AUTO 23005KT 10SM CLR M01/M11 A3037 RMK AO2 SLP318 T10061111 FZRANO 20-01-22",0,0,0,0,0,0,44.53325,-69.67552777777779
"KSFM","SANFORD SEACOAST RGNL","USA","20-01-22","""2020-01-22T15:56:00.000Z""","KSFM 221556Z AUTO 00000KT 10SM CLR M03/M11 A3041 RMK AO2 SLP307 T10331106 FZRANO PNO $ 20-01-22",0,0,0,0,0,0,43.39380555555555,-70.708
"KRKD","KNOX COUNTY RGNL","USA","20-01-22","""2020-01-22T15:56:00.000Z""","KRKD 221556Z AUTO 00000KT 10SM OVC095 M01/M07 A3041 RMK AO2 SLP299 T10111067 FZRANO 20-01-22",0,0,0,0,0,0,44.06007222222222,-69.09925555555554
"KAPN","ALPENA COUNTY RGNL","USA","20-01-22","""2020-01-22T15:54:00.000Z""","KAPN 221554Z AUTO 22011G18KT 10SM CLR M01/M06 A3011 RMK AO2 SLP205 T10111056 20-01-22",0,2,0,0,0,0,45.07808333333334,-83.56030555555556
"KBTL","W K KELLOGG","USA","20-01-22","""2020-01-22T15:53:00.000Z""","KBTL 221553Z 20013KT 10SM CLR M04/M08 A3026 RMK AO2 SLP263 T10391083 20-01-22",0,0,0,0,0,0,42.30647222222222,-85.25008888888888
"KARB","ANN ARBOR MUNI","USA","20-01-22","""2020-01-22T15:53:00.000Z""","KARB 221553Z 20011KT 5SM HZ CLR M06/M09 A3032 RMK AO2 SLP282 T10611094 20-01-22",0,0,0,0,0,0,42.22298333333333,-83.74560833333334
"KADG","LENAWEE COUNTY","USA","20-01-22","""2020-01-22T15:53:00.000Z""","KADG 221553Z AUTO 23011KT 10SM CLR M05/M09 A3035 RMK AO2 SLP294 T10501089 20-01-22",0,0,0,0,0,0,41.86627777777778,-84.078
"KCAD","WEXFORD COUNTY","USA","20-01-22","""2020-01-22T16:15:00.000Z""","KCAD 221615Z AUTO 22014G19KT 10SM CLR M01/M05 A3009 RMK AO2 T10151055 20-01-22",0,2,0,0,0,0,44.27531388888889,-85.41894166666667
"KACB","ANTRIM COUNTY","USA","20-01-22","""2020-01-22T16:15:00.000Z""","KACB 221615Z AUTO 20008KT 10SM CLR 01/M05 A3009 RMK AO2 T00061047 20-01-22",0,0,0,0,0,0,44.98858333333333,-85.19836111111111
"KCIU","CHIPPEWA COUNTY INTL","USA","20-01-22","""2020-01-22T15:56:00.000Z""","KCIU 221556Z AUTO 21008G21KT 10SM OVC016 01/M03 A3001 RMK AO2 PK WND 23026/1514 RAB14E24 SLP172 P0000 T00061028 FZRANO 20-01-22",0,2,0,0,0,0,46.25075277777778,-84.4723861111111
"KBEH","SOUTHWEST MICHIGAN RGNL","USA","20-01-22","""2020-01-22T15:53:00.000Z""","KBEH 221553Z AUTO 20007G17KT 9SM CLR M03/M08 A3026 RMK AO2 SLP257 T10331083 20-01-22",0,2,0,0,0,0,42.12852777777778,-86.42613333333334
"KDET","COLEMAN A. YOUNG MUNI","USA","20-01-22","""2020-01-22T15:53:00.000Z""","KDET 221553Z 22013KT 10SM CLR M03/M09 A3035 RMK AO2 SLP292 T10331089 20-01-22",0,0,0,0,0,0,42.409324999999995,-83.01018055555555
"KDTW","DETROIT METROPOLITAN WAYNE COUNTY","USA","20-01-22","""2020-01-22T15:53:00.000Z""","KDTW 221553Z 20012KT 6SM HZ FEW130 OVC230 M04/M09 A3035 RMK AO2 SLP289 T10441089 20-01-22",0,0,0,0,0,0,42.21241666666667,-83.35338888888889
"KFNT","BISHOP INTl","USA","20-01-22","""2020-01-22T15:53:00.000Z""","KFNT 221553Z 21011KT 10SM CLR M03/M09 A3028 RMK AO2 SLP265 T10331094 20-01-22",0,0,0,0,0,0,42.965472222222225,-83.74475
"KYIP","WILLOW RUN","USA","20-01-22","""2020-01-22T15:53:00.000Z""","KYIP 221553Z 21013KT 10SM CLR M03/M09 A3034 RMK AO2 SLP283 T10331089 20-01-22",0,0,0,0,0,0,42.240027777777776,-83.53088888888888
"KHTL","ROSCOMMON COUNTY - BLODGETT MEMORIAL","USA","20-01-22","""2020-01-22T15:53:00.000Z""","KHTL 221553Z AUTO 22010KT 10SM CLR M03/M06 A3013 RMK AO2 SLP221 T10281061 20-01-22",0,0,0,0,0,0,44.35986666666667,-84.66948055555557
"KGRR","GERALD R. FORD INTL","USA","20-01-22","""2020-01-22T15:53:00.000Z""","KGRR 221553Z 22011KT 9SM FEW150 OVC230 M04/M09 A3025 RMK AO2 SLP255 T10391089 20-01-22",0,0,0,0,0,0,42.880833333333335,-85.52280555555555
"KGLR","GAYLORD RGNL","USA","20-01-22","""2020-01-22T15:53:00.000Z""","KGLR 221553Z AUTO 22012G20KT 10SM CLR M02/M06 A3005 RMK AO2 SLP195 T10171061 20-01-22",0,2,0,0,0,0,45.01302777777778,-84.70344444444444
"KCMX","HOUGHTON COUNTY MEMORIAL","USA","20-01-22","""2020-01-22T15:53:00.000Z""","KCMX 221553Z AUTO 24011G24KT 10SM OVC017 M02/M07 A2985 RMK AO2 SLP123 T10221072 20-01-22",0,2,0,0,0,0,47.168416666666666,-88.48906111111111
"KSAW","MARQUETTE, MI, SAWYER INTL ARPT","USA","20-01-22","""2020-01-22T15:47:00.000Z""","KSAW 221547Z 20013KT 10SM OVC013 M05/M08 A2991 20-01-22",0,0,0,0,0,0,46.35363888888889,-87.39536111111111
"KLDM","MASON COUNTY","USA","20-01-22","""2020-01-22T16:16:00.000Z""","KLDM 221616Z AUTO 21014G24KT 10SM CLR 01/M02 A3015 RMK AO2 P0002 T00101017 20-01-22",0,2,0,0,0,0,43.96252777777778,-86.40791666666668
"KJXN","JACKSON COUNTY-REYNOLDS FIELD","USA","20-01-22","""2020-01-22T15:56:00.000Z""","KJXN 221556Z 20014KT 10SM CLR M03/M09 A3029 RMK AO2 SLP274 T10331094 20-01-22",0,0,0,0,0,0,42.260416666666664,-84.46044444444445
"KIWD","GOGEBIC-IRON COUNTY","USA","20-01-22","""2020-01-22T15:56:00.000Z""","KIWD 221556Z AUTO 20008G15KT 5SM BR OVC008 M03/M04 A2987 RMK AO2 SLP135 T10281044 FZRANO 20-01-22",0,2,0,7.5,0,0,46.52747222222222,-90.13138888888888
"KIMT","FORD","USA","20-01-22","""2020-01-22T15:54:00.000Z""","KIMT 221554Z AUTO 17007KT 6SM HZ OVC016 M05/M08 A2993 RMK AO2 SLP158 T10501078 20-01-22",0,0,0,0,0,0,45.818361111111116,-88.11455555555555
"KLAN","CAPITAL REGION INTL","USA","20-01-22","""2020-01-22T15:53:00.000Z""","KLAN 221553Z 21012KT 9SM CLR M04/M09 A3027 RMK AO2 SLP264 T10391094 20-01-22",0,0,0,0,0,0,42.778638888888885,-84.58619444444444
"KAZO","KALAMAZOO/BATTLE CREEK INTL","USA","20-01-22","""2020-01-22T15:53:00.000Z""","KAZO 221553Z 20013KT 10SM CLR M03/M09 A3027 RMK AO2 SLP265 T10331089 20-01-22",0,0,0,0,0,0,42.23438888888889,-85.55155555555555
"KISQ","SCHOOLCRAFT COUNTY","USA","20-01-22","""2020-01-22T16:15:00.000Z""","KISQ 221615Z AUTO 22009G16KT 1 3/4SM -SN SCT011 SCT016 OVC035 M03/M04 A3001 RMK AO2 T10261041 20-01-22",0,2,6.7,7.5,0,1,45.97463888888889,-86.17183333333334
"KMCD","MACKINAC ISLAND","USA","20-01-22","""2020-01-22T16:15:00.000Z""","KMCD 221615Z AUTO 21008G16KT 180V240 10SM OVC019 00/M03 A3003 RMK AO2 T00001032 20-01-22",0,2,0,0,0,0,45.864983333333335,-84.63709444444446
"KMOP","MOUNT PLEASANT MUNI, MI","USA","20-01-22","""2020-01-22T16:15:00.000Z""","KMOP 221615Z AUTO 21010G14KT 10SM CLR M03/M07 A3021 RMK AO2 T10271070 20-01-22",0,2,0,0,0,0,43.62163888888889,-84.73730555555555
"KMBL","MANISTEE CO.-BLACKER","USA","20-01-22","""2020-01-22T15:56:00.000Z""","KMBL 221556Z AUTO 22011G16KT 10SM SCT021 02/M03 A3012 RMK AO2 SLP208 T00171028 FZRANO 20-01-22",0,2,0,0,0,0,44.27247222222222,-86.24688888888889
"KMNM","MENOMINEE-MARINETTE TWIN COUNTY","USA","20-01-22","""2020-01-22T15:56:00.000Z""","KMNM 221556Z AUTO 24011KT 10SM BKN035 OVC065 M02/M06 A3003 RMK AO2 SLP178 T10221061 FZRANO $ 20-01-22",0,0,0,0,0,0,45.12668611111111,-87.63854166666667
"KOSC","OSCODA-WURTSMITH","USA","20-01-22","""2020-01-22T16:15:00.000Z""","KOSC 221615Z AUTO 21013KT 10SM CLR M02/M06 A3016 RMK AO2 T10251065 20-01-22",0,0,0,0,0,0,44.451527777777784,-83.39416666666668
"KPHN","ST CLAIR COUNTY INTL","USA","20-01-22","""2020-01-22T16:15:00.000Z""","KPHN 221615Z AUTO 19013G17KT 10SM CLR M02/M07 A3033 RMK AO2 20-01-22",0,2,0,0,0,0,42.91097222222222,-82.52886111111111
"KMKG","MUSKEGON COUNTY","USA","20-01-22","""2020-01-22T15:55:00.000Z""","KMKG 221555Z 20015G26KT 10SM FEW018 BKN200 OVC250 01/M04 A3021 RMK AO2 PK WND 20027/1534 SLP238 T00061044 20-01-22",0,2,0,0,0,0,43.169488888888885,-86.23822222222222
"KPLN","PELLSTON RGNL AIRPORT OF EMMET COUNTY","USA","20-01-22","""2020-01-22T15:54:00.000Z""","KPLN 221554Z AUTO 22011G17KT 10SM OVC027 00/M04 A3005 RMK AO2 SLP186 T00001044 20-01-22",0,2,0,0,0,0,45.57091666666667,-84.79672222222221
"KMBS","MBS INTL","USA","20-01-22","""2020-01-22T15:53:00.000Z""","KMBS 221553Z 22012KT 8SM CLR M03/M09 A3024 RMK AO2 SLP250 T10331094 20-01-22",0,0,0,0,0,0,43.532916666666665,-84.07963888888888
"KPTK","OAKLAND COUNTRY INTL","USA","20-01-22","""2020-01-22T15:53:00.000Z""","KPTK 221553Z 20007KT 8SM FEW160 OVC230 M05/M09 A3029 RMK AO2 SLP271 T10501089 20-01-22",0,0,0,0,0,0,42.66563611111111,-83.42050555555556
"KAEL","ALBERT LEA MUNI","USA","20-01-22","""2020-01-22T16:15:00.000Z""","KAEL 221615Z AUTO 20008KT 3/4SM -SN OVC007 01/01 A2991 RMK AO2 P0001 20-01-22",0,0,6.7,7.5,0,1,43.68131388888889,-93.36814722222222
"KIRS","KIRSCH MUNI","USA","20-01-22","""2020-01-22T16:15:00.000Z""","KIRS 221615Z AUTO 21011KT 10SM CLR M03/M08 A3030 RMK AO2 T10301076 20-01-22",0,0,0,0,0,0,41.81328611111111,-85.43895833333333
"KHAI","THREE RIVERS MUNI DR HAINES","USA","20-01-22","""2020-01-22T16:15:00.000Z""","KHAI 221615Z AUTO 20010G18KT 10SM CLR M03/M08 A3029 RMK AO2 T10281081 20-01-22",0,2,0,0,0,0,41.95975,-85.59305555555555
"KMTC","SELFRIDGE ANGB","USA","20-01-22","""2020-01-22T15:56:00.000Z""","KMTC 221556Z 19010KT 10SM FEW160 OVC250 M03/M07 A3033 RMK AO2A SLP285 T10281073 20-01-22",0,0,0,0,0,0,42.61389444444445,-82.8369111111111
"KTVC","CHERRY CAPITAL","USA","20-01-22","""2020-01-22T15:53:00.000Z""","KTVC 221553Z 20013G22KT 10SM FEW030 OVC200 01/M04 A3008 RMK AO2 SLP192 T00061039 20-01-22",0,2,0,0,0,0,44.74158333333333,-85.58177777777777
"KBRD","BRAINERD LAKES RGNL","USA","20-01-22","""2020-01-22T16:19:00.000Z""","KBRD 221619Z AUTO 20009KT 1 3/4SM BR OVC004 M03/M04 A2981 RMK AO2 T10281044 20-01-22",0,0,0,7.5,0,1,46.404222222222224,-94.13380555555557
"KAUM","AUSTIN MUNI","USA","20-01-22","""2020-01-22T16:16:00.000Z""","KAUM 221616Z AUTO 19013KT 7SM UP OVC008 01/00 A2993 RMK AO2 P0001 20-01-22",0,0,3.3,2.5,0,0,43.662638888888885,-92.93291666666667
"KBJI","BEMIDJI RGNL","USA","20-01-22","""2020-01-22T16:15:00.000Z""","KBJI 221615Z AUTO 17004KT 10SM CLR M07/M09 A2975 RMK AO2 T10741095 20-01-22",0,0,0,2.5,0,0,47.51072222222222,-94.93472222222222
"KBDE","BAUDETTE INTL","USA","20-01-22","""2020-01-22T15:53:00.000Z""","KBDE 221553Z AUTO 16003KT 7SM CLR M09/M11 A2975 RMK AO2 SLP094 T10891106 20-01-22",0,0,0,2.5,0,0,48.72844444444445,-94.61219444444444
"KAXN","CHANDLER FIELD","USA","20-01-22","""2020-01-22T15:53:00.000Z""","KAXN 221553Z AUTO 17007KT 5SM BR CLR M04/M06 A2978 RMK AO2 SLP110 T10441056 20-01-22",0,0,0,7.5,0,0,45.866305555555556,-95.39466666666668
"KCKN","CROOKSTON MUNI KIRKWOOD FLD","USA","20-01-22","""2020-01-22T16:15:00.000Z""","KCKN 221615Z AUTO 00000KT 7SM CLR M11/M12 A2976 RMK AO2 20-01-22",0,0,0,2.5,0,0,47.841655555555555,-96.62145277777778
"KDTL","DETROIT LAKES-WETHING FIELD","USA","20-01-22","""2020-01-22T16:15:00.000Z""","KDTL 221615Z AUTO 16003KT 5SM BR CLR M07/M07 A2976 RMK AO2 20-01-22",0,0,0,7.5,0,0,46.82516666666667,-95.88558333333334
"KDLH","DULUTH INTL","USA","20-01-22","""2020-01-22T15:55:00.000Z""","KDLH 221555Z 22008KT 3SM BR OVC006 M05/M07 A2981 RMK AO2 SLP123 T10501067 20-01-22",0,0,0,7.5,0,1,46.842083333333335,-92.1936388888889
"KFBL","FARIBAULT MUNI","USA","20-01-22","""2020-01-22T16:16:00.000Z""","KFBL 221616Z AUTO 19009KT 7SM -DZ SCT008 02/01 A2990 RMK AO2 20-01-22",0,0,0,2.5,0,0,44.32896666666667,-93.31307222222222
"KFFM","FERGUS FALLS MUNI-EINAR MICKELSON FLD","USA","20-01-22","""2020-01-22T16:16:00.000Z""","KFFM 221616Z AUTO 16006KT 7SM CLR M07/M08 A2981 RMK AO2 20-01-22",0,0,0,2.5,0,0,46.284388888888884,-96.15669444444445
"KEVM","EVELETH-VIRGINIA MUNI","USA","20-01-22","""2020-01-22T16:15:00.000Z""","KEVM 221615Z AUTO 20006KT 7SM OVC009 M06/M08 A2982 RMK AO2 T10581077 20-01-22",0,0,0,2.5,0,0,47.424166666666665,-92.49655555555556
"KFRM","FAIRMONT MUNI","USA","20-01-22","""2020-01-22T16:12:00.000Z""","KFRM 221612Z AUTO 19016KT 3SM -SN BR OVC008 01/00 A2988 RMK AO2 CIG 006V012 P0000 FZRANO 20-01-22",0,2,6.7,7.5,0,1,43.64394444444444,-94.41561111111112
"KELO","ELY/MUNI,MN.","USA","20-01-22","""2020-01-22T15:55:00.000Z""","KELO 221555Z AUTO 21008KT 7SM OVC011 M07/M09 A2979 RMK AO2 20-01-22",0,0,0,2.5,0,0,47.82401111111111,-91.82931944444444
"KGPZ","GRAND RAPIDS/ITASCA CO-GORDON NEWSTROM FLD","USA","20-01-22","""2020-01-22T15:56:00.000Z""","KGPZ 221556Z AUTO 18005KT 6SM BR OVC008 M08/M09 A2981 RMK AO2 SLP121 T10781094 FZRANO 20-01-22",0,0,0,7.5,0,0,47.21013888888889,-93.50991666666667
"KINL","FALLS INTL-EINARSON FIELD","USA","20-01-22","""2020-01-22T15:55:00.000Z""","KINL 221555Z AUTO 20006KT 6SM HZ OVC012 M07/M10 A2976 RMK AO2 SLP102 T10671100 20-01-22",0,0,0,0,0,0,48.56558333333333,-93.40216666666667
"KMJQ","JACKSON MUNI","USA","20-01-22","""2020-01-22T15:55:00.000Z""","KMJQ 221555Z AUTO 21015G20KT 10SM OVC009 01/00 A2985 RMK AO2 PWINO 20-01-22",0,2,0,2.5,0,0,43.65014166666666,-94.98657222222222
"KHIB","RANGE RGNL","USA","20-01-22","""2020-01-22T15:53:00.000Z""","KHIB 221553Z AUTO 19005KT 3SM HZ OVC009 M07/M10 A2980 RMK AO2 SLP117 T10721100 20-01-22",0,0,0,0,0,1,47.386583333333334,-92.83897222222221
"KMKT","MANKATO RGNL","USA","20-01-22","""2020-01-22T15:56:00.000Z""","KMKT 221556Z AUTO 10SM UP RMK AO2 UPB49 SLPNO FZRANO $ 20-01-22",0,0,3.3,0,0,0,44.22277777777778,-93.91930555555557
"KMML","SOUTHWEST MINNESOTA RGNL MARSHALL/RYAN FLD","USA","20-01-22","""2020-01-22T15:56:00.000Z""","KMML 221556Z AUTO 21011KT 10SM OVC010 02/01 A2981 RMK AO2 SLP110 T00220006 FZRANO 20-01-22",0,0,0,2.5,0,0,44.45172222222222,-95.82441666666666
"KFCM","FLYING CLOUD","USA","20-01-22","""2020-01-22T16:26:00.000Z""","KFCM 221626Z 20010KT 8SM OVC009 02/M01 A2987 RMK AO2 T00171006 20-01-22",0,0,0,0,0,0,44.8275,-93.45858333333334
"KMVE","MONTEVIDEO-CHIPPEWA COUNTY","USA","20-01-22","""2020-01-22T16:15:00.000Z""","KMVE 221615Z AUTO 20005KT 10SM CLR A2980 RMK AO2 20-01-22",0,0,0,0,0,0,44.96919444444445,-95.71038888888889
"KMIC","CRYSTAL","USA","20-01-22","""2020-01-22T15:53:00.000Z""","KMIC 221553Z 20007KT 10SM OVC010 02/M01 A2987 RMK AO2 SLP126 T00171006 20-01-22",0,0,0,0,0,0,45.062,-93.35394444444444
"KMSP","MINNEAPOLIS-ST PAUL INTL/WOLD-CHAMBERLAIN","USA","20-01-22","""2020-01-22T15:53:00.000Z""","KMSP 221553Z 21010KT 10SM OVC011 02/M01 A2989 RMK AO2 SLP134 T00221006 20-01-22",0,0,0,0,0,0,44.881972222222224,-93.22177777777777
"KULM","NEW ULM MUNI","USA","20-01-22","""2020-01-22T16:15:00.000Z""","KULM 221615Z AUTO 19009KT 10SM OVC013 02/00 A2986 RMK AO2 20-01-22",0,0,0,2.5,0,0,44.31856666666667,-94.50149166666667
"KPKD","PARK RAPIDS MUNI-KONSHOK FIELD","USA","20-01-22","""2020-01-22T15:53:00.000Z""","KPKD 221553Z AUTO 19003KT 4SM BR CLR M09/M10 A2975 RMK AO2 SLP102 T10891100 20-01-22",0,0,0,7.5,0,0,46.901202777777776,-95.07310555555556
"KROX","ROSEAU MUNI/RUDY BILLBERG FIELD","USA","20-01-22","""2020-01-22T16:19:00.000Z""","KROX 221619Z AUTO 00000KT 1/2SM HZ BKN002 M13/M16 A2976 RMK AO2 20-01-22",0,0,0,0,0,1,48.856,-95.69708333333334
"KPNM","PRINCETON/MUNI,MN.","USA","20-01-22","""2020-01-22T16:15:00.000Z""","KPNM 221615Z AUTO 16005KT 7SM OVC008 01/M01 A2985 RMK AO2 20-01-22",0,0,0,2.5,0,0,45.559866666666665,-93.60821666666666
"KRST","ROCHESTER INTL","USA","20-01-22","""2020-01-22T15:54:00.000Z""","KRST 221554Z 18017KT 3SM -SN BR BKN009 OVC029 M02/M03 A2993 RMK AO2 PK WND 18027/1506 SLP156 P0001 T10171033 20-01-22",0,2,6.7,7.5,0,1,43.908277777777776,-92.50002777777777
"KRWF","REDWOOD FALLS MUNI","USA","20-01-22","""2020-01-22T15:53:00.000Z""","KRWF 221553Z AUTO 20009KT 10SM OVC011 02/00 A2983 RMK AO2 SLP115 T00170000 20-01-22",0,0,0,2.5,0,0,44.54688888888889,-95.082
"KSYN","STANTON AIRFIELD","USA","20-01-22","""2020-01-22T16:15:00.000Z""","KSYN 221615Z AUTO 19010G14KT 7SM -DZ OVC011 01/00 A2990 RMK AO2 P0001 T00120000 20-01-22",0,2,0,2.5,0,0,44.475522222222224,-93.01632222222223
"KTVF","THIEF RIVER FALLS RGNL","USA","20-01-22","""2020-01-22T15:56:00.000Z""","KTVF 221556Z AUTO 18004KT 5SM BR CLR M08/M10 A2975 RMK AO2 SLP095 T10781100 FZRANO 20-01-22",0,0,0,7.5,0,0,48.065666666666665,-96.185
"KSTC","ST CLOUD RGNL","USA","20-01-22","""2020-01-22T15:53:00.000Z""","KSTC 221553Z 17009KT 6SM BR OVC008 M01/M02 A2983 RMK AO2 SLP125 T10061022 20-01-22",0,0,0,7.5,0,0,45.54655555555556,-94.05988888888889
"KSTP","ST PAUL DOWNTOWN HOLMAN FLD","USA","20-01-22","""2020-01-22T15:53:00.000Z""","KSTP 221553Z 18009KT 10SM OVC013 02/M01 A2991 RMK AO2 SLP135 T00171011 20-01-22",0,0,0,0,0,0,44.93462222222222,-93.06034166666666
"KRRT","WARROAD INTL MEMORIAL","USA","20-01-22","""2020-01-22T16:28:00.000Z""","KRRT 221628Z AUTO 00000KT 3SM BR CLR M09/M11 A2976 RMK AO2 20-01-22",0,0,0,7.5,0,0,48.94147222222222,-95.34847222222221
"KMWM","WINDOM MUNI","USA","20-01-22","""2020-01-22T16:16:00.000Z""","KMWM 221616Z AUTO 20013KT 10SM OVC010 01/00 A2983 RMK AO2 20-01-22",0,0,0,2.5,0,0,43.91341666666666,-95.10938888888889
"KONA","WINONA MUNI-MAX CONRAD FLD","USA","20-01-22","""2020-01-22T16:16:00.000Z""","KONA 221616Z AUTO 17004KT 2 1/2SM -SN OVC032 00/M02 A3001 RMK AO2 P0001 20-01-22",0,0,6.7,7.5,0,0,44.07754444444445,-91.70902777777778
"KOTG","WORTHINGTON MUNI","USA","20-01-22","""2020-01-22T15:56:00.000Z""","KOTG 221556Z AUTO 20016KT 10SM OVC005 01/00 A2982 RMK AO2 SLP122 T00110000 FZRANO 20-01-22",0,2,0,2.5,0,0,43.655055555555556,-95.57919444444444
"KFAM","FARMINGTON RGNL","USA","20-01-22","""2020-01-22T15:56:00.000Z""","KFAM 221556Z AUTO 17010KT 10SM CLR M03/M06 A3027 RMK AO2 SLP274 T10281061 FZRANO 20-01-22",0,0,0,0,0,0,37.76102777777778,-90.42861111111111
"KTBN","WAYNESVILLE-ST. ROBERT RGNL FORNEY FLD","USA","20-01-22","""2020-01-22T15:56:00.000Z""","KTBN 221556Z AUTO 16011KT 10SM OVC120 M01/M06 A3015 RMK AO2 SLP225 T10121064 $ 20-01-22",0,0,0,0,0,0,37.74163055555556,-92.14073611111112
"KCOU","COLUMBIA RGNL","USA","20-01-22","""2020-01-22T15:54:00.000Z""","KCOU 221554Z 15011KT 10SM CLR M01/M06 A3015 RMK AO2 SLP217 T10061061 20-01-22",0,0,0,0,0,0,38.817972222222224,-92.21958333333333
"KCGI","CAPE GIRARDEAU RGNL","USA","20-01-22","""2020-01-22T15:53:00.000Z""","KCGI 221553Z 16007KT 10SM CLR M01/M06 A3034 RMK AO2 SLP279 T10111056 20-01-22",0,0,0,0,0,0,37.22530555555556,-89.57074999999999
"KJEF","JEFFERSON CITY MEMORIAL","USA","20-01-22","""2020-01-22T15:53:00.000Z""","KJEF 221553Z 13009KT 10SM CLR 00/M06 A3019 RMK AO2 SLP218 T00001061 20-01-22",0,0,0,0,0,0,38.591166666666666,-92.15613888888889
"KMCI","KANSAS CITY INTL","USA","20-01-22","""2020-01-22T16:28:00.000Z""","KMCI 221628Z 17014KT 1 3/4SM -SN BR OVC013 02/01 A2999 RMK AO2 TWR VIS 2 1/2 RAE14 P0002 T00170011 20-01-22",0,0,6.7,7.5,0,1,39.29761111111111,-94.71388888888889
"KMKC","CHARLES B. WHEELER DOWNTOWN","USA","20-01-22","""2020-01-22T16:03:00.000Z""","KMKC 221603Z 14007KT 7SM -RA OVC013 01/M01 A3002 RMK AO2 P0000 T00111011 20-01-22",0,0,0,2.5,0,0,39.12294444444444,-94.59283333333333
"KAIZ","LEE C FINE MEMORIAL","USA","20-01-22","""2020-01-22T15:56:00.000Z""","KAIZ 221556Z AUTO 15008KT 10SM BKN110 M01/M05 A3016 RMK AO2 SLP221 T10061050 FZRANO 20-01-22",0,0,0,0,0,0,38.09602777777778,-92.54947222222222
"KIRK","KIRKSVILLE RGNL","USA","20-01-22","""2020-01-22T15:55:00.000Z""","KIRK 221555Z AUTO 16010KT 10SM SCT022 OVC090 M02/M06 A3011 RMK AO2 SLP212 T10171056 20-01-22",0,0,0,0,0,0,40.093472222222225,-92.54491666666667
"KDMO","SEDALIA RGNL","USA","20-01-22","""2020-01-22T15:53:00.000Z""","KDMO 221553Z AUTO 15009KT 10SM UP SCT042 BKN049 OVC055 00/M04 A3010 RMK AO2 UPB49 SLP203 P0000 T00001044 20-01-22",0,0,3.3,2.5,0,0,38.70741666666667,-93.17591666666667
"KJLN","JOPLIN RGNL","USA","20-01-22","""2020-01-22T15:53:00.000Z""","KJLN 221553Z 16013G18KT 4SM -RA BR BKN045 OVC055 02/00 A3006 RMK AO2 SLP185 P0000 T00170000 20-01-22",0,2,0,7.5,0,0,37.151805555555555,-94.49827777777777
"KPOF","POPLAR BLUFF MUNI","USA","20-01-22","""2020-01-22T15:53:00.000Z""","KPOF 221553Z AUTO 17005KT 10SM CLR M01/M05 A3033 RMK AO2 SLP279 T10111050 20-01-22",0,0,0,0,0,0,36.773944444444446,-90.3248611111111
"KSTJ","ROSECRANS MEMORIAL","USA","20-01-22","""2020-01-22T16:20:00.000Z""","KSTJ 221620Z 16010KT 2SM -SN BR OVC012 01/M01 A2999 RMK AO2 UPB04E05SNE04B05 P0000 T00111006 20-01-22",0,0,6.7,7.5,0,1,39.77194444444444,-94.90970555555556
"KSZL","WHITEMAN AFB","USA","20-01-22","""2020-01-22T15:56:00.000Z""","KSZL 221556Z 16009G14KT 10SM OVC038 00/M02 A3004 RMK AO2A SLP184 P0000 T00001016 $ 20-01-22",0,2,0,2.5,0,0,38.73030555555556,-93.54786388888888
"KSUS","SPIRIT OF ST LOUIS","USA","20-01-22","""2020-01-22T15:54:00.000Z""","KSUS 221554Z VRB05KT 10SM CLR M01/M07 A3024 RMK AO2 SLP251 T10111067 20-01-22",0,0,0,0,0,0,38.66211111111111,-90.65205555555556
"KVIH","ROLLA NATIONAL","USA","20-01-22","""2020-01-22T15:53:00.000Z""","KVIH 221553Z AUTO 17015KT 10SM BKN080 BKN110 M01/M07 A3018 RMK AO2 SLP230 T10061067 20-01-22",0,0,0,0,0,0,38.12741666666667,-91.7695
"KSGF","SPRINGFIELD-BRANSON NATIONAL","USA","20-01-22","""2020-01-22T15:52:00.000Z""","KSGF 221552Z 15015KT 10SM OVC050 M02/M04 A3009 RMK AO2 UPE04 SLP201 P0000 T10171044 20-01-22",0,0,0,2.5,0,0,37.245666666666665,-93.38863888888889
"KSTL","LAMBERT-ST LOUIS INTL","USA","20-01-22","""2020-01-22T15:51:00.000Z""","KSTL 221551Z 15008KT 10SM BKN160 OVC200 M02/M07 A3025 RMK AO2 SLP257 T10171072 20-01-22",0,0,0,0,0,0,38.748697222222226,-90.37002777777776
"KCRX","ROSCOE TURNER","USA","20-01-22","""2020-01-22T16:15:00.000Z""","KCRX 221615Z AUTO 14004KT 10SM CLR 00/M05 A3039 RMK AO2 20-01-22",0,0,0,0,0,0,34.914966666666665,-88.60348333333333
"KCKM","FLETCHER FIELD","USA","20-01-22","""2020-01-22T16:15:00.000Z""","KCKM 221615Z AUTO 15009KT 10SM CLR 03/M06 A3037 RMK A01 20-01-22",0,0,0,0,0,0,34.29972222222222,-90.51230555555556
"KCBM","COLUMBUS AFB","USA","20-01-22","""2020-01-22T15:56:00.000Z""","KCBM 221556Z AUTO 17003KT 10SM CLR 02/M06 A3040 RMK AO2 SLP299 T00201063 $ 20-01-22",0,0,0,0,0,0,33.64516666666667,-88.445925
"KGTR","GOLDEN TRIANGLE RGNL","USA","20-01-22","""2020-01-22T15:56:00.000Z""","KGTR 221556Z 14007KT 10SM CLR 02/M06 A3041 RMK AO2 SLP307 T00171056 FZRANO 20-01-22",0,0,0,0,0,0,33.448277777777776,-88.59138888888889
"KBIX","KEESLER AFB","USA","20-01-22","""2020-01-22T15:56:00.000Z""","KBIX 221556Z AUTO 07006KT 10SM BKN220 05/M04 A3034 RMK AO2 SLP277 T00511045 20-01-22",0,0,0,0,0,0,30.410425,-88.92443333333334
"KGLH","GREENVILLE MID-DELTA","USA","20-01-22","""2020-01-22T15:53:00.000Z""","KGLH 221553Z 13008KT 10SM CLR 02/M04 A3035 RMK AO2 SLP288 T00221039 20-01-22",0,0,0,0,0,0,33.48288055555556,-90.98561388888889
"KMEI","KEY FIELD","USA","20-01-22","""2020-01-22T15:58:00.000Z""","KMEI 221558Z 12004G15KT 10SM CLR 03/M07 A3038 RMK AO2 SLP291 T00281072 $ 20-01-22",0,2,0,0,0,0,32.33261111111111,-88.75186111111111
"KHEZ","HARDY-ANDERS FIELD NATCHEZ-ADAMS COUNTY","USA","20-01-22","""2020-01-22T15:56:00.000Z""","KHEZ 221556Z AUTO 14009KT 10SM FEW002 03/M05 A3035 RMK AO2 SLP281 T00281050 20-01-22",0,0,0,0,0,0,31.613666666666667,-91.29733333333333
"KNMM","MERIDIAN NAS (McCAIN FIELD),MS","USA","20-01-22","""2020-01-22T15:56:00.000Z""","KNMM 221556Z 13005KT 10SM OVC170 01/M05 A3040 RMK AO2 SLP309 T00111050 20-01-22",0,0,0,0,0,0,32.55348055555555,-88.55526388888889
"KJAN","JACKSON-MEDGAR WILEY EVERS INTL","USA","20-01-22","""2020-01-22T15:54:00.000Z""","KJAN 221554Z 15007KT 10SM BKN250 03/M06 A3036 RMK AO2 SLP282 T00281061 20-01-22",0,0,0,0,0,0,32.311166666666665,-90.07588888888888
"KGPT","GULFPORT-BILOXI INTL","USA","20-01-22","""2020-01-22T15:53:00.000Z""","KGPT 221553Z 04004KT 10SM CLR 05/M05 A3035 RMK AO2 SLP277 T00501050 20-01-22",0,0,0,0,0,0,30.407277777777775,-89.07008333333333
"KGWO","GREENWOOD-LEFLORE","USA","20-01-22","""2020-01-22T15:53:00.000Z""","KGWO 221553Z AUTO 14007KT 10SM CLR 02/M06 A3038 RMK AO2 SLP290 T00171056 20-01-22",0,0,0,0,0,0,33.49429722222222,-90.08479722222222
"KHKS","HAWKINS FIELD","USA","20-01-22","""2020-01-22T15:53:00.000Z""","KHKS 221553Z 14007KT 10SM CLR 03/M06 A3036 RMK AO2 SLP278 T00281061 20-01-22",0,0,0,0,0,0,32.33477777777778,-90.22252777777778
"KMCB","MC COMB/PIKE COUNTY/JOHN E LEWIS FIELD","USA","20-01-22","""2020-01-22T15:53:00.000Z""","KMCB 221553Z AUTO 11007KT 10SM CLR 04/M05 A3034 RMK AO2 SLP275 T00441050 20-01-22",0,0,0,0,0,0,31.178444444444445,-90.47186111111111
"KUOX","UNIVERSITY-OXFORD","USA","20-01-22","""2020-01-22T16:15:00.000Z""","KUOX 221615Z AUTO 15007KT 10SM CLR M00/M08 A3039 RMK AO2 20-01-22",0,0,0,0,0,0,34.38433333333333,-89.53680555555556
"KPIB","HATTIESBURG-LAUREL RGNL","USA","20-01-22","""2020-01-22T15:56:00.000Z""","KPIB 221556Z AUTO 15006KT 10SM CLR 03/M04 A3038 RMK AO2 SLP291 T00331044 20-01-22",0,0,0,0,0,0,31.467138888888886,-89.33705555555555
"KTUP","TUPELO RGNL","USA","20-01-22","""2020-01-22T15:53:00.000Z""","KTUP 221553Z 17006KT 10SM CLR 02/M08 A3040 RMK AO2 SLP297 T00171078 20-01-22",0,0,0,0,0,0,34.269,-88.76988888888889
"KOLV","OLIVE BRANCH","USA","20-01-22","""2020-01-22T15:50:00.000Z""","KOLV 221550Z 00000KT 10SM OVC160 M01/M05 A3037 20-01-22",0,0,0,0,0,0,34.978750000000005,-89.78686111111111
"KGGW","WOKAL FIELD/GLASGOW INTL","USA","20-01-22","""2020-01-22T16:23:00.000Z""","KGGW 221623Z AUTO 35004KT 3SM -SN BKN031 OVC043 M04/M07 A2979 RMK AO2 P0001 T10391067 20-01-22",0,0,6.7,7.5,0,0,48.21244444444445,-106.61480555555555
"KBZN","BOZEMAN YELLOWSTONE INTL","USA","20-01-22","""2020-01-22T15:56:00.000Z""","KBZN 221556Z 17005KT 10SM OVC070 M03/M06 A2998 RMK AO2 SLP181 T10281061 20-01-22",0,0,0,0,0,0,45.777569444444445,-111.15201944444445
"KCTB","CUT BANK INTL","USA","20-01-22","""2020-01-22T15:56:00.000Z""","KCTB 221556Z AUTO 28015G22KT 10SM CLR 01/M06 A2977 RMK AO2 SLP106 T00111061 20-01-22",0,2,0,0,0,0,48.60835277777778,-112.37615
"KGDV","DAWSON COMMUNITY","USA","20-01-22","""2020-01-22T15:56:00.000Z""","KGDV 221556Z AUTO 28003KT 10SM BKN070 OVC090 M02/M03 A2977 RMK AO2 SLP109 T10171033 FZRANO 20-01-22",0,0,0,2.5,0,0,47.13872222222222,-104.80722222222222
"KBIL","BILLINGS LOGAN INTL","USA","20-01-22","""2020-01-22T15:53:00.000Z""","KBIL 221553Z 28015G23KT 10SM FEW075 SCT100 03/M07 A2988 RMK AO2 SLP132 SHRASN DSNT NE-S ACSL DSNT SW-W T00281067 20-01-22",0,2,0,0,0,0,45.80766111111111,-108.542875
"KBTM","BERT MOONEY","USA","20-01-22","""2020-01-22T15:53:00.000Z""","KBTM 221553Z AUTO 00000KT 10SM BKN060 M04/M09 A2998 RMK AO2 SLP183 T10391094 20-01-22",0,0,0,0,0,0,45.954794444444445,-112.49746111111111
"KDLN","DILLON","USA","20-01-22","""2020-01-22T15:53:00.000Z""","KDLN 221553Z AUTO 21016KT 10SM CLR M06/M10 A2999 RMK AO2 SLP192 T10611100 20-01-22",0,2,0,0,0,0,45.255361111111114,-112.55250555555556
"KGTF","GREAT FALLS INTL","USA","20-01-22","""2020-01-22T15:53:00.000Z""","KGTF 221553Z 23011KT 10SM CLR 01/M07 A2984 RMK AO2 SLP136 T00061072 20-01-22",0,0,0,0,0,0,47.48266666666667,-111.37068333333333
"KHVR","HAVRE CITY-COUNTY","USA","20-01-22","""2020-01-22T15:53:00.000Z""","KHVR 221553Z AUTO 23015KT 10SM CLR 00/M06 A2979 RMK AO2 SLP115 T00001056 $ 20-01-22",0,0,0,0,0,0,48.54298611111111,-109.76234166666667
"KMLS","FRANK WILEY FIELD","USA","20-01-22","""2020-01-22T16:01:00.000Z""","KMLS 221601Z AUTO 32015KT 5SM -SN BR BKN007 BKN014 OVC020 01/00 A2982 RMK AO2 P0000 T00060000 20-01-22",0,0,6.7,7.5,0,0,46.42796111111111,-105.88622222222223
"KGFA","GREAT FALLS/MALMSTROM AFB, MT.","USA","20-01-22","""2020-01-22T15:56:00.000Z""","KGFA 221556Z AUTO 22010KT 10SM FEW140 FEW180 01/M05 A2986 RMK AO2 SLP139 T00051054 $ 20-01-22",0,0,0,0,0,0,47.5061111,-111.1847222
"KSDY","SIDNEY-RICHLAND MUNI","USA","20-01-22","""2020-01-22T15:56:00.000Z""","KSDY 221556Z AUTO 03003KT 10SM OVC060 M06/M06 A2977 RMK AO2 SLP482 T10561061 FZRANO 20-01-22",0,0,0,2.5,0,0,47.70686111111112,-104.19255555555556
"KGPI","KALISPELL, MT, GLACIER PARK INTL ARPT","USA","20-01-22","""2020-01-22T15:55:00.000Z""","KGPI 221555Z 14011KT 10SM OVC045 02/M02 A2995 RMK AO2 SLP165 T00221017 20-01-22",0,0,0,0,0,0,48.31047222222222,-114.256
"KLWT","LEWISTOWN MUNI","USA","20-01-22","""2020-01-22T15:54:00.000Z""","KLWT 221554Z AUTO 26003KT 10SM CLR M01/M08 A2984 RMK AO2 SLP123 T10111078 20-01-22",0,0,0,0,0,0,47.04925,-109.46669444444444
"KLVM","MISSION FIELD","USA","20-01-22","""2020-01-22T15:53:00.000Z""","KLVM 221553Z AUTO 24006KT 10SM BKN070 00/M07 A2993 RMK AO2 SLP150 T00001067 20-01-22",0,0,0,0,0,0,45.699416666666664,-110.44802777777778
"KHLN","HELENA RGNL","USA","20-01-22","""2020-01-22T15:53:00.000Z""","KHLN 221553Z 26007G15KT 10SM BKN055 03/M08 A2993 RMK AO2 SLP177 T00281078 20-01-22",0,2,0,0,0,0,46.60671111111111,-111.98334444444444
"KMSO","MISSOULA INTL","USA","20-01-22","""2020-01-22T15:53:00.000Z""","KMSO 221553Z 13006KT 10SM OVC046 02/M03 A3001 RMK AO2 SLP187 T00171033 20-01-22",0,0,0,0,0,0,46.91630555555555,-114.09055555555555
"KOLF","L M CLAYTON","USA","20-01-22","""2020-01-22T15:53:00.000Z""","KOLF 221553Z AUTO 24006KT 10SM BKN080 OVC100 M06/M08 A2980 RMK AO2 SLP123 T10561083 20-01-22",0,0,0,2.5,0,0,48.094500000000004,-105.57505555555555
"KJDN","JORDAN","USA","20-01-22","""2020-01-22T15:48:00.000Z""","KJDN 221548Z AUTO 32011KT 02/00 A2981 RMK AO1 SLP122 P0001 T00170000 20-01-22",0,0,0,2.5,0,0,47.32875000000001,-106.95268888888889
"KWYS","YELLOWSTONE","USA","20-01-22","""2020-01-22T16:10:00.000Z""","KWYS 221610Z AUTO 22007KT 10SM CLR M07/M09 A2997 RMK AO2 20-01-22",0,0,0,2.5,0,0,44.68838888888889,-111.11763888888888
"KAVL","ASHEVILLE RGNL","USA","20-01-22","""2020-01-22T15:54:00.000Z""","KAVL 221554Z 00000KT 10SM CLR 01/M11 A3039 RMK AO2 SLP307 T00061111 20-01-22",0,0,0,0,0,0,35.43444444444444,-82.54272777777777
"KCTZ","CLINTON-SAMPSON COUNTY","USA","20-01-22","""2020-01-22T16:15:00.000Z""","KCTZ 221615Z AUTO 02008KT 10SM CLR 04/M03 A3043 RMK AO2 T00401035 20-01-22",0,0,0,0,0,0,34.97493888888889,-78.36562777777777
"KEDE","NORTHEASTERN RGNL","USA","20-01-22","""2020-01-22T16:15:00.000Z""","KEDE 221615Z AUTO 01008KT 10SM CLR 06/00 A3043 RMK AO2 T00621004 20-01-22",0,0,0,0,0,0,36.02773333333333,-76.56709166666667
"KECG","ELIZABETH CITY CG AIR STATION/RGNL","USA","20-01-22","""2020-01-22T15:54:00.000Z""","KECG 221554Z 01016KT 10SM CLR 06/M02 A3044 RMK AO2 SLP306 T00611022 20-01-22",0,2,0,0,0,0,36.260580555555556,-76.17457222222222
"KNKT","CHERRY POINT MCAS/CUNNINGHAM FIELD,NC.","USA","20-01-22","""2020-01-22T15:54:00.000Z""","KNKT 221554Z 02013G21KT 10SM CLR 08/M01 A3038 RMK AO2 SLP283 T00831011 20-01-22",0,2,0,0,0,0,34.903169444444444,-76.88077222222222
"KCLT","CHARLOTTE/DOUGLAS INTL","USA","20-01-22","""2020-01-22T15:52:00.000Z""","KCLT 221552Z 05008KT 10SM FEW250 02/M11 A3046 RMK AO2 SLP319 T00221106 20-01-22",0,0,0,0,0,0,35.213750000000005,-80.94905555555556
"KFBG","SIMONS AAF","USA","20-01-22","""2020-01-22T15:56:00.000Z""","KFBG 221556Z AUTO 02007KT 10SM CLR 04/M07 A3042 RMK AO2 SLP306 T00371071 $ 20-01-22",0,0,0,0,0,0,35.13183333333333,-78.93666666666667
"KGSB","SEYMOUR OHNSON  AFB","USA","20-01-22","""2020-01-22T15:56:00.000Z""","KGSB 221556Z 02009KT 10SM CLR 03/M05 A3042 RMK AO2A SLP305 T00321052 $ 20-01-22",0,0,0,0,0,0,35.33938611111111,-77.96059444444445
"KGSO","PIEDMONT TRIAD INTL","USA","20-01-22","""2020-01-22T15:54:00.000Z""","KGSO 221554Z 04008KT 10SM FEW250 01/M10 A3045 RMK AO2 SLP318 T00061100 20-01-22",0,0,0,0,0,0,36.101325,-79.94112222222222
"KFAY","FAYETTEVILLE RGNL/GRANNIS FIELD","USA","20-01-22","""2020-01-22T15:53:00.000Z""","KFAY 221553Z 02010KT 10SM CLR 04/M06 A3043 RMK AO2 SLP301 T00391061 20-01-22",0,0,0,0,0,0,34.99122222222222,-78.88027777777778
"KFFA","FIRST LIGHT","USA","20-01-22","""2020-01-22T16:15:00.000Z""","KFFA 221615Z AUTO 02007G20KT 340V050 10SM SCT018 07/01 A3039 RMK AO2 T00700006 20-01-22",0,2,0,0,0,0,36.017583333333334,-75.67158333333334
"KISO","KINSTON RGNL JETPORT AT STALLINGS FLD","USA","20-01-22","""2020-01-22T15:56:00.000Z""","KISO 221556Z 36010KT 10SM CLR 04/M04 A3043 20-01-22",0,0,0,0,0,0,35.33144444444445,-77.60883333333332
"KOAJ","ALBERT J ELLIS","USA","20-01-22","""2020-01-22T15:56:00.000Z""","KOAJ 221556Z 01013G18KT 10SM CLR 05/M03 A3039 RMK AO2 RAB04E23 SLP293 P0000 T00501033 20-01-22",0,2,0,0,0,0,34.82916666666667,-77.61213888888888
"KHKY","HICKORY RGNL","USA","20-01-22","""2020-01-22T15:53:00.000Z""","KHKY 221553Z VRB05KT 10SM CLR 01/M10 A3044 RMK AO2 SLP308 T00111100 20-01-22",0,0,0,0,0,0,35.741147222222224,-81.38955
"KMRN","FOOTHILLS REGIONAL","USA","20-01-22","""2020-01-22T16:15:00.000Z""","KMRN 221615Z AUTO 00000KT 10SM CLR 03/M12 A3047 RMK AO2 T00251122 20-01-22",0,0,0,0,0,0,35.82022222222223,-81.61141666666666
"KPGV","PITT-GREENVILLE","USA","20-01-22","""2020-01-22T16:15:00.000Z""","KPGV 221615Z AUTO 04010KT 10SM CLR 04/M03 A3044 RMK AO2 20-01-22",0,0,0,0,0,0,35.63569444444445,-77.38408333333334
"KNCA","JACKSONVILLE/NEW RIVER MCAS(MC CUTCHEON FIELD), NC.","USA","20-01-22","""2020-01-22T15:56:00.000Z""","KNCA 221556Z 01015KT 10SM CLR 06/M03 A3037 RMK AO2 SLP285 T00611033 $ 20-01-22",0,0,0,0,0,0,34.70843333333334,-77.43966111111112
"KPOB","POPE AAF","USA","20-01-22","""2020-01-22T15:56:00.000Z""","KPOB 221556Z AUTO 04011KT 10SM CLR 04/M07 A3043 RMK AO2 SLP310 T00411068 $ 20-01-22",0,0,0,0,0,0,35.17076111111111,-79.01441944444444
"KEWN","COASTAL CAROLINA REGIONAL","USA","20-01-22","""2020-01-22T15:54:00.000Z""","KEWN 221554Z 02010KT 10SM CLR 06/M02 A3040 RMK AO2 SLP293 T00611022 20-01-22",0,0,0,0,0,0,35.07285,-77.04301944444444
"KEHO","SHELBY-CLEVELAND COUNTY RGNL","USA","20-01-22","""2020-01-22T16:15:00.000Z""","KEHO 221615Z AUTO 03007KT 10SM CLR 02/M10 A3045 RMK AO2 T00151097 20-01-22",0,0,0,0,0,0,35.25575,-81.60074999999999
"KRWI","ROCKY-MOUNT-WILSON RGNL","USA","20-01-22","""2020-01-22T15:53:00.000Z""","KRWI 221553Z AUTO 01013KT 10SM CLR 03/M06 A3046 RMK AO2 SLP315 T00281056 $ 20-01-22",0,0,0,0,0,0,35.856252777777776,-77.89193333333334
"KRDU","RALEIGH-DURHAM INTL","USA","20-01-22","""2020-01-22T15:51:00.000Z""","KRDU 221551Z 04009G15KT 10SM FEW250 02/M07 A3047 RMK AO2 SLP322 T00171072 20-01-22",0,2,0,0,0,0,35.87763888888889,-78.78747222222222
"KOCW","WARREN FIELD","USA","20-01-22","""2020-01-22T16:15:00.000Z""","KOCW 221615Z AUTO 36011KT 10SM CLR 06/M03 A3043 RMK AO2 T00561033 20-01-22",0,0,0,0,0,0,35.57046666666667,-77.04981388888889
"KSVH","STATESVILLE RGNL","USA","20-01-22","""2020-01-22T16:15:00.000Z""","KSVH 221615Z AUTO 04004KT 10SM CLR 02/M09 A3045 RMK AO2 T00151093 20-01-22",0,0,0,0,0,0,35.765,-80.9538888888889
"KSOP","MOORE COUNTY","USA","20-01-22","""2020-01-22T15:56:00.000Z""","KSOP 221556Z AUTO 03008KT 10SM CLR 03/M08 A3044 RMK AO2 SLP319 T00281078 20-01-22",0,0,0,0,0,0,35.23741666666667,-79.38902777777778
"KDIK","DICKINSON - THEODORE ROOSEVELT RGNL","USA","20-01-22","""2020-01-22T15:56:00.000Z""","KDIK 221556Z AUTO 27003KT 10SM OVC100 00/M03 A2971 RMK AO2 SLP084 T00001033 20-01-22",0,0,0,0,0,0,46.797333333333334,-102.80186111111111
"KDVL","DEVILS LAKE RGNL","USA","20-01-22","""2020-01-22T15:56:00.000Z""","KDVL 221556Z AUTO 32004KT 10SM CLR M12/M13 A2975 RMK AO2 SLP665 T11171128 FZRANO 20-01-22",0,0,0,2.5,0,0,48.11658333333334,-98.91000000000001
"KINT","SMITH REYNOLDS","USA","20-01-22","""2020-01-22T15:54:00.000Z""","KINT 221554Z 05010KT 10SM CLR 00/M10 A3046 RMK AO2 SLP323 T00001100 20-01-22",0,0,0,0,0,0,36.13371111111111,-80.22198611111111
"KILM","WILMINGTON INTL","USA","20-01-22","""2020-01-22T15:53:00.000Z""","KILM 221553Z 35013KT 10SM CLR 07/M03 A3036 RMK AO2 SLP279 T00671033 20-01-22",0,0,0,0,0,0,34.271138888888885,-77.9028888888889
"KBIS","BISMARCK MUNI","USA","20-01-22","""2020-01-22T15:52:00.000Z""","KBIS 221552Z 00000KT 10SM CLR M08/M10 A2977 RMK AO2 SLP108 T10781100 20-01-22",0,0,0,2.5,0,0,46.77272222222222,-100.74575
"KJMS","JAMESTOWN RGNL","USA","20-01-22","""2020-01-22T15:56:00.000Z""","KJMS 221556Z AUTO 27005KT 10SM CLR M07/M08 A2974 RMK AO2 SLP097 T10671078 20-01-22",0,0,0,2.5,0,0,46.92972222222222,-98.67819444444444
"KRDR","GRAND FORKS AFB","USA","20-01-22","""2020-01-22T15:56:00.000Z""","KRDR 221556Z 30004KT 10SM FEW120 FEW200 M08/M11 A2975 RMK AO2A SLP095 T10811111 20-01-22",0,0,0,0,0,0,47.96128055555556,-97.40081111111111
"KFAR","HECTOR INTL","USA","20-01-22","""2020-01-22T15:53:00.000Z""","KFAR 221553Z 17006KT 6SM BR CLR M08/M10 A2976 RMK AO2 SLP094 T10831100 20-01-22",0,0,0,7.5,0,0,46.920649999999995,-96.81576388888888
"KGFK","GRAND FORKS INTL","USA","20-01-22","""2020-01-22T15:53:00.000Z""","KGFK 221553Z 29004KT 10SM FEW250 M11/M14 A2974 RMK AO2 SLP089 T11111144 20-01-22",0,0,0,0,0,0,47.94727777777778,-97.17377777777779
"KMIB","MINOT AFB","USA","20-01-22","""2020-01-22T15:56:00.000Z""","KMIB 221556Z AUTO 33007KT 10SM CLR M07/M08 A2973 RMK AO2 SLP099 T10681082 $ 20-01-22",0,0,0,2.5,0,0,48.41576666666666,-101.35804166666667
"KMOT","MINOT INTL","USA","20-01-22","""2020-01-22T15:54:00.000Z""","KMOT 221554Z 29007KT 10SM CLR M06/M08 A2974 RMK AO2 SLP096 T10611083 20-01-22",0,0,0,2.5,0,0,48.25763888888889,-101.27802777777778
"KANW","AINSWORTH RGNL","USA","20-01-22","""2020-01-22T16:15:00.000Z""","KANW 221615Z AUTO 35004KT 10SM SCT110 01/M01 A2973 RMK AO2 T00141012 20-01-22",0,0,0,2.5,0,0,42.579225,-99.99296666666666
"KBIE","BEATRICE MUNI","USA","20-01-22","""2020-01-22T16:15:00.000Z""","KBIE 221615Z AUTO 18009G16KT 10SM -RA OVC006 02/01 A2988 RMK AO2 T00170012 20-01-22",0,2,0,2.5,0,0,40.30127777777778,-96.75411111111111
"KAIA","ALLIANCE MUNI","USA","20-01-22","""2020-01-22T15:53:00.000Z""","KAIA 221553Z AUTO 30008KT 10SM SCT075 OVC100 01/M02 A2977 RMK AO2 SLP104 T00111017 20-01-22",0,0,0,0,0,0,42.05322222222222,-102.80377777777778
"KFET","FREMONT MUNI","USA","20-01-22","""2020-01-22T16:15:00.000Z""","KFET 221615Z AUTO 15007KT 3SM -SN OVC005 01/01 A2986 RMK AO2 T00130010 20-01-22",0,0,6.7,7.5,0,1,41.44994444444444,-96.52119444444445
"KHDE","BREWSTER FIELD","USA","20-01-22","""2020-01-22T16:15:00.000Z""","KHDE 221615Z AUTO 18008KT 1/2SM FG OVC002 01/01 A2975 RMK AO2 T00100010 20-01-22",0,0,0,2.5,0,1,40.452088888888895,-99.336475
"KOLU","COLUMBUS MUNI","USA","20-01-22","""2020-01-22T15:56:00.000Z""","KOLU 221556Z AUTO 19011KT 5SM -SN BR OVC007 01/00 A2983 RMK AO2 CIG 004V009 SLP116 P0001 T00060000 FZRANO 20-01-22",0,0,6.7,7.5,0,0,41.448722222222216,-97.34094444444445
"KHSI","HASTINGS MUNI","USA","20-01-22","""2020-01-22T15:53:00.000Z""","KHSI 221553Z AUTO 19009KT 10SM -RA OVC005 01/M01 A2979 RMK AO2 RAE06B42UPB06E10 SLP105 P0000 T00061006 20-01-22",0,0,0,2.5,0,0,40.60525,-98.42788888888889
"KGRI","CENTRAL NEBRASKA RGNL","USA","20-01-22","""2020-01-22T15:53:00.000Z""","KGRI 221553Z 19011KT 9SM OVC008 01/M01 A2978 RMK AO2 RAE49 SLP104 P0001 T00111006 20-01-22",0,0,0,2.5,0,0,40.96754166666667,-98.30963888888888
"KCDR","CHADRON MUNI","USA","20-01-22","""2020-01-22T15:53:00.000Z""","KCDR 221553Z AUTO 24008KT 10SM OVC080 02/M01 A2980 RMK AO2 SLP116 T00221011 20-01-22",0,0,0,0,0,0,42.83755555555556,-103.0954
"KBBW","BROKEN BOW MUNI/KEITH GLAZE FLD","USA","20-01-22","""2020-01-22T15:53:00.000Z""","KBBW 221553Z AUTO 22006KT 4SM BR OVC002 01/M01 A2972 RMK AO2 SLP081 T00111006 20-01-22",0,0,0,7.5,0,0,41.43644444444444,-99.64216666666667
"KEAR","KEARNEY RGNL","USA","20-01-22","""2020-01-22T16:28:00.000Z""","KEAR 221628Z AUTO 19010KT 2 1/2SM BR OVC003 01/01 A2976 RMK AO2 FZRANO 20-01-22",0,0,0,7.5,0,1,40.72702777777778,-99.00677777777778
"KOFK","NORFOLK RGNL/KARL STEFAN MEMORIAL FLD","USA","20-01-22","""2020-01-22T16:15:00.000Z""","KOFK 221615Z AUTO 19011KT 10SM UP BKN008 OVC049 01/00 A2979 RMK AO2 RAE06UPB06 P0000 T00110000 20-01-22",0,0,3.3,2.5,0,0,41.98547222222222,-97.43511111111111
"KLXN","JIM KELLY FIELD","USA","20-01-22","""2020-01-22T16:15:00.000Z""","KLXN 221615Z AUTO 23005KT 1SM BR OVC002 01/01 A2975 RMK AO2 T00130013 20-01-22",0,0,0,7.5,0,1,40.791,-99.77727777777778
"KONL","THE O'NEILL MUNI-JOHN L BAKER FIELD","USA","20-01-22","""2020-01-22T16:15:00.000Z""","KONL 221615Z AUTO 21005KT 3SM BR OVC002 02/02 A2975 RMK AO2 T00200015 20-01-22",0,0,0,7.5,0,1,42.46936111111111,-98.68777777777778
"KLNK","LINCOLN","USA","20-01-22","""2020-01-22T15:54:00.000Z""","KLNK 221554Z 18011KT 3SM -SN BR BKN009 OVC013 01/00 A2988 RMK AO2 SLP128 P0003 T00110000 20-01-22",0,0,6.7,7.5,0,1,40.85088888888889,-96.75911111111111
"KLBF","NORTH PLATTE RGNL AIRPORT LEE BIRD FIELD","USA","20-01-22","""2020-01-22T15:53:00.000Z""","KLBF 221553Z AUTO 32005KT 10SM FEW110 M01/M02 A2974 RMK AO2 SLP088 T10061017 20-01-22",0,0,0,2.5,0,0,41.126222222222225,-100.68366666666667
"KIML","IMPERIAL MUNI","USA","20-01-22","""2020-01-22T15:53:00.000Z""","KIML 221553Z AUTO 31010KT 10SM CLR 07/M03 A2976 RMK AO2 SLP090 T00671028 20-01-22",0,0,0,0,0,0,40.510325,-101.62014444444443
"KMCK","MC COOK BEN NELSON RGNL","USA","20-01-22","""2020-01-22T15:53:00.000Z""","KMCK 221553Z AUTO 26007KT 8SM CLR 02/M01 A2976 RMK AO2 SLP094 T00171006 20-01-22",0,0,0,0,0,0,40.20627777777778,-100.59208333333333
"KOGA","SEARLE FIELD","USA","20-01-22","""2020-01-22T16:15:00.000Z""","KOGA 221615Z AUTO 31011KT 10SM BKN100 07/M02 A2977 RMK AO2 T00691020 20-01-22",0,0,0,0,0,0,41.11947222222222,-101.76969444444444
"KOFF","OMAHA/OFFUT AFB,NE.","USA","20-01-22","""2020-01-22T15:56:00.000Z""","KOFF 221556Z 13007KT 2 3/4SM -SN BR OVC003 01/00 A2991 RMK AO2A SLP147 RVRNO $ 20-01-22",0,0,6.7,7.5,0,1,41.11932777777778,-95.90851944444445
"KSNY","SIDNEY MUNI/LLOYD W. CARR FIELD","USA","20-01-22","""2020-01-22T15:53:00.000Z""","KSNY 221553Z AUTO 31017G22KT 10SM CLR 05/M04 A2978 RMK AO2 SLP104 T00501039 20-01-22",0,4,0,0,0,0,41.099805555555555,-102.98496944444445
"KBFF","WESTERN NEBRASKA RGNL/WILLIAM B.HEILIG FIELD","USA","20-01-22","""2020-01-22T15:53:00.000Z""","KBFF 221553Z AUTO 30011KT 10SM BKN075 02/M03 A2982 RMK AO2 SLP115 T00221033 20-01-22",0,0,0,0,0,0,41.874027777777776,-103.59563888888889
"KOMA","EPPLEY AIRFIELD","USA","20-01-22","""2020-01-22T15:52:00.000Z""","KOMA 221552Z 16014KT 2SM -SN OVC005 01/00 A2991 RMK AO2 SLP140 P0002 T00060000 20-01-22",0,0,6.7,7.5,0,1,41.30316666666666,-95.89405555555557
"KVTN","MILLER FIELD","USA","20-01-22","""2020-01-22T15:52:00.000Z""","KVTN 221552Z AUTO 36004KT 10SM OVC075 05/M03 A2973 RMK AO2 SLP081 T00501033 20-01-22",0,0,0,0,0,0,42.85669444444444,-100.54897222222222
"KLCG","WAYNE MUNI/STAN MORRIS FLD","USA","20-01-22","""2020-01-22T16:15:00.000Z""","KLCG 221615Z AUTO 19010KT 10SM -DZ OVC010 01/00 A2981 RMK AO2 T00071001 20-01-22",0,0,0,2.5,0,0,42.24160555555556,-96.98226944444444
"KLCI","LACONIA MUNI","USA","20-01-22","""2020-01-22T15:56:00.000Z""","KLCI 221556Z AUTO 00000KT 10SM CLR M03/M09 A3039 RMK AO2 SLP301 T10331094 FZRANO 20-01-22",0,0,0,0,0,0,43.57304166666667,-71.41784166666667
"KEEN","DILLANT-HOPKINS","USA","20-01-22","""2020-01-22T15:56:00.000Z""","KEEN 221556Z AUTO 00000KT 10SM CLR M03/M07 A3044 RMK AO2 SLP321 T10281072 FZRANO $ 20-01-22",0,0,0,0,0,0,42.8984,-72.27078055555556
"KLEB","LEBANON MUNI","USA","20-01-22","""2020-01-22T15:53:00.000Z""","KLEB 221553Z 00000KT 10SM FEW110 M06/M12 A3039 RMK AO2 SLP310 T10611122 20-01-22",0,0,0,0,0,0,43.626111111111115,-72.30419444444445
"KMHT","MANCHESTER","USA","20-01-22","""2020-01-22T15:53:00.000Z""","KMHT 221553Z 00000KT 10SM FEW250 M04/M12 A3041 RMK AO2 SLP321 T10441122 20-01-22",0,0,0,0,0,0,42.932805555555554,-71.43575
"KBML","BERLIN RGNL","USA","20-01-22","""2020-01-22T15:52:00.000Z""","KBML 221552Z AUTO 00000KT 10SM OVC027 M04/M08 A3032 RMK AO2 SLP292 T10391083 20-01-22",0,0,0,0,0,0,44.575361111111114,-71.17591666666667
"KAFN","JAFFREY AIRPORT-SILVER RANCH","USA","20-01-22","""2020-01-22T15:52:00.000Z""","KAFN 221552Z AUTO 18005KT 10SM CLR M04/M11 A3037 RMK AO2 SLP308 T10391106 20-01-22",0,0,0,0,0,0,42.805138888888884,-72.003025
"KCON","CONCORD MUNI","USA","20-01-22","""2020-01-22T15:51:00.000Z""","KCON 221551Z AUTO 00000KT 10SM CLR M06/M13 A3041 RMK AO2 SLP305 T10611128 20-01-22",0,0,0,0,0,0,43.20272222222223,-71.50227777777778
"KASH","BOIRE FIELD","USA","20-01-22","""2020-01-22T15:56:00.000Z""","KASH 221556Z 09003KT 10SM CLR M02/M10 A3043 RMK AO2 SLP313 T10221100 20-01-22",0,0,0,0,0,0,42.78241388888889,-71.51409444444444
"KBLM","MONMOUTH EXECUTIVE","USA","20-01-22","""2020-01-22T15:56:00.000Z""","KBLM 221556Z AUTO VRB03KT 10SM CLR 01/M09 A3050 RMK AO2 SLP329 T00111094 FZRANO 20-01-22",0,0,0,0,0,0,40.186749999999996,-74.12455555555555
"KPSM","PORTSMOUTH INTL AT PEASE","USA","20-01-22","""2020-01-22T15:56:00.000Z""","KPSM 221556Z 27004KT 10SM CLR M03/M12 A3041 RMK AO2A SLP302 T10291121 20-01-22",0,0,0,0,0,0,43.07794444444445,-70.82327777777778
"KACY","ATLANTIC CITY INTL","USA","20-01-22","""2020-01-22T15:54:00.000Z""","KACY 221554Z 33006KT 10SM CLR 02/M09 A3050 RMK AO2 SLP328 T00221089 20-01-22",0,0,0,0,0,0,39.45758333333334,-74.57716666666666
"KHIE","MOUNT WASHINGTON RGNL","USA","20-01-22","""2020-01-22T15:52:00.000Z""","KHIE 221552Z AUTO 00000KT 10SM FEW024 M04/M09 A3034 RMK AO2 SLP297 T10391094 20-01-22",0,0,0,0,0,0,44.367555555555555,-71.54580555555556
"KMJX","OCEAN COUNTY","USA","20-01-22","""2020-01-22T15:56:00.000Z""","KMJX 221556Z AUTO VRB03KT 10SM CLR 01/M08 A3050 RMK AO2 SLP331 T00061083 FZRANO 20-01-22",0,0,0,0,0,0,39.92603888888889,-74.29553333333334
"KMIV","MILLVILLE MUNI","USA","20-01-22","""2020-01-22T15:54:00.000Z""","KMIV 221554Z AUTO 10SM CLR 02/M09 A3050 RMK AO2 SLP328 T00171094 20-01-22",0,0,0,0,0,0,39.367805555555556,-75.07222222222222
"KCDW","ESSEX COUNTY","USA","20-01-22","""2020-01-22T15:53:00.000Z""","KCDW 221553Z 00000KT 10SM CLR M01/M09 A3049 RMK AO2 SLP333 T10111094 20-01-22",0,0,0,0,0,0,40.87522222222222,-74.28136111111111
"KEWR","NEWARK LIBERTY INTL","USA","20-01-22","""2020-01-22T15:51:00.000Z""","KEWR 221551Z 00000KT 10SM FEW250 00/M09 A3049 RMK AO2 SLP324 T00001094 20-01-22",0,0,0,0,0,0,40.692477777777775,-74.16868611111111
"KTEB","TETERBORO","USA","20-01-22","""2020-01-22T15:51:00.000Z""","KTEB 221551Z 00000KT 10SM CLR 00/M08 A3048 RMK AO2 SLP323 T00001078 20-01-22",0,0,0,0,0,0,40.85011111111111,-74.06083333333333
"KMMU","MORRISTOWN MUNI","USA","20-01-22","""2020-01-22T15:45:00.000Z""","KMMU 221545Z 00000KT 10SM SKC M01/M07 A3050 20-01-22",0,0,0,0,0,0,40.79933333333333,-74.4148888888889
"KALM","ALAMOGORDO-WHITE SANDS RGNL","USA","20-01-22","""2020-01-22T16:15:00.000Z""","KALM 221615Z AUTO 32004KT 10SM SCT050 08/06 A3006 RMK AO2 20-01-22",0,0,0,0,0,0,32.84127777777778,-105.9888611111111
"KCVS","CANNON AFB","USA","20-01-22","""2020-01-22T15:56:00.000Z""","KCVS 221556Z AUTO 27015G20KT 10SM CLR 07/07 A2988 RMK AO2 SLP112 T00660066 $ 20-01-22",0,2,0,0,0,0,34.38236944444444,-103.32236666666667
"KWRI","MC GUIRE FLD (JOINT BASE MC GUIRE DIX LAKEHURST)","USA","20-01-22","""2020-01-22T15:56:00.000Z""","KWRI 221556Z AUTO 23004KT 10SM CLR 01/M09 A3049 RMK AO2 SLP326 T00141095 $ 20-01-22",0,0,0,0,0,0,40.01558333333333,-74.59169999999999
"KWWD","CAPE MAY COUNTY","USA","20-01-22","""2020-01-22T15:56:00.000Z""","KWWD 221556Z AUTO 35007KT 10SM CLR 01/M08 A3051 RMK AO2 SLP333 T00111083 FZRANO 20-01-22",0,0,0,0,0,0,39.0085,-74.90858333333334
"KCNM","CAVERN CITY AIR TRML","USA","20-01-22","""2020-01-22T15:53:00.000Z""","KCNM 221553Z AUTO 26015G23KT 10SM CLR 12/05 A2995 RMK AO2 SLP122 T01220050 20-01-22",0,2,0,0,0,0,32.33744444444444,-104.26336111111111
"KGUP","GALLUP MUNI","USA","20-01-22","""2020-01-22T15:53:00.000Z""","KGUP 221553Z AUTO 27004KT 10SM CLR 01/M02 A3012 RMK AO2 SLP194 T00111017 20-01-22",0,0,0,0,0,0,35.51105833333333,-108.78930833333334
"KTTN","TRENTON MERCER","USA","20-01-22","""2020-01-22T15:53:00.000Z""","KTTN 221553Z VRB03KT 10SM CLR M01/M09 A3049 RMK AO2 SLP320 T10061089 20-01-22",0,0,0,0,0,0,40.276694444444445,-74.81347222222222
"KABQ","ALBUQUERQUE INTL. SUNPORT","USA","20-01-22","""2020-01-22T15:52:00.000Z""","KABQ 221552Z 01013KT 10SM FEW020 BKN041 BKN065 04/00 A3005 RMK AO2 SLP166 MTN TOPS OBSC NE AND SE T00440000 20-01-22",0,0,0,0,0,0,35.03893055555555,-106.6082611111111
"KHMN","HOLLOMAN AFB","USA","20-01-22","""2020-01-22T16:21:00.000Z""","KHMN 221621Z AUTO 34008KT 10SM BR BKN002 04/03 A3005 RMK AO2 VIS 2 3/4 RWY04 VIS 2 3/4 RWY07 VIS 2 1/2 RWY16 VIS 2 1/2 RWY22 BKN V SCT SLP165 $ 20-01-22",0,0,0,0,0,0,32.852111111111114,-106.10911944444445
"KLRU","LAS CRUCES INTL","USA","20-01-22","""2020-01-22T16:15:00.000Z""","KLRU 221615Z AUTO 27015G18KT 10SM CLR 10/06 A3008 RMK AO2 T00950060 20-01-22",0,2,0,0,0,0,32.28941666666667,-106.92197222222222
"KGNT","GRANTS-MILAN MUNI","USA","20-01-22","""2020-01-22T16:15:00.000Z""","KGNT 221615Z AUTO 32013G23KT 10SM CLR 04/M02 A3010 RMK AO2 T00391022 20-01-22",0,2,0,0,0,0,35.16727777777778,-107.90205555555556
"KCVN","CLOVIS MUNI","USA","20-01-22","""2020-01-22T15:56:00.000Z""","KCVN 221556Z AUTO 27017KT 10SM CLR 07/04 A2986 RMK AO2 SLP114 T00670039 20-01-22",0,2,0,0,0,0,34.42658888888889,-103.07757777777778
"KCAO","CLAYTON MUNI ARPK","USA","20-01-22","""2020-01-22T15:55:00.000Z""","KCAO 221555Z AUTO 35013KT 10SM OVC100 07/M01 A2984 RMK AO2 SLP099 T00721011 20-01-22",0,0,0,0,0,0,36.44627777777777,-103.14994444444446
"KFMN","FOUR CORNERS RGNL","USA","20-01-22","""2020-01-22T15:53:00.000Z""","KFMN 221553Z 28018KT 7SM OVC004 01/M01 A3006 RMK AO2 SLP191 T00061006 20-01-22",0,2,0,2.5,0,0,36.74125,-108.22994444444444
"KDMN","DEMING MUNI","USA","20-01-22","""2020-01-22T15:53:00.000Z""","KDMN 221553Z AUTO 23007KT 10SM CLR 09/04 A3009 RMK AO2 SLP164 T00890044 20-01-22",0,0,0,0,0,0,32.262388888888886,-107.71900000000001
"KHOB","LEA COUNTY RGNL","USA","20-01-22","""2020-01-22T15:50:00.000Z""","KHOB 221550Z 24010KT 10SM SKC 09/06 A2995 20-01-22",0,0,0,0,0,0,32.6875,-103.21733333333333
"KLAM","LOS ALAMOS","USA","20-01-22","""2020-01-22T16:15:00.000Z""","KLAM 221615Z AUTO 15003KT 10SM CLR 00/00 A3001 RMK AO2 T00040003 20-01-22",0,0,0,2.5,0,0,35.87968611111111,-106.26868611111111
"KSRR","RUIDOSO/SIERRA BLANCA REGNAL NM.","USA","20-01-22","""2020-01-22T16:15:00.000Z""","KSRR 221615Z AUTO 32023G29KT 290V350 10SM 04/M02 A3003 RMK AO2 20-01-22",0,6,0,0,0,0,33.46094444444445,-105.53013888888889
"KLVS","LAS VEGAS MUNI","USA","20-01-22","""2020-01-22T15:53:00.000Z""","KLVS 221553Z AUTO 34016KT 10SM CLR 02/M03 A2991 RMK AO2 SLP110 T00221033 20-01-22",0,2,0,0,0,0,35.654222222222224,-105.1423888888889
"KRTN","RATON MUNI/CREWS FIELD","USA","20-01-22","""2020-01-22T15:53:00.000Z""","KRTN 221553Z AUTO 05004KT 10SM CLR 00/M02 A2988 RMK AO2 SLP116 T00001017 20-01-22",0,0,0,2.5,0,0,36.74243055555556,-104.50173055555555
"KSAF","SANTA FE MUNI","USA","20-01-22","""2020-01-22T15:53:00.000Z""","KSAF 221553Z 33007KT 10SM CLR 02/M01 A2999 RMK AO2 SLP143 T00171011 20-01-22",0,0,0,0,0,0,35.617111111111114,-106.08941666666666
"KROW","ROSWELL INTL AIR CENTER","USA","20-01-22","""2020-01-22T15:51:00.000Z""","KROW 221551Z VRB03KT 10SM CLR 06/03 A2993 RMK AO2 SLP125 T00560033 20-01-22",0,0,0,0,0,0,33.30155555555555,-104.53055555555555
"KONM","SOCORRO MUNI","USA","20-01-22","""2020-01-22T16:15:00.000Z""","KONM 221615Z AUTO 31014G22KT 10SM SCT046 SCT050 08/M01 A3005 RMK AO2 T00781006 20-01-22",0,2,0,0,0,0,34.02247222222222,-106.90313888888889
"KEKO","ELKO RGNL","USA","20-01-22","""2020-01-22T15:56:00.000Z""","KEKO 221556Z AUTO 20003KT 10SM OVC060 02/M01 A3013 RMK AO2 SLP211 T00171011 20-01-22",0,0,0,0,0,0,40.824961111111115,-115.79144444444444
"KSVC","GRANT COUNTY","USA","20-01-22","""2020-01-22T15:55:00.000Z""","KSVC 221555Z AUTO 30015KT 10SM SCT031 SCT120 06/03 A3009 RMK AO2 T00630031 20-01-22",0,0,0,0,0,0,32.63654722222222,-108.15638611111112
"KELY","ELY ARPT /YELLAND FLD/","USA","20-01-22","""2020-01-22T15:53:00.000Z""","KELY 221553Z AUTO 00000KT 10SM BKN049 M02/M03 A3016 RMK AO2 SLP220 T10171033 20-01-22",0,0,0,2.5,0,0,39.29969444444444,-114.84188888888889
"KTCC","TUCUMCARI MUNI","USA","20-01-22","""2020-01-22T15:53:00.000Z""","KTCC 221553Z AUTO 29009KT 10SM SCT090 06/03 A2984 RMK AO2 SLP101 T00610033 20-01-22",0,0,0,0,0,0,35.18277777777777,-103.6031861111111
"KTCS","TRUTH OR CONSEQUENCES MUNI","USA","20-01-22","""2020-01-22T15:53:00.000Z""","KTCS 221553Z AUTO 32008G17KT 10SM CLR 09/02 A3005 RMK AO2 SLP149 T00940022 20-01-22",0,2,0,0,0,0,33.23536111111111,-107.26988888888889
"KTPH","TONOPAH","USA","20-01-22","""2020-01-22T15:56:00.000Z""","KTPH 221556Z AUTO 02006KT 10SM OVC080 M01/M03 A3019 RMK AO2 SLP230 T10061028 20-01-22",0,0,0,2.5,0,0,38.06019444444444,-117.08680555555556
"KWMC","WINNEMUCCA MUNI","USA","20-01-22","""2020-01-22T15:56:00.000Z""","KWMC 221556Z AUTO 18003KT 10SM SCT037 BKN095 03/M02 A3015 RMK AO2 SLP209 T00331017 20-01-22",0,0,0,0,0,0,40.89661111111111,-117.80588888888889
"KNFL","FALLON NAS (VAN VOORHIS FLD)","USA","20-01-22","""2020-01-22T15:56:00.000Z""","KNFL 221556Z 00000KT 10SM FEW050 BKN075 OVC120 04/00 A3018 RMK AO2 SLP182 T00440000 $ 20-01-22",0,0,0,0,0,0,39.417830555555554,-118.69858888888889
"KLSV","NELLIS AFB","USA","20-01-22","""2020-01-22T15:56:00.000Z""","KLSV 221556Z 00000KT 10SM CLR 05/03 A3017 RMK AO2A SLP218 $ 20-01-22",0,0,0,0,0,0,36.236200000000004,-115.03425277777778
"KLAS","MC CARRAN INTL","USA","20-01-22","""2020-01-22T15:56:00.000Z""","KLAS 221556Z 27003KT 10SM FEW120 SCT250 08/02 A3018 RMK AO2 SLP219 T00830022 20-01-22",0,0,0,0,0,0,36.08005555555556,-115.15225000000001
"KRNO","RENO/TAHOE INTL","USA","20-01-22","""2020-01-22T15:55:00.000Z""","KRNO 221555Z 06003KT 10SM SCT055 BKN100 OVC200 07/M01 A3017 RMK AO2 SLP205 MTN TOPS OBSCD DSNT SW T00721011 20-01-22",0,0,0,0,0,0,39.49911111111111,-119.76811111111111
"KLOL","DERBY FIELD","USA","20-01-22","""2020-01-22T15:53:00.000Z""","KLOL 221553Z AUTO 00000KT 10SM OVC070 04/M01 A3017 RMK AO2 SLP221 T00391011 20-01-22",0,0,0,0,0,0,40.06646666666666,-118.56508611111111
"KVGT","NORTH LAS VEGAS","USA","20-01-22","""2020-01-22T15:53:00.000Z""","KVGT 221553Z 31005KT 10SM CLR 07/01 A3017 RMK AO2 SLP235 T00720006 20-01-22",0,0,0,0,0,0,36.21069444444445,-115.19444444444444
"KHTO","EAST HAMPTON","USA","20-01-22","""2020-01-22T16:15:00.000Z""","KHTO 221615Z AUTO 29006KT 10SM CLR 00/M08 A3045 RMK AO2 T00001085 20-01-22",0,0,0,0,0,0,40.95941666666667,-72.25166666666667
"KGTB","FORT DRUM/WHEELER-SACK AAF,  NY.","USA","20-01-22","""2020-01-22T15:56:00.000Z""","KGTB 221556Z AUTO 21009KT 10SM OVC017 M02/M06 A3035 RMK AO2 SLP288 T10221060 20-01-22",0,0,0,0,0,0,44.055613888888885,-75.71983333333334
"KBUF","BUFFALO NIAGARA INTL","USA","20-01-22","""2020-01-22T15:54:00.000Z""","KBUF 221554Z 21015KT 10SM FEW017 FEW200 BKN250 M03/M09 A3039 RMK AO2 SLP301 T10331094 20-01-22",0,0,0,0,0,0,42.940416666666664,-78.73058333333333
"KDSV","DANSVILLE MUNI","USA","20-01-22","""2020-01-22T15:54:00.000Z""","KDSV 221554Z AUTO 13006KT 10SM CLR M03/M10 A3039 RMK AO2 SLP311 T10281100 20-01-22",0,0,0,0,0,0,42.570688888888895,-77.71297222222222
"KFRG","REPUBLIC","USA","20-01-22","""2020-01-22T15:53:00.000Z""","KFRG 221553Z 00000KT 10SM CLR 01/M09 A3048 RMK AO2 SLP323 T00061094 20-01-22",0,0,0,0,0,0,40.72877777777778,-73.41341666666668
"KELM","ELMIRA/CORNING RGNL","USA","20-01-22","""2020-01-22T15:53:00.000Z""","KELM 221553Z 00000KT 10SM CLR M05/M10 A3041 RMK AO2 SLP313 T10501100 20-01-22",0,0,0,0,0,0,42.15985555555555,-76.89174444444446
"KDKK","CHAUTAUQUA COUNTY/DUNKIRK","USA","20-01-22","""2020-01-22T15:53:00.000Z""","KDKK 221553Z AUTO 20009KT 10SM CLR M04/M11 A3041 RMK AO2 SLP309 T10391111 20-01-22",0,0,0,0,0,0,42.49393333333333,-79.27109722222222
"KBGM","GREATER BINGHAMTON/EDWIN A LINK FIELD","USA","20-01-22","""2020-01-22T15:53:00.000Z""","KBGM 221553Z 22005KT 10SM CLR M06/M11 A3036 RMK AO2 SLP308 T10611106 20-01-22",0,0,0,0,0,0,42.20844166666667,-75.97960555555555
"KALB","ALBANY INTL","USA","20-01-22","""2020-01-22T15:51:00.000Z""","KALB 221551Z 18008KT 10SM OVC022 M04/M09 A3046 RMK AO2 SLP320 T10391094 20-01-22",0,0,0,0,0,0,42.74911111111111,-73.80197222222222
"KGFL","FLOYD BENNETT MEMORIAL","USA","20-01-22","""2020-01-22T16:12:00.000Z""","KGFL 221612Z AUTO 18007KT 10SM SCT026 M04/M09 A3042 RMK AO2 T10391089 $ 20-01-22",0,0,0,0,0,0,43.34122222222222,-73.61030555555556
"KISP","LONG ISLAND MAC ARTHUR","USA","20-01-22","""2020-01-22T15:56:00.000Z""","KISP 221556Z VRB03KT 10SM FEW250 01/M09 A3047 RMK AO2 SLP320 T00061089 20-01-22",0,0,0,0,0,0,40.795249999999996,-73.10022222222221
"KJHW","CHAUTAUQUA COUNTY/JAMESTOWN","USA","20-01-22","""2020-01-22T15:56:00.000Z""","KJHW 221556Z AUTO 19012KT 10SM CLR M06/M11 A3035 RMK AO2 SLP311 T10611106 FZRANO 20-01-22",0,0,0,0,0,0,42.15338888888889,-79.25802777777778
"KMSV","SULLIVAN COUNTY INTL","USA","20-01-22","""2020-01-22T15:56:00.000Z""","KMSV 221556Z AUTO 00000KT 10SM CLR 00/M06 A3040 RMK AO2 SLP317 T00001056 FZRANO 20-01-22",0,0,0,0,0,0,41.70165,-74.79501388888889
"KMTP","MONTAUK","USA","20-01-22","""2020-01-22T15:54:00.000Z""","KMTP 221554Z AUTO 30004KT M01/M07 A3047 RMK AO1 SLP318 T10061072 20-01-22",0,0,0,0,0,0,41.07666666666667,-71.92047222222223
"KMGJ","ORANGE COUNTY","USA","20-01-22","""2020-01-22T15:54:00.000Z""","KMGJ 221554Z AUTO 00000KT 10SM CLR M04/M09 A3046 RMK AO2 SLP319 T10391094 20-01-22",0,0,0,0,0,0,41.50998611111111,-74.26464444444444
"KMSS","MASSENA INTL-RICHARDS FIELD","USA","20-01-22","""2020-01-22T15:53:00.000Z""","KMSS 221553Z AUTO 22022G27KT 10SM FEW019 00/M04 A3032 RMK AO2 PK WND 22027/1542 SLP273 T00001044 20-01-22",0,6,0,0,0,0,44.936249999999994,-74.84511111111111
"KSWF","STEWART INTL","USA","20-01-22","""2020-01-22T15:45:00.000Z""","KSWF 221545Z 00000KT 10SM SKC M03/M08 A3046 20-01-22",0,0,0,0,0,0,41.50411111111111,-74.10483333333333
"KOLE","CATTARAUGUS COUNTY-OLEAN","USA","20-01-22","""2020-01-22T16:15:00.000Z""","KOLE 221615Z AUTO 21005KT 10SM CLR M07/M12 A3032 RMK AO2 20-01-22",0,0,0,0,0,0,42.24122222222222,-78.3713611111111
"KROC","GREATER ROCHESTER  INTL","USA","20-01-22","""2020-01-22T15:54:00.000Z""","KROC 221554Z 21007KT 10SM FEW180 BKN230 M05/M12 A3040 RMK AO2 SLP305 T10501117 20-01-22",0,0,0,0,0,0,43.119141666666664,-77.67186666666667
"KRME","GRIFFISS INTL","USA","20-01-22","""2020-01-22T15:53:00.000Z""","KRME 221553Z 21004KT 10SM OVC018 M03/M06 A3044 RMK AO2 SLP315 T10281061 20-01-22",0,0,0,0,0,0,43.233805555555556,-75.40702777777778
"KPOU","DUTCHESS COUNTY","USA","20-01-22","""2020-01-22T15:53:00.000Z""","KPOU 221553Z 00000KT 10SM CLR M03/M11 A3048 RMK AO2 SLP322 T10331111 20-01-22",0,0,0,0,0,0,41.626583333333336,-73.88419444444445
"KPBG","PLATTSBURG INTL","USA","20-01-22","""2020-01-22T15:53:00.000Z""","KPBG 221553Z AUTO 16008KT 10SM CLR M03/M07 A3033 RMK AO2 SLP274 T10281072 20-01-22",0,0,0,0,0,0,44.65094444444444,-73.46813888888889
"KIAG","NIAGARA FALLS INTL","USA","20-01-22","""2020-01-22T15:53:00.000Z""","KIAG 221553Z 22020G24KT 9SM SCT017 M03/M06 A3037 RMK AO2 SLP304 T10281061 20-01-22",0,4,0,0,0,0,43.10755555555556,-78.94584444444445
"KLGA","LA GUARDIA","USA","20-01-22","""2020-01-22T15:51:00.000Z""","KLGA 221551Z 00000KT 10SM FEW250 01/M09 A3049 RMK AO2 SLP323 T00061094 20-01-22",0,0,0,0,0,0,40.77725,-73.8726111111111
"KJFK","JOHN F KENNEDY INTL","USA","20-01-22","""2020-01-22T15:51:00.000Z""","KJFK 221551Z 26003KT 10SM FEW250 00/M08 A3050 RMK AO2 SLP329 T00001078 $ 20-01-22",0,0,0,0,0,0,40.639925,-73.77869444444444
"KHPN","WESTCHESTER COUNTY","USA","20-01-22","""2020-01-22T15:56:00.000Z""","KHPN 221556Z 00000KT 10SM CLR M01/M11 A3045 RMK SLP324 20-01-22",0,0,0,0,0,0,41.066950000000006,-73.70756388888888
"KART","WATERTOWN INTL","USA","20-01-22","""2020-01-22T15:56:00.000Z""","KART 221556Z AUTO 21012G19KT 7SM OVC020 M02/M06 A3038 RMK AO2 SLP294 T10221061 20-01-22",0,2,0,0,0,0,43.99188888888889,-76.02066666666667
"KELZ","WELLSVILLE MUNI ARPT,TARANTINE FLD","USA","20-01-22","""2020-01-22T15:56:00.000Z""","KELZ 221556Z AUTO 10SM CLR M06/M11 A3034 RMK AO2 SLP311 T10561111 20-01-22",0,0,0,0,0,0,42.10952777777778,-77.98997222222222
"KAKR","AKRON, OH.","USA","20-01-22","""2020-01-22T15:54:00.000Z""","KAKR 221554Z AUTO 21010KT 10SM CLR M03/M09 A3039 RMK AO2 SLP306 T10281094 $ 20-01-22",0,0,0,0,0,0,41.0375,-81.46691666666666
"KSYR","SYRACUSE HANCOCK INTL","USA","20-01-22","""2020-01-22T15:54:00.000Z""","KSYR 221554Z 12005KT 10SM BKN200 M03/M09 A3043 RMK AO2 SLP306 T10281094 20-01-22",0,0,0,0,0,0,43.11119444444444,-76.10630555555555
"KFOK","FRANCIS S GABRESKI","USA","20-01-22","""2020-01-22T15:53:00.000Z""","KFOK 221553Z 33008KT 10SM CLR 01/M08 A3048 RMK AO2 SLP321 T00061078 20-01-22",0,0,0,0,0,0,40.84365555555556,-72.63178888888888
"KCAK","AKRON-CANTON REGIONAL","USA","20-01-22","""2020-01-22T15:51:00.000Z""","KCAK 221551Z 20009KT 8SM SCT250 M04/M09 A3039 RMK AO2 SLP310 T10391089 20-01-22",0,0,0,0,0,0,40.915055555555554,-81.4436388888889
"KSLK","ADIRONDACK RGNL","USA","20-01-22","""2020-01-22T15:51:00.000Z""","KSLK 221551Z AUTO 22009KT 10SM CLR M03/M07 A3026 RMK AO2 SLP272 T10331072 20-01-22",0,0,0,0,0,0,44.385305555555554,-74.20618055555556
"KSCH","SCHENECTADY COUNTY","USA","20-01-22","""2020-01-22T15:47:00.000Z""","KSCH 221547Z 21004KT 10SM OVC022 M03/M07 A3045 20-01-22",0,0,0,0,0,0,42.852555555555554,-73.92897222222223
"KOSU","OHIO STATE UNIVERSITY","USA","20-01-22","""2020-01-22T15:53:00.000Z""","KOSU 221553Z 18010KT 10SM CLR M02/M09 A3041 RMK AO2 SLP311 T10221094 20-01-22",0,0,0,0,0,0,40.07983055555556,-83.07315
"KLUK","CINCINNATI MUNI AIRPORT LUNKEN FIELD","USA","20-01-22","""2020-01-22T15:53:00.000Z""","KLUK 221553Z 21003KT 10SM CLR M02/M07 A3045 RMK AO2 SLP316 T10171072 20-01-22",0,0,0,0,0,0,39.103344444444446,-84.4186138888889
"KBKL","BURKE LAKEFRONT","USA","20-01-22","""2020-01-22T15:53:00.000Z""","KBKL 221553Z 17009KT 8SM CLR M03/M09 A3040 RMK AO2 SLP303 T10281094 20-01-22",0,0,0,0,0,0,41.51786111111111,-81.68263888888889
"KCMH","PORT COLUMBUS INTL","USA","20-01-22","""2020-01-22T15:51:00.000Z""","KCMH 221551Z 19007KT 10SM SCT250 M02/M09 A3042 RMK AO2 SLP311 T10171089 20-01-22",0,0,0,0,0,0,39.996944444444445,-82.89216666666667
"KCLE","CLEVELAND-HOPKINS INTL","USA","20-01-22","""2020-01-22T15:51:00.000Z""","KCLE 221551Z 20010KT 10SM BKN250 M03/M09 A3042 RMK AO2 SLP312 T10331094 20-01-22",0,0,0,0,0,0,41.409416666666665,-81.85469444444443
"KCGF","CUYAHOGA COUNTY","USA","20-01-22","""2020-01-22T15:45:00.000Z""","KCGF 221545Z 20007KT 10SM SCT150 M02/M09 A3039 20-01-22",0,0,0,0,0,0,41.56511111111111,-81.48636111111111
"KDAY","JAMES M. COX DAYTON INTL","USA","20-01-22","""2020-01-22T15:56:00.000Z""","KDAY 221556Z 19009KT 10SM BKN250 M02/M09 A3041 RMK AO2 SLP311 T10171089 20-01-22",0,0,0,0,0,0,39.902249999999995,-84.21941666666667
"KAOH","LIMA ALLEN COUNTY","USA","20-01-22","""2020-01-22T15:53:00.000Z""","KAOH 221553Z AUTO 20012KT 10SM CLR M02/M08 A3037 RMK AO2 SLP300 T10221083 20-01-22",0,0,0,0,0,0,40.70747777777778,-84.02707777777778
"KMGY","DAYTON-WRIGHT BROTHERS","USA","20-01-22","""2020-01-22T15:53:00.000Z""","KMGY 221553Z AUTO 19009KT 10SM CLR M01/M08 A3040 RMK AO2 SLP306 T10111083 20-01-22",0,0,0,0,0,0,39.588972222222225,-84.22486111111111
"KHAO","BUTLER CO RGNL-HOGAN FIELD","USA","20-01-22","""2020-01-22T15:53:00.000Z""","KHAO 221553Z AUTO VRB03KT 10SM CLR M01/M09 A3044 RMK AO2 SLP317 T10061089 20-01-22",0,0,0,0,0,0,39.36375,-84.52194444444444
"KFDY","FINDLAY","USA","20-01-22","""2020-01-22T15:53:00.000Z""","KFDY 221553Z AUTO 20011KT 10SM CLR M02/M07 A3038 RMK AO2 SLP296 T10171072 20-01-22",0,0,0,0,0,0,41.012027777777774,-83.66861111111112
"KDFI","DEFIANCE MEMORIAL","USA","20-01-22","""2020-01-22T15:53:00.000Z""","KDFI 221553Z AUTO 20011KT 10SM CLR M02/M07 A3037 RMK AO2 SLP295 T10221072 20-01-22",0,0,0,0,0,0,41.337500000000006,-84.42880555555556
"KMWO","MIDDLETOWN REGIONAL/HOOK FIELD","USA","20-01-22","""2020-01-22T16:15:00.000Z""","KMWO 221615Z AUTO 23010KT 10SM CLR M01/M08 A3044 RMK AO2 T10051076 20-01-22",0,0,0,0,0,0,39.53180555555556,-84.39644444444446
"KLCK","RICKENBACKER INTL","USA","20-01-22","""2020-01-22T15:55:00.000Z""","KLCK 221555Z AUTO 20007KT 10SM CLR M02/M08 A3043 RMK AO2 T10201076 20-01-22",0,0,0,0,0,0,39.81377777777777,-82.92780555555557
"KMNN","MARION MUNI, OH","USA","20-01-22","""2020-01-22T15:53:00.000Z""","KMNN 221553Z AUTO 20014KT 9SM CLR M03/M08 A3040 RMK AO2 SLP312 T10281078 20-01-22",0,0,0,0,0,0,40.61625,-83.06347222222222
"KPHD","HARRY CLEVER FIELD","USA","20-01-22","""2020-01-22T15:53:00.000Z""","KPHD 221553Z AUTO 13004KT 10SM CLR M03/M08 A3042 RMK AO2 SLP317 T10331078 20-01-22",0,0,0,0,0,0,40.47016666666667,-81.41994444444445
"KMFD","MANSFIELD LAHM RGNL","USA","20-01-22","""2020-01-22T15:52:00.000Z""","KMFD 221552Z 17012KT 10SM CLR M03/M08 A3036 RMK AO2 SLP303 T10281083 20-01-22",0,0,0,0,0,0,40.82141666666667,-82.51663888888889
"KAXV","NEIL ARMSTRONG","USA","20-01-22","""2020-01-22T16:15:00.000Z""","KAXV 221615Z AUTO 21013G17KT 7SM CLR M01/M07 A3039 RMK AO2 20-01-22",0,2,0,0,0,0,40.49338888888889,-84.29894444444444
"KBJJ","WAYNE COUNTY","USA","20-01-22","""2020-01-22T15:56:00.000Z""","KBJJ 221556Z AUTO 20010KT 10SM CLR M04/M08 A3038 RMK AO2 SLP309 T10391083 20-01-22",0,0,0,0,0,0,40.874833333333335,-81.88825000000001
"KFFO","WRIGHT-PATTERSON AFB","USA","20-01-22","""2020-01-22T15:56:00.000Z""","KFFO 221556Z AUTO 19008KT 10SM CLR M02/M10 A3041 RMK AO2 SLP314 T10191100 $ 20-01-22",0,0,0,0,0,0,39.82611111111112,-84.04833333333333
"KSGH","SPRINGFIELD-BECKLEY MUNI","USA","20-01-22","""2020-01-22T15:56:00.000Z""","KSGH 221556Z AUTO 19007KT 10SM CLR M02/M07 A3039 RMK AO2 SLP310 T10171067 20-01-22",0,0,0,0,0,0,39.84027777777778,-83.84016666666666
"KILN","WILMINGTON AIR PARK","USA","20-01-22","""2020-01-22T15:54:00.000Z""","KILN 221554Z AUTO 19007KT 10SM CLR M01/M07 A3039 RMK AO2 SLP325 T10111072 20-01-22",0,0,0,0,0,0,39.42791666666666,-83.79211111111111
"KTDZ","TOLEDO  EXECUTIVE","USA","20-01-22","""2020-01-22T15:53:00.000Z""","KTDZ 221553Z AUTO 21014KT 10SM CLR M03/M08 A3038 RMK AO2 SLP298 T10281083 20-01-22",0,0,0,0,0,0,41.56494444444444,-83.48222222222222
"KTOL","TOLEDO EXPRESS","USA","20-01-22","""2020-01-22T15:52:00.000Z""","KTOL 221552Z 21011KT 10SM CLR M02/M09 A3036 RMK AO2 SLP293 T10221089 20-01-22",0,0,0,0,0,0,41.58680555555556,-83.80783333333333
"KYNG","YOUNGSTOWN/MUNI, OH.","USA","20-01-22","""2020-01-22T15:51:00.000Z""","KYNG 221551Z 18007KT 10SM BKN250 M04/M10 A3039 RMK AO2 SLP312 T10391100 20-01-22",0,0,0,0,0,0,41.261583333333334,-80.68036111111111
"KLTS","ALTUS AFB","USA","20-01-22","""2020-01-22T16:25:00.000Z""","KLTS 221625Z 16012KT 7SM BR OVC002 07/07 A2990 RMK SLP129 $ 20-01-22",0,0,0,0,0,0,34.66646111111111,-99.26809444444444
"KBVO","BARTLESVILLE MUNI","USA","20-01-22","""2020-01-22T16:20:00.000Z""","KBVO 221620Z AUTO 16015G23KT 3SM BR OVC006 01/00 A3006 RMK AO2 UPE1558 P0000 T00060000 20-01-22",0,2,0,7.5,0,1,36.76336111111111,-96.01119444444444
"KAXS","ALTUS/QUARTZ MOUNTAIN RGNL","USA","20-01-22","""2020-01-22T16:15:00.000Z""","KAXS 221615Z AUTO 16011KT 5SM BR OVC002 08/07 A2992 RMK AO2 T00770070 20-01-22",0,0,0,0,0,0,34.69880555555555,-99.33847222222222
"KZZV","ZANESVILLE MUNI","USA","20-01-22","""2020-01-22T15:53:00.000Z""","KZZV 221553Z AUTO 20008KT 10SM CLR M02/M08 A3042 RMK AO2 SLP313 T10221078 20-01-22",0,0,0,0,0,0,39.94444444444444,-81.89208333333335
"KDUA","DURANT RGNL - EAKER FIELD","USA","20-01-22","""2020-01-22T16:18:00.000Z""","KDUA 221618Z AUTO 14014KT 2 1/2SM DZ OVC005 03/02 A3013 RMK AO2 20-01-22",0,0,3.3,2.5,0,1,33.94226666666666,-96.39453055555556
"KCUH","CUSHING MUNI","USA","20-01-22","""2020-01-22T16:15:00.000Z""","KCUH 221615Z AUTO 17012G18KT 10SM OVC006 02/01 A3002 RMK AO2 T00170011 20-01-22",0,2,0,2.5,0,0,35.950027777777784,-96.77341666666666
"KEND","VANCE AFB","USA","20-01-22","""2020-01-22T15:56:00.000Z""","KEND 221556Z AUTO 16022G29KT 10SM OVC007 04/04 A2992 RMK AO2 PK WND 17029/11 CIG 006 RWY35C SLP140 T00360036 $ 20-01-22",0,6,0,0,0,0,36.33980555555556,-97.91723888888889
"KCSM","CLINTON-SHERMAN","USA","20-01-22","""2020-01-22T15:53:00.000Z""","KCSM 221553Z 17019KT 1/4SM -RA FG VV002 04/04 A2989 RMK AO2 SLP125 P0000 T00440044 20-01-22",0,2,0,0,0,0,35.33983888888889,-99.2005
"KWDG","ENID WOODRING RGNL","USA","20-01-22","""2020-01-22T15:45:00.000Z""","KWDG 221545Z 16017G21KT 3SM BR OVC005 04/03 A2994 20-01-22",0,4,0,0,0,1,36.37594444444444,-97.78941666666667
"KGOK","GUTHRIE-EDMOND RGNL","USA","20-01-22","""2020-01-22T16:30:00.000Z""","KGOK 221630Z AUTO 17015KT 4SM BR BKN010 OVC015 03/03 A2998 RMK AO2 CIG 008V012 T00330028 20-01-22",0,0,0,7.5,0,0,35.85152222222222,-97.41617500000001
"KHBR","HOBART RGNL","USA","20-01-22","""2020-01-22T16:08:00.000Z""","KHBR 221608Z AUTO 17017KT 2SM -RA BR OVC002 06/05 A2991 RMK AO2 P0000 T00610050 20-01-22",0,2,0,0,0,1,34.99173611111111,-99.05180833333333
"KFSI","HENRY POST AAF (FORT SILL)","USA","20-01-22","""2020-01-22T16:03:00.000Z""","KFSI 221603Z AUTO 17013G23KT 4SM -RA BR OVC004 05/05 A2994 RMK AO2 RAB03 SLP142 PNO $ 20-01-22",0,2,0,0,0,0,34.64983333333333,-98.40216666666667
"KLAW","LAWTON-FORT SILL RGNL","USA","20-01-22","""2020-01-22T16:03:00.000Z""","KLAW 221603Z 15014G22KT 2 1/2SM -RA BR OVC004 06/05 A2996 RMK AO2 P0001 T00560050 20-01-22",0,2,0,0,0,1,34.56771388888889,-98.41663611111112
"KFDR","FREDERICK RGNL","USA","20-01-22","""2020-01-22T15:53:00.000Z""","KFDR 221553Z AUTO 16019KT 7SM OVC003 07/07 A2989 RMK AO2 SLP122 T00670067 20-01-22",0,2,0,0,0,0,34.35209444444445,-98.98390833333333
"KGAG","GAGE","USA","20-01-22","""2020-01-22T15:53:00.000Z""","KGAG 221553Z AUTO 18015G19KT 3/4SM BR OVC002 05/04 A2985 RMK AO2 SLP112 T00500039 20-01-22",0,2,0,0,0,1,36.295538888888885,-99.776425
"KGUY","GUYMON MUNI","USA","20-01-22","""2020-01-22T15:53:00.000Z""","KGUY 221553Z AUTO 34012KT 10SM SCT100 03/00 A2981 RMK AO2 SLP094 T00330000 20-01-22",0,0,0,0,0,0,36.68506111111111,-101.50779722222222
"KPWA","WILEY POST","USA","20-01-22","""2020-01-22T16:27:00.000Z""","KPWA 221627Z 17018G25KT 2 1/2SM -RA BR OVC006 04/03 A2997 RMK AO2 P0000 T00390028 $ 20-01-22",0,4,0,0,0,1,35.534166666666664,-97.64705555555557
"KRKR","ROBERT S KERR","USA","20-01-22","""2020-01-22T16:15:00.000Z""","KRKR 221615Z AUTO 00000KT 7SM DZ BKN050 OVC060 01/00 A3017 RMK AO2 20-01-22",0,0,3.3,2.5,0,0,35.02162777777777,-94.62125277777777
"KOKM","OKMULGEE RGNL","USA","20-01-22","""2020-01-22T16:15:00.000Z""","KOKM 221615Z AUTO 17012G18KT 4SM -RA OVC005 01/01 A3008 RMK AO2 T00120012 20-01-22",0,2,0,2.5,0,0,35.66811111111111,-95.94852777777778
"KPNC","PONCA CITY RGNL","USA","20-01-22","""2020-01-22T15:53:00.000Z""","KPNC 221553Z AUTO 17015G26KT 10SM OVC006 07/01 A2997 RMK AO2 PK WND 16031/1514 SLP146 T00670011 20-01-22",0,2,0,0,0,0,36.73191666666667,-97.09977777777777
"KMLC","MC ALESTER RGNL","USA","20-01-22","""2020-01-22T15:53:00.000Z""","KMLC 221553Z AUTO 16012G22KT 10SM OVC011 02/00 A3011 RMK AO2 RAE32 SLP200 P0000 T00170000 20-01-22",0,2,0,2.5,0,0,34.88238888888889,-95.78347222222222
"KMKO","DAVIS FIELD","USA","20-01-22","""2020-01-22T15:53:00.000Z""","KMKO 221553Z AUTO 14013KT 4SM BR OVC006 00/M01 A3011 RMK AO2 SLP201 I1000 T00001011 20-01-22",0,0,0,7.5,0,0,35.65775,-95.36163888888888
"KOKC","WILL ROGER WORLD","USA","20-01-22","""2020-01-22T15:52:00.000Z""","KOKC 221552Z 16017G29KT 2SM -DZ BR OVC006 03/03 A2997 RMK AO2 PK WND 17029/1548 TWR VIS 2 1/2 SLP156 P0000 T00280028 $ 20-01-22",0,4,0,7.5,0,1,35.39307222222222,-97.60076111111111
"KOUN","UNIVERSITY OF OKLAHOMA WESTHEIMER","USA","20-01-22","""2020-01-22T15:45:00.000Z""","KOUN 221545Z 14012KT 5SM BR OVC004 03/02 A2998 20-01-22",0,0,0,7.5,0,0,35.245555555555555,-97.47213888888889
"KSWO","STILLWATER RGNL","USA","20-01-22","""2020-01-22T16:26:00.000Z""","KSWO 221626Z 16017KT 3SM UP BR OVC006 03/01 A3000 RMK AO2 CIG 005V009 P0000 T00280011 20-01-22",0,2,3.3,7.5,0,1,36.16138888888889,-97.08588888888889
"KSNL","SHAWNEE RGNL","USA","20-01-22","""2020-01-22T16:15:00.000Z""","KSNL 221615Z AUTO 17017G24KT 3SM -RA OVC006 02/02 A3002 RMK AO2 P0001 T00170016 20-01-22",0,4,0,2.5,0,1,35.357305555555556,-96.94283333333334
"KTIK","TINKER AFB","USA","20-01-22","""2020-01-22T15:56:00.000Z""","KTIK 221556Z AUTO 17017G24KT 7SM BR OVC006 03/03 A2998 RMK AO2 PK WND 17027/13 CIG 005 RWY13 SLP167 T00280028 20-01-22",0,4,0,7.5,0,0,35.414738888888884,-97.38663055555556
"KRVS","RICHARD LLOYD JONES JR","USA","20-01-22","""2020-01-22T15:53:00.000Z""","KRVS 221553Z 17010KT 6SM BR OVC006 02/01 A3006 RMK AO2 RAE27 SLP188 P0000 T00170006 20-01-22",0,0,0,7.5,0,0,36.03962222222222,-95.98463333333333
"KTUL","TULSA INTL","USA","20-01-22","""2020-01-22T15:53:00.000Z""","KTUL 221553Z 16014G26KT 5SM BR BKN007 OVC012 01/00 A3005 RMK AO2 PK WND 15026/1550 RAE51 SLP179 P0001 T00110000 20-01-22",0,2,0,7.5,0,0,36.198388888888886,-95.88811111111112
"KBOK","BROOKINGS","USA","20-01-22","""2020-01-22T16:29:00.000Z""","KBOK 221629Z AUTO VRB06KT 5SM -RA BR OVC006 08/07 A3020 RMK AO2 CIG 004V011 P0000 20-01-22",0,0,0,0,0,0,42.07393611111112,-124.28976944444445
"KBKE","BAKER CITY MUNI","USA","20-01-22","""2020-01-22T16:19:00.000Z""","KBKE 221619Z AUTO 00000KT 5SM BR OVC003 M02/M03 A3013 RMK AO2 T10171033 20-01-22",0,0,0,7.5,0,0,44.83733333333333,-117.80913888888888
"KWWR","WEST WOODWARD","USA","20-01-22","""2020-01-22T16:15:00.000Z""","KWWR 221615Z AUTO 18010G15KT 4SM BR OVC003 04/04 A2989 RMK AO2 20-01-22",0,2,0,0,0,0,36.437999999999995,-99.52266666666667
"KBNO","BURNS MUNI","USA","20-01-22","""2020-01-22T15:53:00.000Z""","KBNO 221553Z AUTO 00000KT 10SM OVC065 M03/M04 A3013 RMK AO2 SNE01 SLP231 P0000 T10281044 20-01-22",0,0,0,2.5,0,0,43.59191666666667,-118.95544444444445
"KHIO","PORTLAND-HILLSBORO","USA","20-01-22","""2020-01-22T15:53:00.000Z""","KHIO 221553Z 16008KT 10SM -RA BKN012 OVC055 07/06 A3004 RMK AO2 SLP173 P0001 T00720056 20-01-22",0,0,0,0,0,0,45.542119444444445,-122.95071944444445
"KPDX","PORTLAND INTL","USA","20-01-22","""2020-01-22T15:53:00.000Z""","KPDX 221553Z 13008KT 10SM -RA BKN034 OVC043 08/06 A3006 RMK AO2 SLP179 P0001 T00830056 20-01-22",0,0,0,0,0,0,45.58870833333334,-122.59686666666666
"KLMT","KLAMATH FALLS","USA","20-01-22","""2020-01-22T16:07:00.000Z""","KLMT 221607Z 00000KT 4SM -SN BR BKN043 OVC055 M01/M02 A3014 RMK AO2 P0000 T10061022 20-01-22",0,0,6.7,7.5,0,0,42.15613888888889,-121.73319444444445
"KCVO","CORVALLIS MUNI","USA","20-01-22","""2020-01-22T15:56:00.000Z""","KCVO 221556Z AUTO 18012KT 10SM OVC042 07/ A3007 RMK AO2 RAE48 SLP184 P0000 T0067 20-01-22",0,0,0,0,0,0,44.49711111111111,-123.28952777777778
"KLGD","LA GRANDE/UNION COUNTY","USA","20-01-22","""2020-01-22T15:56:00.000Z""","KLGD 221556Z AUTO 16011KT 10SM OVC050 01/M03 A3012 RMK AO2 SLP219 T00111028 FZRANO 20-01-22",0,0,0,0,0,0,45.289811111111106,-118.0063611111111
"KEUG","MAHLON SWEET FIELD","USA","20-01-22","""2020-01-22T15:54:00.000Z""","KEUG 221554Z 16008KT 10SM FEW034 OVC042 07/05 A3007 RMK AO2 SLP186 T00720050 20-01-22",0,0,0,0,0,0,44.124583333333334,-123.21197222222223
"KMFR","ROGUE VALLEY INTL-MEDFORD","USA","20-01-22","""2020-01-22T15:53:00.000Z""","KMFR 221553Z 00000KT 8SM BKN007 OVC050 04/03 A3017 RMK AO2 RAE1458B18E36 SLP222 P0000 T00390028 20-01-22",0,0,0,0,0,0,42.374227777777776,-122.87349722222221
"KLKV","LAKE COUNTY,OR","USA","20-01-22","""2020-01-22T15:53:00.000Z""","KLKV 221553Z AUTO 15010KT 10SM -RA OVC015 01/00 A3014 RMK AO2 RAB31 SLP236 P0000 T00060000 FZRANO 20-01-22",0,0,0,2.5,0,0,42.16111111111111,-120.39908333333334
"KMMV","MC MINNVILLE/MUNI,OR.","USA","20-01-22","""2020-01-22T15:53:00.000Z""","KMMV 221553Z AUTO 15010KT 10SM -RA FEW038 OVC045 07/06 A3004 RMK AO2 SLP173 P0003 T00720061 20-01-22",0,0,0,0,0,0,45.19454444444444,-123.13606666666668
"KONP","NEWPORT MUNI","USA","20-01-22","""2020-01-22T16:15:00.000Z""","KONP 221615Z AUTO 19017G28KT 5SM -DZ OVC011 08/08 A3004 RMK AO2 20-01-22",0,4,0,0,0,0,44.58036111111112,-124.05791666666667
"KOTH","SOUTHWEST OREGON RGNL","USA","20-01-22","""2020-01-22T16:05:00.000Z""","KOTH 221605Z 15010KT 10SM -RA OVC031 08/08 A3009 RMK AO2 P0000 $ 20-01-22",0,0,0,0,0,0,43.41694444444444,-124.24702777777777
"KSLE","MCNARY FLD","USA","20-01-22","""2020-01-22T15:56:00.000Z""","KSLE 221556Z 16009KT 10SM BKN034 BKN050 OVC070 07/05 A3004 RMK AO2 RAE51 SLP174 P0001 T00720050 20-01-22",0,0,0,0,0,0,44.909527777777775,-123.0025
"KRDM","ROBERTS FIELD","USA","20-01-22","""2020-01-22T15:56:00.000Z""","KRDM 221556Z 15005KT 10SM OVC070 03/M02 A3005 RMK AO2 SLP189 T00331022 20-01-22",0,0,0,0,0,0,44.25405555555555,-121.14997222222223
"KRBG","ROSEBURG RGNL","USA","20-01-22","""2020-01-22T15:53:00.000Z""","KRBG 221553Z AUTO 00000KT 10SM OVC050 07/06 A3010 RMK AO2 RAB1459E24 SLP196 P0000 T00670056 20-01-22",0,0,0,0,0,0,43.239336111111115,-123.35584722222222
"KPDT","EASTERN OREGON RGNL AT PENDLETON","USA","20-01-22","""2020-01-22T15:53:00.000Z""","KPDT 221553Z 13005KT 10SM BKN060 BKN090 05/M02 A3007 RMK AO2 SLP185 T00501017 20-01-22",0,0,0,0,0,0,45.694763888888886,-118.84300833333333
"KONO","ONTARIO MUNI","USA","20-01-22","""2020-01-22T15:53:00.000Z""","KONO 221553Z AUTO 00000KT M1/4SM FG VV002 00/M01 A3020 RMK AO2 SLP249 I1001 T00001011 20-01-22",0,0,0,2.5,0,0,44.01936111111111,-117.01302777777778
"KREO","ROME STATE","USA","20-01-22","""2020-01-22T15:52:00.000Z""","KREO 221552Z AUTO 00000KT 01/M02 A3012 RMK AO1 SLP219 T00061017 20-01-22",0,0,0,0,0,0,42.57766111111111,-117.88543055555556
"KBTP","BUTLER COUNTY/K W SCHOLTER FIELD","USA","20-01-22","""2020-01-22T15:56:00.000Z""","KBTP 221556Z AUTO 16006KT 10SM CLR M02/M07 A3041 RMK AO2 SLP325 T10221072 FZRANO 20-01-22",0,0,0,0,0,0,40.776583333333335,-79.95108333333333
"KAVP","WILKES-BARRE/SCRANTON INTL","USA","20-01-22","""2020-01-22T15:54:00.000Z""","KAVP 221554Z 25005KT 10SM CLR M03/M10 A3044 RMK AO2 SLP319 T10331100 20-01-22",0,0,0,0,0,0,41.33847222222222,-75.72338888888889
"KBFD","BRADFORD RGNL","USA","20-01-22","""2020-01-22T15:53:00.000Z""","KBFD 221553Z AUTO 22004KT 10SM CLR M06/M11 A3034 RMK AO2 SLP307 T10611111 20-01-22",0,0,0,0,0,0,41.80294444444444,-78.63997222222223
"KDLS","COLUMBIA GORGE RGNL/THE DALLES MUNI","USA","20-01-22","""2020-01-22T15:53:00.000Z""","KDLS 221553Z AUTO 00000KT 10SM FEW050 OVC065 02/01 A3009 RMK AO2 SLP190 T00170006 20-01-22",0,0,0,2.5,0,0,45.61935277777778,-121.16827500000001
"KAOO","ALTOONA-BLAIR COUNTY","USA","20-01-22","""2020-01-22T15:53:00.000Z""","KAOO 221553Z AUTO 20003KT CLR M05/M11 A3041 RMK AO2 SLP323 T10501106 $ 20-01-22",0,0,0,0,0,0,40.29636111111111,-78.32002777777777
"KTTD","PORTLAND-TROUTDALE","USA","20-01-22","""2020-01-22T15:53:00.000Z""","KTTD 221553Z 10004KT 7SM -RA OVC043 07/05 A3007 RMK AO2 SLP182 P0001 T00670050 20-01-22",0,0,0,0,0,0,45.54936111111111,-122.40125
"KABE","LEHIGH VALLEY INTL","USA","20-01-22","""2020-01-22T15:51:00.000Z""","KABE 221551Z 26005KT 10SM CLR M01/M09 A3049 RMK AO2 SLP328 T10061094 20-01-22",0,0,0,0,0,0,40.65236111111111,-75.44041666666666
"KIDI","INDIANA COUNTY/JIMMY STEWART FLD/","USA","20-01-22","""2020-01-22T16:35:00.000Z""","KIDI 221635Z AUTO 00000KT 10SM CLR M03/M08 A3043 RMK A01 20-01-22",0,0,0,0,0,0,40.631058333333335,-79.101525
"KHZL","HAZLETON RGNL","USA","20-01-22","""2020-01-22T16:16:00.000Z""","KHZL 221616Z AUTO 32003KT 10SM CLR M02/M10 A3042 RMK AO2 20-01-22",0,0,0,0,0,0,40.98677777777778,-75.9948888888889
"KMQS","CHESTER COUNTY, PA.","USA","20-01-22","""2020-01-22T16:15:00.000Z""","KMQS 221615Z AUTO 00000KT 10SM CLR M01/M09 A3048 RMK AO2 20-01-22",0,0,0,0,0,0,39.978972222222225,-75.86547222222222
"KFKL","VENANGO RGNL","USA","20-01-22","""2020-01-22T15:56:00.000Z""","KFKL 221556Z AUTO 19006KT 10SM CLR M04/M08 A3039 RMK AO2 SLP320 T10441083 FZRANO 20-01-22",0,0,0,0,0,0,41.37741666666667,-79.86063888888889
"KDUJ","DUBOIS RGNL","USA","20-01-22","""2020-01-22T15:53:00.000Z""","KDUJ 221553Z AUTO 26004KT 10SM CLR M06/M11 A3038 RMK AO2 SLP318 T10611106 20-01-22",0,0,0,0,0,0,41.17827777777777,-78.89869444444444
"KERI","ERIE INTL/TOM RIDGE FIELD","USA","20-01-22","""2020-01-22T15:51:00.000Z""","KERI 221551Z 18012KT 10SM CLR M04/M11 A3041 RMK AO2 SLP309 T10391106 20-01-22",0,0,0,0,0,0,42.083083333333335,-80.17394444444444
"KMDT","HARRISBURG INTL","USA","20-01-22","""2020-01-22T15:56:00.000Z""","KMDT 221556Z VRB03KT 10SM CLR M01/M10 A3050 RMK AO2 SLP331 T10111100 20-01-22",0,0,0,0,0,0,40.19318888888888,-76.76261944444444
"KMUI","MUIR AAF (FORT INDIANTOWN GAP)","USA","20-01-22","""2020-01-22T15:56:00.000Z""","KMUI 221556Z AUTO 00000KT 10SM CLR M02/M10 A3048 RMK AO2 SLP331 T10191100 20-01-22",0,0,0,0,0,0,40.43483333333333,-76.56933333333333
"KJST","JOHN MURTHA JOHNSTOWN-CAMBRIA CO","USA","20-01-22","""2020-01-22T15:54:00.000Z""","KJST 221554Z AUTO 19003KT 10SM CLR M07/M11 A3034 RMK AO2 SLP315 T10671111 20-01-22",0,0,0,0,0,0,40.315552777777775,-78.83465833333332
"KPNE","NORTHEAST PHILADELPHIA","USA","20-01-22","""2020-01-22T15:54:00.000Z""","KPNE 221554Z AUTO 27004KT 10SM CLR 02/M09 A3051 RMK AO2 SLP333 T00171089 20-01-22",0,0,0,0,0,0,40.081944444444446,-75.01058333333333
"KPHL","PHILADELPHIA INTL","USA","20-01-22","""2020-01-22T15:54:00.000Z""","KPHL 221554Z 12004KT 10SM CLR 01/M09 A3051 RMK AO2 SLP332 T00061094 20-01-22",0,0,0,0,0,0,39.87224722222222,-75.2408638888889
"KMPO","POCONO MOUNTAINS MUNI","USA","20-01-22","""2020-01-22T15:53:00.000Z""","KMPO 221553Z AUTO 00000KT 10SM CLR M04/M10 A3036 RMK AO2 SLP314 T10441100 20-01-22",0,0,0,0,0,0,41.13769444444444,-75.38005555555554
"KLNS","LANCASTER","USA","20-01-22","""2020-01-22T15:53:00.000Z""","KLNS 221553Z VRB03KT 10SM CLR M02/M09 A3049 RMK AO2 SLP331 T10171094 20-01-22",0,0,0,0,0,0,40.12236111111111,-76.29436111111112
"KLBE","ARNOLD PALMER RGNL","USA","20-01-22","""2020-01-22T15:53:00.000Z""","KLBE 221553Z 00000KT 10SM SKC M02/M08 A3043 20-01-22",0,0,0,0,0,0,40.27460833333333,-79.40675
"KUKT","QUAKERTOWN","USA","20-01-22","""2020-01-22T16:20:00.000Z""","KUKT 221620Z AUTO 00000KT 10SM CLR M01/M09 A3047 RMK A01 20-01-22",0,0,0,0,0,0,40.435138888888886,-75.38194444444444
"KRDG","READING RGNL/CARL A SPAATZ FIELD","USA","20-01-22","""2020-01-22T15:54:00.000Z""","KRDG 221554Z 00000KT 10SM CLR M01/M08 A3049 RMK AO2 SLP335 T10061083 20-01-22",0,0,0,0,0,0,40.3785,-75.96525
"KPTW","HERITAGE FIELD","USA","20-01-22","""2020-01-22T15:54:00.000Z""","KPTW 221554Z AUTO 00000KT 9SM CLR M02/M09 A3050 RMK AO2 SLP332 T10221089 20-01-22",0,0,0,0,0,0,40.239555555555555,-75.55672222222222
"KIPT","WILLIAMSPORT RGNL","USA","20-01-22","""2020-01-22T15:54:00.000Z""","KIPT 221554Z 22005KT 10SM CLR M04/M10 A3048 RMK AO2 SLP330 T10441100 20-01-22",0,0,0,0,0,0,41.24166666666667,-76.92180555555557
"KSEG","PENN VALLEY","USA","20-01-22","""2020-01-22T15:53:00.000Z""","KSEG 221553Z AUTO 00000KT 10SM CLR M03/M09 A3049 RMK AO2 SLP333 T10281089 20-01-22",0,0,0,0,0,0,40.82123333333334,-76.86417222222222
"KAGC","ALLEGHENY COUNTY","USA","20-01-22","""2020-01-22T15:53:00.000Z""","KAGC 221553Z 18006KT 10SM CLR M04/M09 A3040 RMK AO2 SLP320 T10391089 20-01-22",0,0,0,0,0,0,40.35443611111111,-79.92904444444444
"KPIT","PITTSBURGH INTL","USA","20-01-22","""2020-01-22T15:51:00.000Z""","KPIT 221551Z 19006KT 10SM SCT250 M04/M09 A3041 RMK AO2 SLP326 T10391094 20-01-22",0,0,0,0,0,0,40.491416666666666,-80.23269444444445
"KAIK","AIKEN MUNI","USA","20-01-22","""2020-01-22T16:15:00.000Z""","KAIK 221615Z AUTO 05014G19KT 10SM CLR 05/M12 A3039 RMK AO2 T00481118 20-01-22",0,2,0,0,0,0,33.649388888888886,-81.68502777777778
"KAND","ANDERSON RGNL","USA","20-01-22","""2020-01-22T15:56:00.000Z""","KAND 221556Z AUTO 06010KT 10SM CLR 03/M11 A3043 RMK AO2 SLP308 T00331106 20-01-22",0,0,0,0,0,0,34.49458333333333,-82.7093888888889
"KBID","BLOCK ISLAND STATE","USA","20-01-22","""2020-01-22T15:56:00.000Z""","KBID 221556Z AUTO VRB05KT 10SM CLR M01/M08 A3046 RMK AO2 SLP316 T10061083 FZRANO 20-01-22",0,0,0,0,0,0,41.16811111111111,-71.57783333333333
"KSFZ","NORTH CENTRAL STATE","USA","20-01-22","""2020-01-22T15:56:00.000Z""","KSFZ 221556Z AUTO 30004KT 10SM CLR M02/M09 A3043 RMK AO2 SLP254 T10171094 FZRANO 20-01-22",0,0,0,0,0,0,41.92075,-71.49141666666667
"KTHV","YORK","USA","20-01-22","""2020-01-22T15:53:00.000Z""","KTHV 221553Z AUTO 00000KT 10SM CLR M02/M10 A3049 RMK AO2 SLP334 T10171100 20-01-22",0,0,0,0,0,0,39.916999999999994,-76.87302777777776
"KWST","WESTERLY STATE","USA","20-01-22","""2020-01-22T15:53:00.000Z""","KWST 221553Z AUTO VRB04KT 10SM CLR 01/M10 A3046 RMK AO2 SLP315 T00111100 20-01-22",0,0,0,0,0,0,41.34963055555556,-71.80341666666666
"KPVD","THEODORE FRANCIS GREENE STATE","USA","20-01-22","""2020-01-22T15:51:00.000Z""","KPVD 221551Z 00000KT 10SM FEW300 00/M09 A3045 RMK AO2 SLP311 T00001089 20-01-22",0,0,0,0,0,0,41.724000000000004,-71.42819444444444
"KOQU","NORTH KINGSTOWN/QUONSET STATE,RI.","USA","20-01-22","""2020-01-22T15:50:00.000Z""","KOQU 221550Z 11006KT 10SM SKC M01/M09 A3045 20-01-22",0,0,0,0,0,0,41.59713888888889,-71.41213888888889
"KBNL","BARNWELL RGNL","USA","20-01-22","""2020-01-22T16:35:00.000Z""","KBNL 221635Z AUTO 02014KT 10SM CLR 06/M09 A3036 RMK AO2 20-01-22",0,0,0,0,0,0,33.257666666666665,-81.38821666666668
"KCDN","WOODWARD FIELD","USA","20-01-22","""2020-01-22T16:15:00.000Z""","KCDN 221615Z AUTO 34010KT 10SM CLR 04/M12 A3042 RMK AO2 20-01-22",0,0,0,0,0,0,34.28358333333333,-80.56486111111111
"KCHS","CHARLESTON AFB/INTL","USA","20-01-22","""2020-01-22T15:56:00.000Z""","KCHS 221556Z 01011KT 10SM CLR 07/M04 A3032 RMK AO2 SLP267 T00671039 20-01-22",0,0,0,0,0,0,32.89864722222222,-80.04052777777778
"KCAE","COLUMBIA MTROPOLITAN","USA","20-01-22","""2020-01-22T15:56:00.000Z""","KCAE 221556Z 02007KT 340V050 10SM FEW250 04/M12 A3041 RMK AO2 SLP298 T00441122 20-01-22",0,0,0,0,0,0,33.93883888888889,-81.11953888888888
"KNBC","BEAUFORT MCAS/MERRITT FIELD, SC.","USA","20-01-22","""2020-01-22T15:56:00.000Z""","KNBC 221556Z 02016KT 10SM CLR 07/M03 A3032 RMK AO2 SLP267 T00721033 20-01-22",0,2,0,0,0,0,32.48056666666667,-80.71924444444444
"KCEU","OCONEE COUNTY RGNL","USA","20-01-22","""2020-01-22T15:54:00.000Z""","KCEU 221554Z AUTO VRB03KT 10SM CLR 02/M10 A3043 RMK AO2 SLP311 T00221100 20-01-22",0,0,0,0,0,0,34.67222222222222,-82.8858888888889
"KGGE","GEORGETOWN COUNTY","USA","20-01-22","""2020-01-22T16:35:00.000Z""","KGGE 221635Z AUTO 02011G17KT 10SM CLR 07/M03 A3032 RMK AO2 20-01-22",0,2,0,0,0,0,33.311388888888885,-79.32030555555555
"KGRD","GREENWOOD COUNTY","USA","20-01-22","""2020-01-22T15:56:00.000Z""","KGRD 221556Z AUTO 03009KT 10SM CLR 03/M09 A3045 RMK AO2 SLP315 T00281089 $ 20-01-22",0,0,0,0,0,0,34.250391666666665,-82.15780833333334
"KGSP","GREENVILLE SPARTANBURG INTL","USA","20-01-22","""2020-01-22T15:53:00.000Z""","KGSP 221553Z 03007KT 10SM CLR 02/M11 A3044 RMK AO2 SLP314 T00221106 20-01-22",0,0,0,0,0,0,34.89566666666666,-82.21885833333333
"KGMU","GREENVILLE DOWNTOWN","USA","20-01-22","""2020-01-22T15:53:00.000Z""","KGMU 221553Z 03008KT 10SM CLR 03/M10 A3044 RMK AO2 SLP316 T00331100 20-01-22",0,0,0,0,0,0,34.847944444444444,-82.35
"KFLO","FLORENCE RGNL","USA","20-01-22","""2020-01-22T15:53:00.000Z""","KFLO 221553Z 03013KT 10SM CLR 04/M06 A3039 RMK AO2 SLP289 T00441061 20-01-22",0,0,0,0,0,0,34.185361111111106,-79.7238888888889
"KCUB","JIM HAMILTON L.B. OWENS","USA","20-01-22","""2020-01-22T15:53:00.000Z""","KCUB 221553Z AUTO VRB06KT 10SM CLR 04/M10 A3042 RMK AO2 SLP303 T00441100 20-01-22",0,0,0,0,0,0,33.97047222222223,-80.99525
"KMMT","MC ENTIRE JNGB","USA","20-01-22","""2020-01-22T15:56:00.000Z""","KMMT 221556Z 36008KT 10SM SCT250 05/M08 A3040 RMK AO2A SLP300 T00471084 $ 20-01-22",0,0,0,0,0,0,33.920766666666665,-80.80114166666667
"KMYR","MYRTLE BEACH INTL","USA","20-01-22","""2020-01-22T15:56:00.000Z""","KMYR 221556Z 35015KT 10SM CLR 06/M03 A3035 RMK AO2 SLP277 T00561028 20-01-22",0,0,0,0,0,0,33.67975,-78.92833333333334
"KLQK","PICKENS COUNTY","USA","20-01-22","""2020-01-22T16:35:00.000Z""","KLQK 221635Z AUTO 06004KT 10SM CLR 05/M10 A3040 RMK AO2 T00481100 20-01-22",0,0,0,0,0,0,34.80997222222222,-82.70288888888889
"KSPA","SPARTANBURG DOWNTOWN MEMORIAL","USA","20-01-22","""2020-01-22T16:35:00.000Z""","KSPA 221635Z AUTO 03010G14KT 10SM CLR 03/M10 A3043 RMK AO2 20-01-22",0,2,0,0,0,0,34.91572222222222,-81.9565
"KRBW","LOWCOUNTRY RGNL","USA","20-01-22","""2020-01-22T16:15:00.000Z""","KRBW 221615Z AUTO 03009G17KT 360V060 10SM CLR 06/M04 A3035 RMK AO2 20-01-22",0,2,0,0,0,0,32.921,-80.64061111111111
"KSSC","SHAW AFB","USA","20-01-22","""2020-01-22T15:56:00.000Z""","KSSC 221556Z AUTO 03012KT 10SM CLR 05/M07 A3038 RMK AO2 SLP291 T00511068 $ 20-01-22",0,0,0,0,0,0,33.972725000000004,-80.47056388888889
"KOGB","ORANGEBURG MUNI","USA","20-01-22","""2020-01-22T15:53:00.000Z""","KOGB 221553Z AUTO 03011G19KT 10SM CLR 04/M07 A3037 RMK AO2 SLP285 T00441072 20-01-22",0,2,0,0,0,0,33.45691666666667,-80.85940555555555
"KCRE","GRAND STRAND","USA","20-01-22","""2020-01-22T15:53:00.000Z""","KCRE 221553Z 02012G20KT 10SM CLR 06/M03 A3034 RMK AO1 SLP273 T00611028 $ 20-01-22",0,2,0,0,0,0,33.811749999999996,-78.72394444444444
"KRCA","ELLSWORTH AFB","USA","20-01-22","""2020-01-22T15:56:00.000Z""","KRCA 221556Z AUTO 00000KT 10SM SCT080 OVC095 05/M01 A2974 RMK AO2 SLP090 T00471011 $ 20-01-22",0,0,0,0,0,0,44.145094444444446,-103.10356666666667
"KHON","HURON RGNL","USA","20-01-22","""2020-01-22T15:55:00.000Z""","KHON 221555Z AUTO 17005KT 6SM BR OVC100 M01/M02 A2977 RMK AO2 SLP096 T10111022 20-01-22",0,0,0,7.5,0,0,44.385194444444444,-98.22855555555556
"KABR","ABERDEEN RGNL","USA","20-01-22","""2020-01-22T15:53:00.000Z""","KABR 221553Z AUTO 00000KT 6SM BR CLR M04/M07 A2977 RMK AO2 SLP101 T10441067 20-01-22",0,0,0,7.5,0,0,45.44830555555555,-98.42244444444445
"KMHE","MITCHELL MUNI","USA","20-01-22","""2020-01-22T15:53:00.000Z""","KMHE 221553Z AUTO 16003KT 6SM BR SCT100 00/M02 A2978 RMK AO2 SLP100 T00001017 20-01-22",0,0,0,7.5,0,0,43.77483333333333,-98.03861111111111
"KSPF","BLACK HILLS-CLYDE ICE FIELD","USA","20-01-22","""2020-01-22T16:35:00.000Z""","KSPF 221635Z AUTO 00000KT 10SM OVC065 06/00 A2977 RMK AO2 20-01-22",0,0,0,0,0,0,44.48105555555556,-103.786
"KFSD","JOE FOSS FIELD","USA","20-01-22","""2020-01-22T15:56:00.000Z""","KFSD 221556Z 19011KT 10SM OVC007 02/00 A2980 RMK AO2 SLP108 T00220000 20-01-22",0,0,0,2.5,0,0,43.582011111111115,-96.74191111111111
"KPHP","PHILIP","USA","20-01-22","""2020-01-22T15:55:00.000Z""","KPHP 221555Z AUTO 27006KT 10SM OVC110 02/M02 A2975 RMK AO2 SLP087 T00171017 20-01-22",0,0,0,0,0,0,44.04873055555555,-101.59883888888888
"KATY","WATERTOWN RGNL","USA","20-01-22","""2020-01-22T15:53:00.000Z""","KATY 221553Z AUTO 15007KT 4SM BR CLR M04/M04 A2975 RMK AO2 SLP100 T10391044 20-01-22",0,0,0,7.5,0,0,44.91397222222222,-97.15472222222223
"KPIR","PIERRE RGNL","USA","20-01-22","""2020-01-22T15:53:00.000Z""","KPIR 221553Z AUTO 00000KT 10SM OVC095 M01/M02 A2974 RMK AO2 SLP092 T10111022 20-01-22",0,0,0,2.5,0,0,44.382694444444446,-100.28597222222223
"KRAP","RAPID CITY RGNL","USA","20-01-22","""2020-01-22T15:52:00.000Z""","KRAP 221552Z 34006KT 10SM OVC100 05/M01 A2974 RMK AO2 SLP089 T00501006 20-01-22",0,0,0,0,0,0,44.04532222222222,-103.05736944444445
"KMBG","MOBRIDGE MUNI","USA","20-01-22","""2020-01-22T15:52:00.000Z""","KMBG 221552Z AUTO 00000KT 10SM FEW110 M02/M05 A2971 RMK AO2 SLP079 T10221050 20-01-22",0,0,0,0,0,0,45.546277777777775,-100.40627777777779
"KMRC","MAURY COUNTY","USA","20-01-22","""2020-01-22T16:15:00.000Z""","KMRC 221615Z AUTO 00000KT 7SM CLR M00/M06 A3038 RMK A01 20-01-22",0,0,0,0,0,0,35.55438888888889,-87.1791388888889
"KMMI","MCMINN COUNTY","USA","20-01-22","""2020-01-22T16:15:00.000Z""","KMMI 221615Z AUTO 00000KT 10SM CLR M00/M07 A3042 RMK A01 20-01-22",0,0,0,0,0,0,35.39919444444445,-84.56177777777778
"KYKN","CHAN GURNEY MUNI","USA","20-01-22","""2020-01-22T15:56:00.000Z""","KYKN 221556Z AUTO 19006KT 10SM OVC011 02/01 A2980 RMK AO2 RAE00B23E42UPB00E23 SLP115 P0000 T00220006 FZRANO 20-01-22",0,0,0,2.5,0,0,42.916694444444445,-97.38594444444445
"KCSV","CROSSVILLE MEMORIAL-WHITSON FIELD","USA","20-01-22","""2020-01-22T15:53:00.000Z""","KCSV 221553Z AUTO 00000KT 10SM CLR 00/M09 A3034 RMK AO2 SLP291 T00001094 20-01-22",0,0,0,0,0,0,35.95129166666667,-85.08497777777777
"KCHA","LOVELL FIELD","USA","20-01-22","""2020-01-22T15:53:00.000Z""","KCHA 221553Z 00000KT 10SM BKN250 BKN300 00/M08 A3042 RMK AO2 SLP308 VIRGA OHD-NW T00001078 $ 20-01-22",0,0,0,0,0,0,35.03519444444444,-85.20355555555555
"KTRI","TRI-CITIES RGNL TN/VA","USA","20-01-22","""2020-01-22T15:53:00.000Z""","KTRI 221553Z 09003KT 10SM FEW180 FEW250 M01/M08 A3039 RMK AO2 SLP298 T10111083 20-01-22",0,0,0,0,0,0,36.47519444444445,-82.40741944444446
"KCKV","OUTLAW FIELD","USA","20-01-22","""2020-01-22T15:52:00.000Z""","KCKV 221552Z AUTO 17005KT 10SM CLR M02/M07 A3041 RMK AO2 SLP303 T10171067 20-01-22",0,0,0,0,0,0,36.62186111111111,-87.41494444444444
"KFYM","FAYETTEVILLE MUNI","USA","20-01-22","""2020-01-22T16:15:00.000Z""","KFYM 221615Z AUTO 17007KT 10SM CLR 03/M09 A3038 RMK A01 20-01-22",0,0,0,0,0,0,35.05969444444444,-86.564
"KRNC","WARREN COUNTY MEMORIAL","USA","20-01-22","""2020-01-22T16:15:00.000Z""","KRNC 221615Z AUTO 26003KT 10SM CLR 02/M08 A3038 RMK A01 20-01-22",0,0,0,0,0,0,35.69870833333333,-85.84381666666667
"KPHT","HENRY COUNTY","USA","20-01-22","""2020-01-22T16:15:00.000Z""","KPHT 221615Z AUTO 18005KT 10SM CLR M02/M06 A3038 RMK A01 20-01-22",0,0,0,0,0,0,36.33594444444444,-88.38444444444445
"KMEM","MEMPHIS INTL","USA","20-01-22","""2020-01-22T15:54:00.000Z""","KMEM 221554Z 16007KT 10SM OVC160 01/M07 A3036 RMK AO2 SLP284 T00061067 20-01-22",0,0,0,0,0,0,35.04241666666667,-89.97666666666667
"KBNA","NASHVILLE INTL","USA","20-01-22","""2020-01-22T15:53:00.000Z""","KBNA 221553Z 17003KT 10SM FEW200 OVC250 01/M08 A3041 RMK AO2 SLP305 T00061083 20-01-22",0,0,0,0,0,0,36.124472222222224,-86.67816666666667
"KMKL","MC KELLAR-SIPES RGNL","USA","20-01-22","""2020-01-22T15:53:00.000Z""","KMKL 221553Z 15003KT 10SM CLR M02/M06 A3040 RMK AO2 SLP299 T10171061 20-01-22",0,0,0,0,0,0,35.59988888888889,-88.91561111111112
"KTYS","MC GEE TYSON","USA","20-01-22","""2020-01-22T15:53:00.000Z""","KTYS 221553Z 08006KT 10SM FEW100 OVC250 M01/M08 A3039 RMK AO2 SLP300 T10111078 20-01-22",0,0,0,0,0,0,35.80937222222222,-83.99531944444445
"KNQA","MILLINGTON RGNL JETPORT","USA","20-01-22","""2020-01-22T15:50:00.000Z""","KNQA 221550Z 14004KT 10SM CLR M01/M05 A3037 20-01-22",0,0,0,0,0,0,35.35663888888889,-89.87041666666666
"KUCY","EVERETT-STEWART RGNL","USA","20-01-22","""2020-01-22T16:15:00.000Z""","KUCY 221615Z AUTO 15004KT 10SM CLR M02/M06 A3038 RMK A01 20-01-22",0,0,0,0,0,0,36.37974166666667,-88.98570277777777
"KTHA","TULLAHOMA RGNL ARPT/WM NORTHERN FIELD","USA","20-01-22","""2020-01-22T16:15:00.000Z""","KTHA 221615Z AUTO 23003KT 10SM CLR 03/M09 A3037 RMK A01 20-01-22",0,0,0,0,0,0,35.38002777777778,-86.24635277777777
"KSYI","BOMAR FIELD-SHELBYVILLE MUNI","USA","20-01-22","""2020-01-22T16:15:00.000Z""","KSYI 221615Z AUTO VRB03KT 10SM CLR 02/M07 A3039 RMK A01 20-01-22",0,0,0,0,0,0,35.55938888888888,-86.44247222222222
"KMQY","SMYRNA","USA","20-01-22","""2020-01-22T15:56:00.000Z""","KMQY 221556Z 00000KT 10SM CLR M01/M06 A3043 RMK AO2 SLP317 P0001 T10061061 20-01-22",0,0,0,0,0,0,36.00897222222222,-86.52008333333333
"KDFW","DALLAS/FORT WORTH INTL","USA","20-01-22","""2020-01-22T15:53:00.000Z""","KDFW 221553Z 15013KT 1SM R17C/P6000FT -RA BR OVC007 04/03 A3008 RMK AO2 SFC VIS 1 3/4 SLP186 P0002 T00390033 20-01-22",0,0,0,0,0,1,32.89723055555555,-97.03769444444444
"KALI","ALICE INTL","USA","20-01-22","""2020-01-22T15:53:00.000Z""","KALI 221553Z AUTO 14009KT 10SM BKN006 OVC010 17/16 A3006 RMK AO2 RAE46 SLP177 P0005 T01670156 20-01-22",0,0,0,0,0,0,27.74088888888889,-98.02694444444444
"KABI","ABILENE RGNL","USA","20-01-22","""2020-01-22T15:52:00.000Z""","KABI 221552Z 20014G21KT 10SM OVC011 11/11 A2997 RMK AO2 SLP142 T01110106 20-01-22",0,2,0,0,0,0,32.41133333333333,-99.68188888888889
"KAMA","RICK HUSBAND AMARILLO INTL","USA","20-01-22","""2020-01-22T15:53:00.000Z""","KAMA 221553Z 30011KT 10SM BKN120 07/03 A2980 RMK AO2 SLP087 T00670028 20-01-22",0,0,0,0,0,0,35.21936111111111,-101.70591666666667
"KAUS","AUSTIN-BERGSTROM INTL","USA","20-01-22","""2020-01-22T15:53:00.000Z""","KAUS 221553Z 15005KT 7SM -RA OVC006 11/10 A3007 RMK AO2 SLP183 P0005 T01110100 20-01-22",0,0,0,0,0,0,30.19452777777778,-97.66988888888889
"KBPT","JACK BROOKS RGNL","USA","20-01-22","""2020-01-22T16:19:00.000Z""","KBPT 221619Z 09014KT 6SM RA BR BKN014 OVC085 08/06 A3020 RMK AO2 P0002 T00830061 20-01-22",0,0,3.3,0,0,0,29.950833333333332,-94.02069444444444
"KBBD","CURTIS FIELD","USA","20-01-22","""2020-01-22T16:15:00.000Z""","KBBD 221615Z AUTO 16010KT 1SM BR OVC003 10/09 A3002 RMK AO2 20-01-22",0,0,0,0,0,1,31.179277777777777,-99.32391666666666
"KBKD","STEPHENS COUNTY","USA","20-01-22","""2020-01-22T16:15:00.000Z""","KBKD 221615Z AUTO 17008KT 4SM BR OVC005 09/09 A2999 RMK AO2 T00900090 20-01-22",0,0,0,0,0,0,32.71875277777778,-98.89159444444445
"KBMT","BEAUMONT MUNI","USA","20-01-22","""2020-01-22T16:15:00.000Z""","KBMT 221615Z AUTO 09011G16KT 10SM -RA BKN060 OVC070 08/07 A3019 RMK AO2 T00830066 20-01-22",0,2,0,0,0,0,30.070202777777777,-94.21509444444445
"KBGD","HUTCHINSON COUNTY","USA","20-01-22","""2020-01-22T15:51:00.000Z""","KBGD 221551Z AUTO 26006KT 10SM BKN120 06/01 A2981 RMK AO2 SLP095 T00560011 20-01-22",0,0,0,0,0,0,35.70088888888889,-101.39366666666668
"KCZT","DIMMIT COUNTY","USA","20-01-22","""2020-01-22T16:15:00.000Z""","KCZT 221615Z AUTO 00000KT 7SM OVC003 12/12 A3003 RMK AO2 20-01-22",0,0,0,0,0,0,28.52225,-99.82363888888888
"KCFD","COULTER FIELD","USA","20-01-22","""2020-01-22T16:15:00.000Z""","KCFD 221615Z AUTO 12012KT 10SM -RA OVC006 07/07 A3014 RMK AO2 P0002 T00730073 20-01-22",0,0,0,0,0,0,30.715694444444445,-96.33136111111111
"KBWD","BROWNWOOD RGNL","USA","20-01-22","""2020-01-22T16:15:00.000Z""","KBWD 221615Z AUTO 16008KT 1 3/4SM OVC004 08/08 A3002 RMK AO1 20-01-22",0,0,0,0,0,1,31.79361111111111,-98.9565
"KCDS","CHILDRESS MUNI","USA","20-01-22","""2020-01-22T15:53:00.000Z""","KCDS 221553Z AUTO 17011KT 10SM SCT019 08/07 A2986 RMK AO2 SLP111 T00830072 20-01-22",0,0,0,0,0,0,34.43377777777778,-100.288
"KBRO","BROWNSVILLE/SOUTH PADRE ISLAND INTL","USA","20-01-22","""2020-01-22T15:53:00.000Z""","KBRO 221553Z 16011KT 9SM -RA SCT006 BKN030 OVC038 19/18 A3005 RMK AO2 SLP173 P0003 T01890178 20-01-22",0,0,0,0,0,0,25.906133333333333,-97.42599444444446
"KCOT","COTULLA-LA SALLE COUNTY","USA","20-01-22","""2020-01-22T16:32:00.000Z""","KCOT 221632Z AUTO 17004KT 10SM OVC005 14/14 A3004 RMK AO2 RAE1555 P0000 T01440139 20-01-22",0,0,0,0,0,0,28.45572222222222,-99.21722222222222
"KCRP","CORPUS CHRISTI INTL","USA","20-01-22","""2020-01-22T16:19:00.000Z""","KCRP 221619Z 16010KT 1 1/2SM -RA BR SCT004 BKN007 OVC037 17/16 A3007 RMK AO2 P0003 T01670161 20-01-22",0,0,0,0,0,1,27.772194444444445,-97.50241666666666
"KCOM","COLEMAN MUNI","USA","20-01-22","""2020-01-22T16:16:00.000Z""","KCOM 221616Z AUTO 16010KT 5SM BR OVC002 09/09 A3000 RMK AO2 20-01-22",0,0,0,0,0,0,31.84113888888889,-99.40361111111112
"KNGP","CORPUS CHRISTI NAS/TRUAX FIELD","USA","20-01-22","""2020-01-22T15:56:00.000Z""","KNGP 221556Z 17008KT 1 1/2SM -RA BR BKN005 BKN014 OVC030 16/16 A3006 RMK AO2 SLP179 P0004 T01610161 20-01-22",0,0,0,0,0,1,27.6927,-97.290375
"KCLL","EASTERWOOD FIELD","USA","20-01-22","""2020-01-22T15:53:00.000Z""","KCLL 221553Z 12010KT 5SM RA BR OVC007 07/06 A3013 RMK AO2 CIG 005V010 SLP202 P0008 T00720061 20-01-22",0,0,3.3,0,0,0,30.588583333333332,-96.36383333333333
"KCRS","C DAVID CAMPBELL FIELD-CORSICANA MUNI","USA","20-01-22","""2020-01-22T15:53:00.000Z""","KCRS 221553Z AUTO 14010KT 5SM -RA BR OVC006 04/03 A3014 RMK AO2 SLP208 T00440033 PNO $ 20-01-22",0,0,0,0,0,0,32.028055555555554,-96.40058333333334
"KCXO","LONE STAR EXECUTIVE","USA","20-01-22","""2020-01-22T15:53:00.000Z""","KCXO 221553Z 11007KT 2 1/2SM -RA BR OVC007 06/05 A3017 RMK AO2 SFC VIS 4 SLP216 P0007 T00610050 20-01-22",0,0,0,0,0,1,30.353394444444447,-95.41508055555556
"KDAL","DALLAS LOVE FIELD","USA","20-01-22","""2020-01-22T16:29:00.000Z""","KDAL 221629Z 15011KT 3SM -RA BR OVC008 04/03 A3010 RMK AO2 P0000 T00440028 20-01-22",0,0,0,0,0,1,32.84711111111111,-96.85176944444444
"KDRT","DEL RIO INTL","USA","20-01-22","""2020-01-22T16:25:00.000Z""","KDRT 221625Z AUTO 13008KT 4SM BR OVC003 13/12 A3003 RMK AO2 T01280117 20-01-22",0,0,0,0,0,0,29.374205555555555,-100.92715555555556
"KDHT","DALHART MUNI","USA","20-01-22","""2020-01-22T15:53:00.000Z""","KDHT 221553Z AUTO 35012KT 10SM OVC120 07/01 A2982 RMK AO2 SLP092 T00670006 20-01-22",0,0,0,0,0,0,36.02247222222222,-102.54738888888889
"KRBD","DALLAS EXECUTIVE","USA","20-01-22","""2020-01-22T15:53:00.000Z""","KRBD 221553Z 14010KT 4SM BR OVC005 04/03 A3009 RMK AO2 RAE53 SLP191 P0001 T00440028 20-01-22",0,0,0,0,0,0,32.680861111111106,-96.86819444444444
"KADS","ADDISON","USA","20-01-22","""2020-01-22T15:47:00.000Z""","KADS 221547Z 15013G17KT 2SM -RA BR OVC005 05/04 A3011 20-01-22",0,2,0,0,0,1,32.96855555555556,-96.83644444444444
"KDYS","DYESS AFB","USA","20-01-22","""2020-01-22T16:26:00.000Z""","KDYS 221626Z COR AUTO 17015G20KT 10SM BKN015 13/07 A2993 RMK AO2 SLP127 TSNO $ COR 1633 20-01-22",0,2,0,0,0,0,32.42061666666667,-99.85459999999999
"KFTW","FORT WORTH MEACHAM INTL","USA","20-01-22","""2020-01-22T16:02:00.000Z""","KFTW 221602Z 14015KT 2 1/2SM BR OVC005 04/04 A3007 RMK AO2 RAE01 CIG 003V009 P0000 T00440044 20-01-22",0,0,0,0,0,1,32.81976944444445,-97.36245
"KBIF","BIGGS AAF (FORT BLISS)","USA","20-01-22","""2020-01-22T15:58:00.000Z""","KBIF 221558Z AUTO 26015G21KT 10SM FEW038 12/05 A3004 RMK AO2 PK WND 31030/00 SLP146 T01150049 $ 20-01-22",0,2,0,0,0,0,31.8495,-106.38
"KFST","FORT STOCKTON-PECOS COUNTY","USA","20-01-22","""2020-01-22T15:53:00.000Z""","KFST 221553Z AUTO 23008KT 10SM CLR 13/06 A2999 RMK AO2 SLP131 T01280061 20-01-22",0,0,0,0,0,0,30.91525,-102.91277777777778
"KELP","EL PASO INTL","USA","20-01-22","""2020-01-22T15:51:00.000Z""","KELP 221551Z 23008KT 10SM FEW015 SCT029 SCT035 12/06 A3005 RMK AO2 SLP146 CLDS TPG MTNS SW-NW T01220061 20-01-22",0,0,0,0,0,0,31.807333333333332,-106.37636111111111
"KUVA","GARNER FIELD","USA","20-01-22","""2020-01-22T16:15:00.000Z""","KUVA 221615Z AUTO 00000KT 5SM BR OVC004 11/11 A3007 RMK AO2 T01110111 20-01-22",0,0,0,0,0,0,29.211333333333332,-99.74358333333333
"KGLE","GAINESVILLE MUNI","USA","20-01-22","""2020-01-22T16:15:00.000Z""","KGLE 221615Z AUTO 15015G18KT 4SM DZ OVC004 04/03 A3009 RMK AO2 T00360032 20-01-22",0,2,3.3,0,0,0,33.65219444444444,-97.19727777777778
"KHLR","HOOD AAF","USA","20-01-22","""2020-01-22T16:13:00.000Z""","KHLR 221613Z AUTO 14011KT 6SM BR OVC003 07/07 A3006 RMK AO2 RAE1558RAB08E13 SLP180 20-01-22",0,0,0,0,0,0,31.138666666666666,-97.7145
"KAFW","FORT WORTH ALLIANCE","USA","20-01-22","""2020-01-22T16:00:00.000Z""","KAFW 221600Z 15013KT 3SM -DZ BR OVC006 05/03 A3007 RMK AO2 P0001 T00500033 20-01-22",0,0,0,0,0,1,32.987630555555555,-97.3188
"KGLS","SCHOLES INTL AT GALVESTON","USA","20-01-22","""2020-01-22T15:52:00.000Z""","KGLS 221552Z 12021G29KT 10SM -RA OVC090 15/11 A3015 RMK AO2 PK WND 11029/1545 RAB06 SLP211 P0000 T01500111 20-01-22",0,6,0,0,0,0,29.265333333333334,-94.86041666666667
"KGVT","MAJORS","USA","20-01-22","""2020-01-22T16:10:00.000Z""","KGVT 221610Z AUTO 13010KT 3SM BR OVC008 04/03 A3014 RMK AO2 20-01-22",0,0,0,0,0,1,33.06783888888889,-96.06533333333333
"KHRL","VALLEY INTL","USA","20-01-22","""2020-01-22T15:52:00.000Z""","KHRL 221552Z 16013KT 10SM BKN007 BKN045 19/18 A3003 RMK AO2 SLP168 T01890178 20-01-22",0,0,0,0,0,0,26.22711111111111,-97.6551388888889
"KHOU","WILLIAM P HOBBY","USA","20-01-22","""2020-01-22T15:53:00.000Z""","KHOU 221553Z 09005KT 4SM RA BR OVC085 11/09 A3015 RMK AO2 SLP214 P0006 T01110094 20-01-22",0,0,3.3,0,0,0,29.645416666666666,-95.27883333333334
"KIAH","GEORGE BUSH INTERCONTINENTAL/HOUSTON","USA","20-01-22","""2020-01-22T15:53:00.000Z""","KIAH 221553Z 10009KT 1 1/2SM RA BR BKN006 BKN060 OVC090 07/06 A3017 RMK AO2 SFC VIS 2 SLP215 P0007 T00720061 20-01-22",0,0,3.3,0,0,1,29.984444444444446,-95.34144444444443
"KDWH","DAVID WAYNE HOOKS MEMORIAL","USA","20-01-22","""2020-01-22T15:53:00.000Z""","KDWH 221553Z 10010KT 4SM RA BR OVC007 07/05 A3016 RMK AO2 CIG 005V011 SLP214 P0006 T00670050 20-01-22",0,0,3.3,0,0,0,30.061833333333333,-95.55277777777778
"KEFD","ELLINGTON","USA","20-01-22","""2020-01-22T15:50:00.000Z""","KEFD 221550Z 10007KT 5SM -RA OVC070 13/11 A3015 20-01-22",0,0,0,0,0,0,29.607333333333333,-95.15875000000001
"KGRK","ROBERT GRAY AAF","USA","20-01-22","""2020-01-22T16:24:00.000Z""","KGRK 221624Z 13008KT 1 3/4SM BR OVC004 07/06 A3005 RMK AO2A RAE24 SLP178 $ 20-01-22",0,0,0,0,0,1,31.06725,-97.82891666666666
"KSKF","LACKLAND AFB (KELLY FLD ANNEX)","USA","20-01-22","""2020-01-22T16:18:00.000Z""","KSKF 221618Z 15004KT 10SM OVC003 13/13 A3004 RMK AO2A PRESRR SLP172 $ 20-01-22",0,0,0,0,0,0,29.384233333333334,-98.58111666666666
"KJCT","KIMBLE COUNTY","USA","20-01-22","""2020-01-22T16:15:00.000Z""","KJCT 221615Z AUTO 22003KT 8SM OVC009 12/10 A3004 RMK AO2 T01170100 20-01-22",0,0,0,0,0,0,30.511111111111113,-99.7628888888889
"KJAS","JASPER COUNTY-BELL FIELD","USA","20-01-22","""2020-01-22T16:15:00.000Z""","KJAS 221615Z AUTO 09006KT 5SM -RA BKN070 OVC090 04/03 A3025 RMK AO2 P0001 T00400026 20-01-22",0,0,0,0,0,0,30.885694444444443,-94.03494444444445
"KLRD","LAREDO INTL","USA","20-01-22","""2020-01-22T16:23:00.000Z""","KLRD 221623Z 13006KT 10SM BKN007 BKN012 OVC032 16/14 A3002 RMK AO2 RAE1557 CIG 005V009 20-01-22",0,0,0,0,0,0,27.544194444444447,-99.46158333333334
"KERV","KERRVILLE MUNI/LOUIS SCHREINER FIELD","USA","20-01-22","""2020-01-22T16:15:00.000Z""","KERV 221615Z AUTO 00000KT 2 1/2SM BR OVC002 11/10 A3004 RMK AO2 T01060095 20-01-22",0,0,0,0,0,1,29.976666666666667,-99.08547222222222
"KDLF","LAUGHLIN AFB","USA","20-01-22","""2020-01-22T16:07:00.000Z""","KDLF 221607Z 15011KT 2SM BR OVC002 12/11 A3002 RMK TWR VIS 1/2 VIS 2 1/4V2 3/4 SLP164 $ 20-01-22",0,0,0,0,0,1,29.359483333333333,-100.777975
"KILE","SKYLARK FIELD","USA","20-01-22","""2020-01-22T15:56:00.000Z""","KILE 221556Z AUTO 14010KT 6SM -RA BR OVC005 07/07 A3008 RMK AO2 SLP181 P0002 T00720067 20-01-22",0,0,0,0,0,0,31.085833333333333,-97.68650000000001
"KNQI","KINGSVILLE NAS","USA","20-01-22","""2020-01-22T15:56:00.000Z""","KNQI 221556Z 13009KT 7SM BKN008 OVC018 17/16 A3006 RMK AO2 RAB10E20 CIG 006V011 SLP177 P0000 T01720161 $ 20-01-22",0,0,0,0,0,0,27.504527777777778,-97.80827777777777
"KMFE","MC ALLEN MILLER INTL","USA","20-01-22","""2020-01-22T16:23:00.000Z""","KMFE 221623Z 17012G17KT 10SM SCT019 SCT120 21/15 A3003 RMK AO2 T02110150 20-01-22",0,2,0,0,0,0,26.175833333333333,-98.23861111111111
"KASL","HARRISON COUNTY","USA","20-01-22","""2020-01-22T16:15:00.000Z""","KASL 221615Z AUTO 14005KT 7SM OVC080 02/01 A3025 RMK AO1 P0001 T00160005 20-01-22",0,0,0,2.5,0,0,32.5205,-94.30777777777777
"KGGG","EAST TEXAS RGNL","USA","20-01-22","""2020-01-22T16:00:00.000Z""","KGGG 221600Z 12007KT 10SM -RA BKN008 BKN055 OVC075 02/00 A3020 RMK AO2 P0001 T00220000 20-01-22",0,0,0,2.5,0,0,32.38401388888889,-94.71148611111111
"KMRF","MARFA MUNI","USA","20-01-22","""2020-01-22T15:56:00.000Z""","KMRF 221556Z AUTO 31013KT 10SM CLR 10/06 A3007 RMK AO2 SLP164 T01000056 20-01-22",0,0,0,0,0,0,30.371111111111112,-104.01752777777777
"KLFK","ANGELINA COUNTY","USA","20-01-22","""2020-01-22T15:53:00.000Z""","KLFK 221553Z AUTO 10008KT 5SM RA BR SCT045 BKN050 OVC070 03/02 A3021 RMK AO2 SLP229 P0007 T00330017 20-01-22",0,0,3.3,7.5,0,0,31.23402777777778,-94.75
"KLBB","LUBBOCK PRESTON SMITH INTL","USA","20-01-22","""2020-01-22T15:53:00.000Z""","KLBB 221553Z 24008KT 10SM FEW030 FEW200 08/04 A2985 RMK AO2 SLP099 T00780039 $ 20-01-22",0,0,0,0,0,0,33.663666666666664,-101.82055555555556
"KOCH","A L MANGHAM JR. RGNL","USA","20-01-22","""2020-01-22T16:20:00.000Z""","KOCH 221620Z AUTO 12008KT 6SM BR FEW007 BKN043 OVC050 02/02 A3022 RMK AO2 P0001 PWINO FZRANO 20-01-22",0,0,0,7.5,0,0,31.57776388888889,-94.71011111111112
"KMDD","MIDLAND AIRPARK","USA","20-01-22","""2020-01-22T16:15:00.000Z""","KMDD 221615Z AUTO 22011KT 10SM CLR 11/07 A2996 RMK AO2 T01100067 20-01-22",0,0,0,0,0,0,32.036569444444446,-102.101525
"KMWL","MINERAL WELLS","USA","20-01-22","""2020-01-22T16:11:00.000Z""","KMWL 221611Z AUTO 15015G21KT 3SM BR OVC005 06/05 A3003 RMK AO2 T00610050 20-01-22",0,2,0,0,0,1,32.78160555555556,-98.060175
"KMAF","MIDLAND INTL","USA","20-01-22","""2020-01-22T15:53:00.000Z""","KMAF 221553Z 22010KT 10SM CLR 11/07 A2997 RMK AO2 SLP130 T01060067 20-01-22",0,0,0,0,0,0,31.942527777777777,-102.20191666666668
"KOZA","OZONA MUNI","USA","20-01-22","""2020-01-22T16:15:00.000Z""","KOZA 221615Z AUTO 21011G18KT 5SM BR OVC007 10/08 A3004 RMK AO2 20-01-22",0,2,0,0,0,0,30.735194444444446,-101.20219444444444
"KPEQ","PECOS MUNI","USA","20-01-22","""2020-01-22T16:15:00.000Z""","KPEQ 221615Z AUTO 00000KT 10SM CLR 13/06 A2998 RMK AO2 T01310061 20-01-22",0,0,0,0,0,0,31.38238888888889,-103.51072222222223
"KPPA","PERRY LEFORS FIELD","USA","20-01-22","""2020-01-22T16:15:00.000Z""","KPPA 221615Z AUTO 24007KT 10SM BKN120 07/04 A2982 RMK AO2 T00650042 20-01-22",0,0,0,0,0,0,35.613,-100.99625
"KPSN","PALESTINE MUNI","USA","20-01-22","""2020-01-22T16:15:00.000Z""","KPSN 221615Z AUTO 11009G14KT 3SM -SN BKN007 OVC031 04/04 A3016 RMK AO2 P0002 T00420042 20-01-22",0,2,6.7,0,0,1,31.779694444444445,-95.70630555555556
"KPRX","COX FIELD","USA","20-01-22","""2020-01-22T15:56:00.000Z""","KPRX 221556Z AUTO 14013KT 7SM -RA OVC005 01/00 A3017 RMK AO2 SLP235 P0003 T00060000 FZRANO 20-01-22",0,0,0,2.5,0,0,33.63661111111111,-95.45075
"KPSX","PALACIOS MUNI","USA","20-01-22","""2020-01-22T15:53:00.000Z""","KPSX 221553Z AUTO 13015G23KT 6SM HZ BKN025 OVC030 16/13 A3010 RMK AO2 RAE44 SLP193 P0002 T01610128 20-01-22",0,2,0,0,0,0,28.7275,-96.25094444444444
"KRND","RANDOLF AFB","USA","20-01-22","""2020-01-22T16:28:00.000Z""","KRND 221628Z 16006KT 10SM OVC003 12/12 A3006 RMK AO2A DZE08DZB09E28 CIG 002 RWY15R PRESRR SLP179 20-01-22",0,0,0,0,0,0,29.528905555555554,-98.27803055555556
"KRKP","ARANSAS CO","USA","20-01-22","""2020-01-22T16:25:00.000Z""","KRKP 221625Z AUTO 14009KT 1SM RA BR OVC003 17/15 A3008 RMK AO2 P0007 T01720150 20-01-22",0,0,3.3,0,0,1,28.086222222222222,-97.04369444444444
"KPRS","PRESIDIO LELY INTL, TX","USA","20-01-22","""2020-01-22T16:15:00.000Z""","KPRS 221615Z AUTO 00000KT 10SM CLR 12/04 A3006 RMK AO2 T01240036 20-01-22",0,0,0,0,0,0,29.63421111111111,-104.36149444444443
"KPVW","HALE COUNTY","USA","20-01-22","""2020-01-22T16:15:00.000Z""","KPVW 221615Z AUTO 27011KT 10SM CLR 07/04 A2984 RMK AO2 T00720042 20-01-22",0,0,0,0,0,0,34.16814722222222,-101.71733611111111
"KSNK","WINSTON FIELD","USA","20-01-22","""2020-01-22T16:15:00.000Z""","KSNK 221615Z AUTO 20012KT 10SM OVC008 09/09 A2994 RMK AO2 T00860085 20-01-22",0,0,0,0,0,0,32.69338888888888,-100.95047222222223
"KSSF","STINSON MUNI","USA","20-01-22","""2020-01-22T15:53:00.000Z""","KSSF 221553Z 13008KT 10SM -RA OVC004 12/12 A3003 RMK AO2 SLP170 P0001 T01170117 20-01-22",0,0,0,0,0,0,29.336980555555556,-98.47104444444444
"KSJT","SAN ANGELO RGNL/MATHIS FIELD","USA","20-01-22","""2020-01-22T15:51:00.000Z""","KSJT 221551Z 21012G22KT 10SM OVC013 12/08 A2999 RMK AO2 SLP151 T01170083 20-01-22",0,2,0,0,0,0,31.35776388888889,-100.49630555555555
"KSAT","SAN ANTONIO INTL","USA","20-01-22","""2020-01-22T15:51:00.000Z""","KSAT 221551Z COR 12010KT 7SM -RA OVC004 12/11 A3004 RMK AO2 SLP163 P0001 T01220111 20-01-22",0,0,0,0,0,0,29.533955555555558,-98.46905555555556
"KSEP","STEPHENVILLE CLARK RGNL","USA","20-01-22","""2020-01-22T16:15:00.000Z""","KSEP 221615Z AUTO 16009G16KT 10SM OVC005 07/06 A3006 RMK AO2 T00650055 20-01-22",0,2,0,0,0,0,32.215333333333334,-98.17766666666667
"KSLR","SULPHUR SPRINGS MUNI","USA","20-01-22","""2020-01-22T16:15:00.000Z""","KSLR 221615Z AUTO 12011KT 2 1/2SM -RA BKN007 BKN012 OVC023 03/03 A3018 RMK AO2 P0001 T00250025 20-01-22",0,0,0,2.5,0,1,33.15983333333333,-95.62113888888888
"KSWW","AVENGER FIELD","USA","20-01-22","""2020-01-22T16:15:00.000Z""","KSWW 221615Z AUTO 19021G24KT 10SM SCT120 12/09 A2995 RMK AO2 T01170090 20-01-22",0,6,0,0,0,0,32.46736111111111,-100.46655555555556
"KTRL","TERRELL MUNI","USA","20-01-22","""2020-01-22T16:13:00.000Z""","KTRL 221613Z AUTO 13010KT 4SM -RA BR OVC009 04/02 A3013 RMK AO2 RAB10 CIG 007V012 P0000 T00390022 20-01-22",0,0,0,0,0,0,32.70849444444445,-96.26709444444444
"KTYR","TYLER POUNDS RGNL","USA","20-01-22","""2020-01-22T15:53:00.000Z""","KTYR 221553Z 13012KT 2SM -RA BR BKN007 OVC037 03/01 A3016 RMK AO2 SLP213 P0001 T00280011 20-01-22",0,0,0,7.5,0,1,32.353830555555554,-95.40268888888889
"KACT","WACO RGNL","USA","20-01-22","""2020-01-22T15:51:00.000Z""","KACT 221551Z 15011KT 5SM -RA BR OVC007 06/05 A3010 RMK AO2 SLP193 P0002 T00610050 20-01-22",0,0,0,0,0,0,31.612194444444444,-97.23030555555556
"KTPL","DRAUGHON-MILLER CENTRAL TEXAS RGNL","USA","20-01-22","""2020-01-22T15:51:00.000Z""","KTPL 221551Z AUTO 12009KT 9SM -RA OVC005 07/07 A3010 RMK AO2 SLP189 P0003 T00670067 20-01-22",0,0,0,0,0,0,31.151899999999998,-97.40766111111111
"KVCT","VICTORIA RGNL","USA","20-01-22","""2020-01-22T15:51:00.000Z""","KVCT 221551Z 10008KT 1 3/4SM -RA BR OVC003 14/12 A3010 RMK AO2 SLP193 P0006 T01390122 20-01-22",0,0,0,0,0,1,28.852544444444447,-96.91848611111112
"KCNW","TSTC WACO","USA","20-01-22","""2020-01-22T15:55:00.000Z""","KCNW 221555Z 14009G18KT 5SM -RA OVC008 06/06 A3012 20-01-22",0,2,0,0,0,0,31.637805555555556,-97.07413888888888
"KINK","WINKLER COUNTY","USA","20-01-22","""2020-01-22T15:53:00.000Z""","KINK 221553Z AUTO 17003KT 10SM CLR 08/05 A2996 RMK AO2 SLP132 T00830050 20-01-22",0,0,0,0,0,0,31.779805555555555,-103.20169444444444
"KSPS","SHEPPARD AFB/WICHITA FALLS MUNI","USA","20-01-22","""2020-01-22T15:52:00.000Z""","KSPS 221552Z 16021G27KT 2SM -RA BR OVC005 06/06 A2996 RMK AO2 PK WND 17028/1514 SLP147 P0001 T00610061 20-01-22",0,6,0,0,0,1,33.98880277777778,-98.49190277777778
"KHIF","HILL AFB","USA","20-01-22","""2020-01-22T16:20:00.000Z""","KHIF 221620Z 00000KT 2SM -RA BR FEW010 BKN028 OVC040 01/01 A3012 RMK AO2A SLP204 20-01-22",0,0,0,7.5,0,1,41.12393888888889,-111.9730388888889
"KSLC","SALT LAKE CITY INTL","USA","20-01-22","""2020-01-22T15:54:00.000Z""","KSLC 221554Z 00000KT 10SM FEW029 SCT045 OVC080 04/02 A3012 RMK AO2 RAB05E14 SLP198 VCSH P0000 T00440022 20-01-22",0,0,0,0,0,0,40.78838888888889,-111.97777222222223
"KBCE","BRYCE CANYON","USA","20-01-22","""2020-01-22T15:53:00.000Z""","KBCE 221553Z AUTO 00000KT 10SM CLR M07/M09 A3013 RMK AO2 SLP198 T10721089 20-01-22",0,0,0,2.5,0,0,37.70644444444445,-112.14580555555557
"KCDC","CEDAR CITY RGNL","USA","20-01-22","""2020-01-22T15:53:00.000Z""","KCDC 221553Z AUTO 04003KT 10SM CLR M01/M02 A3013 RMK AO2 SLP210 T10111022 20-01-22",0,0,0,2.5,0,0,37.700966666666666,-113.09884722222222
"KOGD","OGDEN-HINCKLEY","USA","20-01-22","""2020-01-22T16:33:00.000Z""","KOGD 221633Z 33003KT 2 1/2SM BR FEW009 BKN042 OVC055 03/01 A3013 RMK AO2 UPE1555B29E30RAB1555E31 P0001 T00280006 20-01-22",0,0,0,7.5,0,1,41.19566388888889,-112.01293611111112
"KVEL","VERNAL RGNL","USA","20-01-22","""2020-01-22T16:27:00.000Z""","KVEL 221627Z AUTO 00000KT 2 1/2SM BR OVC005 M04/M06 A3012 RMK AO2 T10441056 20-01-22",0,0,0,7.5,0,1,40.44090277777777,-109.50991944444445
"KMLF","MILFORD MUNI/BEN AND JUDY BRISCOE FIELD","USA","20-01-22","""2020-01-22T16:21:00.000Z""","KMLF 221621Z AUTO 21009KT 10SM FEW110 03/M01 A3014 RMK AO2 WSHFT 1603 T00331006 $ 20-01-22",0,0,0,0,0,0,38.42663333333333,-113.01327222222223
"KCNY","CANYONLANDS FIELD","USA","20-01-22","""2020-01-22T16:11:00.000Z""","KCNY 221611Z AUTO 00000KT 10SM OVC007 M02/M02 A3014 RMK AO2 CIG 005V010 T10171022 20-01-22",0,0,0,2.5,0,0,38.754955555555554,-109.75484444444444
"KLGU","LOGAN-CACHE","USA","20-01-22","""2020-01-22T16:02:00.000Z""","KLGU 221602Z AUTO 20008KT 3SM BR OVC050 02/00 A3012 RMK AO2 T00220000 20-01-22",0,0,0,7.5,0,0,41.79128333333333,-111.85160833333333
"KENV","WENDOVER","USA","20-01-22","""2020-01-22T15:56:00.000Z""","KENV 221556Z AUTO 28005KT 10SM OVC060 01/M02 A3014 RMK AO2 SLP228 T00111022 FZRANO 20-01-22",0,0,0,0,0,0,40.718722222222226,-114.02866666666667
"KPVU","PROVO MUNI","USA","20-01-22","""2020-01-22T15:56:00.000Z""","KPVU 221556Z VRB05KT 10SM -RA SCT025 BKN040 OVC045 02/01 A3013 RMK AO2 RAE06B35 SLP219 P0000 T00170011 20-01-22",0,0,0,2.5,0,0,40.21919444444445,-111.72336111111112
"KROA","ROANOKE RGNL/WOODRUM FIELD","USA","20-01-22","""2020-01-22T15:54:00.000Z""","KROA 221554Z 00000KT 10SM CLR M01/M09 A3048 RMK AO2 SLP333 T10061089 20-01-22",0,0,0,0,0,0,37.32546944444445,-79.97542777777778
"KPUC","CARBON COUNTY RGNL/BUCK DAVIS FIELD","USA","20-01-22","""2020-01-22T15:53:00.000Z""","KPUC 221553Z AUTO 00000KT M1/4SM FZFG VV001 M03/M04 A3009 RMK AO2 SLP241 T10331039 $ 20-01-22",0,0,10,10,0,0,39.61391666666667,-110.75144444444445
"KBCB","VIRGINIA TECH/MONTGOMERY EXECUTIVE","USA","20-01-22","""2020-01-22T16:35:00.000Z""","KBCB 221635Z AUTO 00000KT 10SM CLR 00/M09 A3041 RMK AO2 T00021094 20-01-22",0,0,0,0,0,0,37.207638888888894,-80.40783333333334
"KPSK","NEW RIVER VALLEY","USA","20-01-22","""2020-01-22T16:35:00.000Z""","KPSK 221635Z AUTO 00000KT 10SM CLR 00/M08 A3040 RMK AO2 T00001076 20-01-22",0,0,0,0,0,0,37.137344444444444,-80.67848055555557
"KCHO","CHARLOTTESVILLE-ALBEMARLE","USA","20-01-22","""2020-01-22T15:53:00.000Z""","KCHO 221553Z 00000KT 10SM CLR M01/M10 A3050 RMK AO2 SLP332 T10061100 20-01-22",0,0,0,0,0,0,38.13964166666667,-78.45234166666667
"KDAN","DANVILLE RGNL","USA","20-01-22","""2020-01-22T15:53:00.000Z""","KDAN 221553Z AUTO 05010KT 10SM CLR 01/M09 A3050 RMK AO2 SLP328 T00061094 20-01-22",0,0,0,0,0,0,36.572475000000004,-79.3362361111111
"KHSP","INGALLS FIELD","USA","20-01-22","""2020-01-22T16:15:00.000Z""","KHSP 221615Z AUTO 00000KT 10SM CLR 01/M16 A3031 RMK AO2 T00101158 20-01-22",0,0,0,0,0,0,37.95144444444445,-79.83389444444444
"KFKN","FRANKLIN MUNI-JOHN BEVERLY ROSE","USA","20-01-22","""2020-01-22T16:15:00.000Z""","KFKN 221615Z AUTO 01005KT 340V040 10SM CLR 03/M05 A3048 RMK AO2 T00261055 20-01-22",0,0,0,0,0,0,36.70030555555556,-76.9021388888889
"KFAF","FELKER AAF","USA","20-01-22","""2020-01-22T15:56:00.000Z""","KFAF 221556Z 02006KT 10SM CLR 03/M07 A3047 RMK AO2A SLP321 T00271070 $ 20-01-22",0,0,0,0,0,0,37.13245555555556,-76.60926111111111
"KDAA","DAVISON AAF","USA","20-01-22","""2020-01-22T15:56:00.000Z""","KDAA 221556Z AUTO 11003KT 10SM CLR 02/M10 A3052 RMK AO2 SLP339 T00151100 $ 20-01-22",0,0,0,0,0,0,38.71528055555556,-77.18139722222223
"KLFI","LANGLEY AFB","USA","20-01-22","""2020-01-22T15:56:00.000Z""","KLFI 221556Z 02012G18KT 10SM CLR 02/M04 A3050 RMK SLPNO RVRNO $ 20-01-22",0,2,0,0,0,0,37.082886111111115,-76.36053888888888
"KNGU","NORFOLK NS (CHAMBERS FLD)","USA","20-01-22","""2020-01-22T15:59:00.000Z""","KNGU 221559Z 01016KT 10SM CLR 04/M04 A3048 RMK AO2 SLP322 T00391039 20-01-22",0,2,0,0,0,0,36.937466666666666,-76.28927777777777
"KLYH","LYNCHBURG RGNL/PRESTON GLENN FLD","USA","20-01-22","""2020-01-22T15:54:00.000Z""","KLYH 221554Z 01005KT 10SM CLR 01/M11 A3049 RMK AO2 SLP333 T00061111 20-01-22",0,0,0,0,0,0,37.325388888888895,-79.20122222222223
"KPHF","NEWPORT NEWS/WILLIAMSBURG INTL","USA","20-01-22","""2020-01-22T15:54:00.000Z""","KPHF 221554Z 01011KT 10SM CLR 03/M06 A3049 RMK AO2 SLP324 T00331056 20-01-22",0,0,0,0,0,0,37.13188888888889,-76.49297222222222
"KORF","NORFOLK INTL","USA","20-01-22","""2020-01-22T15:51:00.000Z""","KORF 221551Z 36014KT 10SM CLR 04/M03 A3046 RMK AO2 SLP314 T00441033 20-01-22",0,0,0,0,0,0,36.89461111111111,-76.20122222222223
"KPTB","DINWIDDIE COUNTY","USA","20-01-22","""2020-01-22T16:35:00.000Z""","KPTB 221635Z AUTO 35004KT 10SM CLR 02/M09 A3049 RMK AO2 T00221089 20-01-22",0,0,0,0,0,0,37.183749999999996,-77.50738888888888
"KNYG","QUANTICO MCAF /TURNER FIELD","USA","20-01-22","""2020-01-22T15:56:00.000Z""","KNYG 221556Z 07003KT 10SM CLR 00/M09 A3054 RMK AO2 SLP343 T00001094 $ 20-01-22",0,0,0,0,0,0,38.50360555555555,-77.30503333333333
"KNTU","OCEANA NAS/APOLLO SOUCEK FIELD","USA","20-01-22","""2020-01-22T15:56:00.000Z""","KNTU 221556Z 35010KT 10SM CLR 05/M03 A3046 RMK AO2 SLP316 T00501033 20-01-22",0,0,0,0,0,0,36.82274166666667,-76.03189722222223
"KRIC","RICHMOND INTL","USA","20-01-22","""2020-01-22T15:54:00.000Z""","KRIC 221554Z 34004KT 10SM CLR 02/M07 A3051 RMK AO2 SLP340 T00171072 $ 20-01-22",0,0,0,0,0,0,37.50516666666667,-77.31966666666666
"KLNP","LONESOME PINE","USA","20-01-22","""2020-01-22T16:35:00.000Z""","KLNP 221635Z AUTO 14005KT 10SM CLR 05/M11 A3031 RMK AO2 20-01-22",0,0,0,0,0,0,36.98752777777778,-82.53
"KSHD","SHENANDOAH VALLEY RGNL","USA","20-01-22","""2020-01-22T16:15:00.000Z""","KSHD 221615Z AUTO 15004KT 10SM CLR 00/M10 A3047 RMK AO2 T10051098 20-01-22",0,0,0,0,0,0,38.26383333333333,-78.89644444444446
"KIAD","WASHINGTON DULLES INTL","USA","20-01-22","""2020-01-22T15:52:00.000Z""","KIAD 221552Z 30003KT 10SM CLR 00/M11 A3051 RMK AO2 SLP334 T00001106 20-01-22",0,0,0,0,0,0,38.94744444444444,-77.45994444444445
"KEFK","NEWPORT STATE","USA","20-01-22","""2020-01-22T16:19:00.000Z""","KEFK 221619Z AUTO 16008KT 10SM CLR M03/M08 A3031 RMK AO2 T10301081 20-01-22",0,0,0,0,0,0,44.887994444444445,-72.22858333333333
"KRUT","RUTLAND-SOUTHERN VERMONT RGNL","USA","20-01-22","""2020-01-22T15:56:00.000Z""","KRUT 221556Z AUTO VRB03KT 10SM FEW025 M03/M08 A3039 RMK AO2 SLP299 T10281078 FZRANO $ 20-01-22",0,0,0,0,0,0,43.529916666666665,-72.9496388888889
"KBTV","BURLINGTON INTL","USA","20-01-22","""2020-01-22T15:54:00.000Z""","KBTV 221554Z 20013KT 10SM SCT200 M01/M07 A3035 RMK AO2 SLP283 T10111072 20-01-22",0,0,0,0,0,0,44.47195555555556,-73.15327777777779
"KMVL","MORRISVILLE-STOWE STATE","USA","20-01-22","""2020-01-22T15:54:00.000Z""","KMVL 221554Z AUTO 17007KT 10SM CLR M02/M08 A3033 RMK AO2 SLP285 T10171078 20-01-22",0,0,0,0,0,0,44.53435277777778,-72.61399166666666
"KVSF","HARTNESS STATE (SPRINGFIELD)","USA","20-01-22","""2020-01-22T15:54:00.000Z""","KVSF 221554Z AUTO 00000KT 10SM CLR M07/M13 A3041 RMK AO2 SLP310 T10671133 20-01-22",0,0,0,0,0,0,43.343722222222226,-72.51727777777778
"KMPV","EDWARD F KNAPP STATE","USA","20-01-22","""2020-01-22T15:51:00.000Z""","KMPV 221551Z AUTO 16009KT 10SM CLR M04/M09 A3036 RMK AO2 SLP304 T10391094 20-01-22",0,0,0,0,0,0,44.20348888888889,-72.56209722222222
"KPWT","BREMERTON NATIONAL","USA","20-01-22","""2020-01-22T16:35:00.000Z""","KPWT 221635Z AUTO 20009KT 10SM -RA OVC007 06/06 A3002 RMK AO2 CIG 004V009 P0001 20-01-22",0,0,0,0,0,0,47.49025,-122.76480555555555
"KCLS","CHEHALIS-CENTRALIA","USA","20-01-22","""2020-01-22T16:35:00.000Z""","KCLS 221635Z AUTO VRB06KT 10SM BKN014 BKN050 07/07 A3002 RMK AO2 20-01-22",0,0,0,0,0,0,46.677027777777774,-122.98275
"KELN","BOWERS FIELD","USA","20-01-22","""2020-01-22T16:06:00.000Z""","KELN 221606Z AUTO 00000KT 3SM HZ SCT001 OVC060 M01/M03 A3002 RMK AO2 T10061033 20-01-22",0,0,0,2.5,0,1,47.033027777777775,-120.53069444444445
"KEPH","EPHRATA MUNI","USA","20-01-22","""2020-01-22T15:53:00.000Z""","KEPH 221553Z AUTO 35005KT 3SM BR FEW001 M02/M02 A3002 RMK AO2 SLP179 I1001 T10171022 20-01-22",0,0,0,7.5,0,1,47.30806944444444,-119.51691111111111
"KBLI","BELLINGHAM INTL","USA","20-01-22","""2020-01-22T15:53:00.000Z""","KBLI 221553Z 15007KT 10SM OVC033 07/04 A3000 RMK AO2 SLP166 T00720039 20-01-22",0,0,0,0,0,0,48.79269444444444,-122.53752777777778
"KPAE","SNOHOMISH COUNTY (PAINE FLD)","USA","20-01-22","""2020-01-22T15:53:00.000Z""","KPAE 221553Z 17010KT 10SM OVC085 06/04 A3000 RMK AO2 SLP163 T00610039 20-01-22",0,0,0,0,0,0,47.907,-122.28158333333333
"KHQM","BOWERMAN","USA","20-01-22","""2020-01-22T16:34:00.000Z""","KHQM 221634Z AUTO 08011KT 10SM -RA FEW015 FEW025 OVC029 07/07 A2995 RMK AO2 P0003 T00670067 20-01-22",0,0,0,0,0,0,46.97119444444445,-123.93655555555556
"KOMK","OMAK","USA","20-01-22","""2020-01-22T16:26:00.000Z""","KOMK 221626Z AUTO 00000KT M1/4SM FZFG VV005 M07/M09 A3003 RMK AO2 T10671089 20-01-22",0,0,10,10,0,0,48.46441666666667,-119.51805555555555
"KOLM","OLYMPIA RGNL","USA","20-01-22","""2020-01-22T16:24:00.000Z""","KOLM 221624Z 18004KT 9SM -RA BKN017 OVC040 06/06 A3001 RMK AO2 P0001 T00610056 20-01-22",0,0,0,0,0,0,46.96940277777778,-122.90254444444444
"KGRF","GRAY AAF (JOINT BASE LEWIS-MCCHORD)","USA","20-01-22","""2020-01-22T16:23:00.000Z""","KGRF 221623Z AUTO 00000KT 10SM -RA FEW022 SCT045 06/06 A3001 RMK AO2 RAE02RAB23 SLP168 $ 20-01-22",0,0,0,0,0,0,47.07922222222223,-122.58077777777777
"KSKA","FAIRCHILD AFB","USA","20-01-22","""2020-01-22T15:58:00.000Z""","KSKA 221558Z 21003KT 10SM CLR M01/M01 A3000 RMK AO2A SLP183 T10111011 $ 20-01-22",0,0,0,2.5,0,0,47.61505555555556,-117.65580555555556
"KKLS","SOUTHWEST WASHINGTON RGNL","USA","20-01-22","""2020-01-22T15:56:00.000Z""","KKLS 221556Z AUTO 15010KT 10SM -RA OVC012 08/06 A3005 RMK AO2 SLP179 P0000 T00780061 20-01-22",0,0,0,0,0,0,46.118,-122.89838888888889
"KPSC","TRI-CITIES, WA","USA","20-01-22","""2020-01-22T15:53:00.000Z""","KPSC 221553Z 13005KT 10SM BKN070 OVC090 06/01 A3008 RMK AO2 SLP189 T00610006 20-01-22",0,0,0,0,0,0,46.264694444444444,-119.11902777777777
"KMWH","GRANT CO INTL","USA","20-01-22","""2020-01-22T15:52:00.000Z""","KMWH 221552Z 01004KT 10SM CLR M01/M03 A3003 RMK AO2 SLP180 T10111033 20-01-22",0,0,0,2.5,0,0,47.20858333333334,-119.31913888888889
"KBFI","BOEING FIELD/KING COUNTRY INTL","USA","20-01-22","""2020-01-22T15:53:00.000Z""","KBFI 221553Z 16005KT 10SM -RA SCT036 OVC055 07/04 A3003 RMK AO2 RAB22 SLP167 P0000 T00720044 20-01-22",0,0,0,0,0,0,47.53,-122.30197222222222
"KTIW","TACOMA NARROWS","USA","20-01-22","""2020-01-22T15:53:00.000Z""","KTIW 221553Z 18003KT 10SM -RA FEW006 SCT027 OVC039 06/05 A3001 RMK AO2 SLP165 P0000 T00560050 20-01-22",0,0,0,0,0,0,47.267944444444446,-122.57811111111111
"KSHN","SANDERSON FIELD","USA","20-01-22","""2020-01-22T15:53:00.000Z""","KSHN 221553Z AUTO 14004KT 10SM -RA SCT030 OVC037 06/05 A2998 RMK AO2 SLP157 P0004 T00560050 20-01-22",0,0,0,0,0,0,47.233555555555554,-123.14755555555556
"KSFF","FELTS FIELD","USA","20-01-22","""2020-01-22T15:53:00.000Z""","KSFF 221553Z 03004KT 10SM CLR 01/M02 A3004 RMK AO2 SLP185 T00111017 20-01-22",0,0,0,0,0,0,47.682944444444445,-117.32241666666667
"KSEA","SEATTLE-TACOMA INTL","USA","20-01-22","""2020-01-22T15:53:00.000Z""","KSEA 221553Z 18007KT 10SM -RA FEW015 OVC036 07/05 A3002 RMK AO2 RAB19 SLP172 P0001 T00670050 20-01-22",0,0,0,0,0,0,47.449888888888886,-122.31177777777778
"KRNT","RENTON MUNI","USA","20-01-22","""2020-01-22T15:53:00.000Z""","KRNT 221553Z 00000KT 10SM -RA OVC044 07/04 A3003 RMK AO2 RAB26 SLP173 P0000 T00670044 20-01-22",0,0,0,0,0,0,47.49313888888889,-122.21575
"KPUW","PULLMAN/MOSCOW RGNL","USA","20-01-22","""2020-01-22T15:53:00.000Z""","KPUW 221553Z AUTO 00000KT 10SM CLR 01/M03 A3007 RMK AO2 SLP203 T00061028 20-01-22",0,0,0,0,0,0,46.74386111111111,-117.10958333333333
"KGEG","SPOKANE INTL","USA","20-01-22","""2020-01-22T15:53:00.000Z""","KGEG 221553Z 20007KT 10SM FEW010 SCT100 BKN230 M01/M03 A3001 RMK AO2 SLP181 T10061028 20-01-22",0,0,0,2.5,0,0,47.61902777777778,-117.53522222222222
"KUIL","QUILLAYUTE","USA","20-01-22","""2020-01-22T15:53:00.000Z""","KUIL 221553Z AUTO 12006KT 6SM -RA BR FEW027 OVC036 07/06 A2992 RMK AO2 RAB23 SLP133 P0001 T00670056 20-01-22",0,0,0,0,0,0,47.93658333333333,-124.56263333333332
"KTCM","MCCHORD FIELD (JOINT BASE LEWIS-MCCHORD)","USA","20-01-22","""2020-01-22T16:08:00.000Z""","KTCM 221608Z AUTO 16004KT 10SM FEW028 BKN035 BKN046 06/06 A3002 RMK AO2 RAE08 SLP171 $ 20-01-22",0,0,0,0,0,0,47.138975,-122.4766861111111
"KNUW","WHIDBEY ISLAND NAS /AULT FIELD/","USA","20-01-22","""2020-01-22T15:56:00.000Z""","KNUW 221556Z 13008KT 9SM FEW015 BKN021 OVC026 09/04 A3002 RMK AO2 SLP166 T00890039 $ 20-01-22",0,0,0,0,0,0,48.351841666666665,-122.65595833333334
"KEAT","PANGBORN MEMORIAL","USA","20-01-22","""2020-01-22T15:55:00.000Z""","KEAT 221555Z AUTO 10003KT 10SM OVC070 M02/M03 A3001 RMK AO2 SLP177 T10221033 20-01-22",0,0,0,2.5,0,0,47.398088888888886,-120.20573611111111
"KGRB","AUSTIN STRAUBEL INTL","USA","20-01-22","""2020-01-22T15:53:00.000Z""","KGRB 221553Z 20013KT 10SM SCT120 M03/M07 A3005 RMK AO2 SLP189 T10281072 20-01-22",0,0,0,0,0,0,44.48463888888889,-88.12972222222221
"KALW","WALLA WALLA RGNL","USA","20-01-22","""2020-01-22T15:53:00.000Z""","KALW 221553Z 15004KT 10SM OVC060 06/M01 A3008 RMK AO2 SLP192 T00561011 20-01-22",0,0,0,0,0,0,46.095197222222225,-118.28594166666666
"KYKM","YAKIMA AIR TERMINAL/MCALLISTER FIELD","USA","20-01-22","""2020-01-22T15:53:00.000Z""","KYKM 221553Z 33003KT 6SM BR BKN070 OVC120 M01/M03 A3005 RMK AO2 SLP187 T10111028 20-01-22",0,0,0,7.5,0,0,46.56816666666667,-120.54405555555556
"KDLL","BARABOO WISCONSIN DELLS","USA","20-01-22","""2020-01-22T16:35:00.000Z""","KDLL 221635Z AUTO 19010KT 10SM OVC017 M03/M06 A3007 RMK AO2 T10351065 20-01-22",0,0,0,0,0,0,43.52202777777778,-89.77125
"KEGV","EAGLE RIVER UNION","USA","20-01-22","""2020-01-22T16:35:00.000Z""","KEGV 221635Z AUTO 22007KT 7SM OVC007 M03/M05 A2990 RMK AO2 T10351055 20-01-22",0,0,0,2.5,0,0,45.93233333333333,-89.26827777777778
"KEAU","CHIPPEWA VALLEY RGNL","USA","20-01-22","""2020-01-22T16:28:00.000Z""","KEAU 221628Z 19008KT 1SM -SN BR OVC013 00/M02 A2994 RMK AO2 P0000 T00001017 20-01-22",0,0,6.7,7.5,0,1,44.86580277777778,-91.48425277777778
"KCLI","CLINTONVILLE MUNI","USA","20-01-22","""2020-01-22T16:15:00.000Z""","KCLI 221615Z AUTO 22011KT 10SM OVC021 M02/M06 A3003 RMK AO2 T10221065 20-01-22",0,0,0,0,0,0,44.61327777777778,-88.73069722222222
"KASX","JOHN F KENNEDY MEMORIAL","USA","20-01-22","""2020-01-22T15:53:00.000Z""","KASX 221553Z AUTO 19006KT 7SM OVC012 M02/M05 A2988 RMK AO2 SLP130 T10221050 20-01-22",0,0,0,0,0,0,46.54852777777778,-90.91897222222222
"KUNU","DODGE COUNTY","USA","20-01-22","""2020-01-22T16:35:00.000Z""","KUNU 221635Z AUTO 19013G16KT 10SM CLR M04/M07 A3012 RMK AO2 T10371070 20-01-22",0,2,0,0,0,0,43.42647222222222,-88.70386111111111
"KLSE","LA CROSSE RGNL","USA","20-01-22","""2020-01-22T16:35:00.000Z""","KLSE 221635Z 16012KT 9SM UP BKN021 OVC055 M01/M05 A3002 RMK AO2 UPE1558B20SNB04E20 P0001 T10061050 20-01-22",0,0,3.3,2.5,0,0,43.879263888888886,-91.2566361111111
"KLNR","TRI-COUNTY RGNL","USA","20-01-22","""2020-01-22T15:56:00.000Z""","KLNR 221556Z AUTO 19008KT 10SM FEW024 M02/M07 A3010 RMK AO2 SLP200 T10221067 20-01-22",0,0,0,0,0,0,43.21186111111111,-90.17983333333333
"KHYR","SAWYER COUNTY","USA","20-01-22","""2020-01-22T15:53:00.000Z""","KHYR 221553Z AUTO 20011KT 2 1/2SM BR OVC005 M02/M04 A2988 RMK AO2 SLP137 I1000 T10221039 20-01-22",0,0,0,7.5,0,1,46.02526388888889,-91.4442638888889
"KMSN","DANE COUNTY RGNL-TRUAX FIELD","USA","20-01-22","""2020-01-22T15:53:00.000Z""","KMSN 221553Z 20013G20KT 10SM OVC180 M04/M07 A3011 RMK AO2 SLP211 T10391072 20-01-22",0,2,0,0,0,0,43.13987777777778,-89.33750277777777
"KFLD","FOND DU LAC COUNTY","USA","20-01-22","""2020-01-22T15:53:00.000Z""","KFLD 221553Z AUTO 20010G20KT 10SM CLR M02/M07 A3009 RMK AO2 SLP201 T10221072 20-01-22",0,2,0,0,0,0,43.771175,-88.48843055555555
"KENW","KENOSHA RGNL","USA","20-01-22","""2020-01-22T15:53:00.000Z""","KENW 221553Z 22010G20KT 10SM CLR M01/M07 A3017 RMK AO2 SLP227 T10111072 20-01-22",0,2,0,0,0,0,42.59569444444445,-87.92780555555557
"KJVL","SOUTHERN WISCONSIN RGNL","USA","20-01-22","""2020-01-22T15:45:00.000Z""","KJVL 221545Z 20011KT 10SM BKN150 OVC200 M03/M06 A3015 20-01-22",0,0,0,0,0,0,42.62025,-89.04155555555555
"KRRL","MERRILL MUNI","USA","20-01-22","""2020-01-22T16:35:00.000Z""","KRRL 221635Z AUTO 21005KT 1 1/4SM -SN SCT009 SCT015 OVC021 M03/M04 A2997 RMK AO2 T10311045 TSNO 20-01-22",0,0,6.7,7.5,0,1,45.19891666666666,-89.71286111111111
"KMFI","MARSHFIELD MUNI","USA","20-01-22","""2020-01-22T16:24:00.000Z""","KMFI 221624Z AUTO 20011KT 1 3/4SM -SN BR OVC015 M02/M04 A2997 RMK AO2 P0000 T10171039 20-01-22",0,0,6.7,7.5,0,0,44.63688055555556,-90.18932777777778
"KMTW","MANITOWOC COUNTY","USA","20-01-22","""2020-01-22T15:56:00.000Z""","KMTW 221556Z AUTO 21008KT 10SM CLR 00/M06 A3009 RMK AO2 SLP198 T00001056 FZRANO 20-01-22",0,0,0,0,0,0,44.12877777777778,-87.68058333333333
"KMKE","GENERAL MITCHELL INTL","USA","20-01-22","""2020-01-22T15:52:00.000Z""","KMKE 221552Z 23017G25KT 10SM BKN200 OVC250 M01/M07 A3015 RMK AO2 PK WND 23026/1541 SLP219 T10111072 20-01-22",0,4,0,0,0,0,42.94694444444444,-87.89705555555557
"KMWC","LAWRENCE J TIMMERMAN","USA","20-01-22","""2020-01-22T15:45:00.000Z""","KMWC 221545Z 20010KT 10SM SKC M02/M08 A3014 20-01-22",0,0,0,0,0,0,43.11038888888889,-88.03441666666666
"KARV","LAKELAND/NOBLE F. LEE MEMORIAL FIELD","USA","20-01-22","""2020-01-22T16:35:00.000Z""","KARV 221635Z AUTO 22009G14KT 5SM BR OVC006 M01/M03 A2989 RMK AO2 T10151026 20-01-22",0,2,0,7.5,0,0,45.92791666666666,-89.73094444444445
"KCWA","CENTRAL WISCONSIN","USA","20-01-22","""2020-01-22T16:22:00.000Z""","KCWA 221622Z 19010KT 2SM -SN BKN018 OVC023 M03/M05 A2999 20-01-22",0,0,6.7,7.5,0,0,44.77762222222222,-89.66677777777778
"KRNH","NEW RICHMOND RGNL","USA","20-01-22","""2020-01-22T16:15:00.000Z""","KRNH 221615Z AUTO 20010KT 10SM OVC010 01/M01 A2990 RMK AO2 T00101015 20-01-22",0,0,0,2.5,0,0,45.147777777777776,-92.53916666666666
"KOEO","L O SIMENSTAD MUNI","USA","20-01-22","""2020-01-22T16:15:00.000Z""","KOEO 221615Z AUTO 17009KT 10SM OVC011 01/00 A2992 RMK AO2 T00100000 20-01-22",0,0,0,2.5,0,0,45.30934166666666,-92.69012222222223
"KOSH","WITTMAN RGNL","USA","20-01-22","""2020-01-22T15:53:00.000Z""","KOSH 221553Z 20017G25KT 8SM CLR M03/M07 A3007 RMK AO2 PK WND 20029/1504 SLP201 T10331072 20-01-22",0,4,0,0,0,0,43.98448888888889,-88.55693333333333
"KCMY","SPARTA/FORT MC COY","USA","20-01-22","""2020-01-22T16:35:00.000Z""","KCMY 221635Z AUTO 18007KT 10SM UP OVC018 M01/M04 A3004 RMK AO2 T10101045 20-01-22",0,0,3.3,2.5,0,0,43.95829166666667,-90.73793333333333
"KSTE","STEVENS POINT MUNI","USA","20-01-22","""2020-01-22T16:15:00.000Z""","KSTE 221615Z AUTO 21010G14KT 5SM UP OVC018 M03/M06 A3002 RMK AO2 T10311060 20-01-22",0,2,3.3,2.5,0,0,44.54513611111111,-89.53028333333333
"KSUE","DOOR COUNTY CHERRYLAND","USA","20-01-22","""2020-01-22T15:56:00.000Z""","KSUE 221556Z AUTO 22015G22KT 10SM BKN025 BKN100 M02/M06 A3004 RMK AO2 SLP183 T10171056 FZRANO $ 20-01-22",0,2,0,0,0,0,44.84366666666667,-87.42152777777778
"KRAC","JOHN H BATTEN","USA","20-01-22","""2020-01-22T15:53:00.000Z""","KRAC 221553Z AUTO 22014G23KT 10SM CLR M02/M07 A3018 RMK AO2 SLP228 T10171072 20-01-22",0,2,0,0,0,0,42.76116666666667,-87.81391666666666
"KRHI","RHINELANDER-ONEIDA COUNTY","USA","20-01-22","""2020-01-22T15:53:00.000Z""","KRHI 221553Z AUTO 24009G17KT 7SM OVC009 M04/M07 A2991 RMK AO2 SLP157 T10441067 20-01-22",0,2,0,0,0,0,45.630897222222224,-89.46662777777777
"KSBM","SHEBOYGAN COUNTY MEMORIAL","USA","20-01-22","""2020-01-22T15:53:00.000Z""","KSBM 221553Z AUTO 21016KT 10SM CLR M02/M07 A3010 RMK AO2 SLP204 T10221067 20-01-22",0,2,0,0,0,0,43.76976944444444,-87.85172222222222
"KSUW","RICHARD I BONG","USA","20-01-22","""2020-01-22T16:35:00.000Z""","KSUW 221635Z AUTO 23003KT 10SM OVC013 M02/M04 A2987 RMK AO2 T10161045 20-01-22",0,0,0,2.5,0,0,46.68968333333333,-92.09464166666666
"KETB","WEST BEND MUNI","USA","20-01-22","""2020-01-22T16:35:00.000Z""","KETB 221635Z AUTO 22010G15KT 10SM CLR M01/M06 A3012 RMK AO2 20-01-22",0,2,0,0,0,0,43.42216666666666,-88.12791666666666
"KAUW","WAUSAU DOWNTOWN","USA","20-01-22","""2020-01-22T16:31:00.000Z""","KAUW 221631Z AUTO 20010KT 1 1/2SM -SN BR BKN024 OVC031 M03/M05 A2997 RMK AO2 P0001 T10331050 20-01-22",0,0,6.7,7.5,0,0,44.92628333333333,-89.627
"KVOK","VOLK FIELD","USA","20-01-22","""2020-01-22T16:26:00.000Z""","KVOK 221626Z 20005KT 10SM SCT018 OVC032 M01/M05 A3003 RMK AO2A 20-01-22",0,0,0,0,0,0,43.93923888888889,-90.25316111111111
"KUES","WAUKESHA COUNTY","USA","20-01-22","""2020-01-22T15:45:00.000Z""","KUES 221545Z 20014KT 10SM SKC M03/M08 A3014 20-01-22",0,0,0,0,0,0,43.04102777777778,-88.23705555555556
"KLWB","GREENBRIER VALLEY","USA","20-01-22","""2020-01-22T15:55:00.000Z""","KLWB 221555Z 02004KT 10SM SKC M03/M08 A3039 20-01-22",0,0,0,0,0,0,37.85830555555556,-80.39947222222223
"KCRW","YEAGER","USA","20-01-22","""2020-01-22T15:54:00.000Z""","KCRW 221554Z 00000KT 10SM FEW250 M03/M08 A3042 RMK AO2 SLP312 T10281078 20-01-22",0,0,0,0,0,0,38.375927777777775,-81.59300277777777
"KISW","ALEXANDER FIELD SOUTH WOOD COUNTY","USA","20-01-22","""2020-01-22T15:54:00.000Z""","KISW 221554Z AUTO 20013G19KT 9SM UP FEW019 OVC065 M03/M07 A3002 RMK AO2 UPE04B53 SLP184 P0000 T10281067 20-01-22",0,2,3.3,2.5,0,0,44.360644444444446,-89.83813888888888
"KCKB","NORTH CENTRAL WEST VIRGINIA","USA","20-01-22","""2020-01-22T15:53:00.000Z""","KCKB 221553Z 10003KT 10SM CLR M02/M08 A3041 RMK AO2 SLP309 T10221083 20-01-22",0,0,0,0,0,0,39.29765277777778,-80.22753055555556
"KMRB","EASTERN WV RGNL/SHEPHERD FFD","USA","20-01-22","""2020-01-22T15:53:00.000Z""","KMRB 221553Z 00000KT CLR M01/ A3048 RMK AO2 SLP331 T1006 $ 20-01-22",0,0,0,0,0,0,39.40235555555555,-77.98299722222222
"KBLF","MERCER COUNTY","USA","20-01-22","""2020-01-22T15:52:00.000Z""","KBLF 221552Z AUTO 10005KT 10SM CLR M01/M12 A3034 RMK AO2 SLP306 T10111117 TSNO 20-01-22",0,0,0,0,0,0,37.29594722222222,-81.20751666666666
"KHTS","TRI-STATE/MILTON J.FERGUSON FIELD","USA","20-01-22","""2020-01-22T15:51:00.000Z""","KHTS 221551Z 11005KT 10SM CLR M02/M08 A3041 RMK AO2 SLP309 T10221078 $ 20-01-22",0,0,0,0,0,0,38.36850555555556,-82.56035833333333
"KEKN","ELKINS-RANDOLPH CO-JENNINGS RANDOLPH FLD ","USA","20-01-22","""2020-01-22T15:51:00.000Z""","KEKN 221551Z AUTO 00000KT 10SM CLR M04/M09 A3038 RMK AO2 SLP326 T10441094 $ 20-01-22",0,0,0,0,0,0,38.88944444444444,-79.85713888888888
"KBKW","RALEIGH COUNTY MEMORIAL","USA","20-01-22","""2020-01-22T15:51:00.000Z""","KBKW 221551Z AUTO 14007KT 10SM CLR 00/M12 A3035 RMK AO2 SLP319 T00001122 20-01-22",0,0,0,0,0,0,37.78733333333333,-81.12416666666665
"KAFO","AFTON MUNI","USA","20-01-22","""2020-01-22T16:15:00.000Z""","KAFO 221615Z AUTO 35005KT 10SM SCT033 OVC043 M02/M08 A3005 RMK AO2 20-01-22",0,0,0,0,0,0,42.70877777777778,-110.94216666666667
"KBPI","MILEY MEMORIAL FIELD","USA","20-01-22","""2020-01-22T15:53:00.000Z""","KBPI 221553Z AUTO 36014G22KT 10SM CLR M06/M11 A2999 RMK AO2 WSHFT 1525 SLP197 T10561111 20-01-22",0,2,0,0,0,0,42.58222222222223,-110.10886111111111
"KBYG","JOHNSON COUNTY","USA","20-01-22","""2020-01-22T15:53:00.000Z""","KBYG 221553Z AUTO 33024G37KT 10SM FEW080 SCT095 BKN110 01/M04 A2983 RMK AO2 PK WND 33042/1541 SLP109 T00111039 20-01-22",0,6,0,0,0,0,44.381083333333336,-106.72180555555556
"KHLG","WHEELING OHIO CO","USA","20-01-22","""2020-01-22T15:53:00.000Z""","KHLG 221553Z 22005KT 10SM CLR M03/M10 A3041 RMK AO2 SLP319 T10281100 20-01-22",0,0,0,0,0,0,40.175,-80.64627777777778
"KMGW","MORGANTOWN MUNI-WALTER L. BILL HART FLD","USA","20-01-22","""2020-01-22T15:53:00.000Z""","KMGW 221553Z 00000KT 10SM CLR M02/M08 A3042 RMK AO2 SLP318 T10171078 20-01-22",0,0,0,0,0,0,39.643594444444446,-79.91754444444445
"KPKB","MID-OHIO VALLEY RGNL","USA","20-01-22","""2020-01-22T15:53:00.000Z""","KPKB 221553Z 17004KT 10SM CLR M02/M08 A3044 RMK AO2 SLP319 T10221083 $ 20-01-22",0,0,0,0,0,0,39.344972222222225,-81.43930555555556
"KEVW","EVANSTON-UINTA COUNTY BURNS FIELD","USA","20-01-22","""2020-01-22T16:23:00.000Z""","KEVW 221623Z AUTO 27010KT 1/4SM +SN FZFG OVC007 M02/M03 A3005 RMK AO2 P0000 T10171028 20-01-22",0,0,10,10,0,1,41.27477777777778,-111.03463888888889
"KFEW","FRANCIS E WARREN AFB","USA","20-01-22","""2020-01-22T15:57:00.000Z""","KFEW 221557Z AUTO 31014G22KT 10SM BKN170 02/M07 A2986 RMK AO2 SLP118 T00241067 $ 20-01-22",0,2,0,0,0,0,41.1333056666667,-104.867166666667
"KCOD","YELLOWSTONE RGNL","USA","20-01-22","""2020-01-22T15:56:00.000Z""","KCOD 221556Z AUTO 21006G16KT 10SM SCT060 M01/M03 A2990 RMK AO2 UPE16SNB16E25 SLP143 P0000 T10061033 FZRANO 20-01-22",0,2,0,2.5,0,0,44.52019444444444,-109.02379722222223
"KCPR","CASPER/NATRONA COUNTY INTL","USA","20-01-22","""2020-01-22T15:53:00.000Z""","KCPR 221553Z 21021G29KT 10SM CLR 02/M06 A2983 RMK AO2 PK WND 22029/1547 SLP108 T00171061 20-01-22",0,6,0,0,0,0,42.90586111111111,-106.4636388888889
"KCYS","CHEYENNE RGNL/JERRY OLSON FIELD","USA","20-01-22","""2020-01-22T15:53:00.000Z""","KCYS 221553Z 31017G25KT 10SM CLR 02/M07 A2984 RMK AO2 PK WND 29032/1501 SLP099 T00221067 20-01-22",0,4,0,0,0,0,41.15563888888889,-104.81047222222222
"KDGW","CONVERSE COUNTY","USA","20-01-22","""2020-01-22T15:53:00.000Z""","KDGW 221553Z AUTO 30007KT 10SM CLR 02/M06 A2982 RMK AO2 SLP101 T00221056 20-01-22",0,0,0,0,0,0,42.79719444444444,-105.38583333333334
"KECS","MONDELL FIELD","USA","20-01-22","""2020-01-22T16:35:00.000Z""","KECS 221635Z AUTO 25004KT 10SM BKN065 BKN085 OVC110 04/00 A2981 RMK AO2 20-01-22",0,0,0,0,0,0,43.88423888888889,-104.31449722222222
"KGCC","GILLETTE-CAMPBELL COUNTY","USA","20-01-22","""2020-01-22T16:22:00.000Z""","KGCC 221622Z AUTO 31018G26KT 3SM -SN BR BKN022 OVC032 01/M01 A2985 RMK AO2 PK WND 31029/1610 P0001 T00061006 20-01-22",0,4,6.7,7.5,0,0,44.34891666666667,-105.5393611111111
"KEMM","KEMMERER MUNI","USA","20-01-22","""2020-01-22T16:15:00.000Z""","KEMM 221615Z AUTO 27018G25KT 7SM -SN CLR M02/M05 A3002 RMK AO2 20-01-22",0,4,6.7,7.5,0,0,41.824083333333334,-110.55694444444444
"KJAC","JACKSON HOLE","USA","20-01-22","""2020-01-22T15:56:00.000Z""","KJAC 221556Z 20014KT 10SM BKN028 M03/M07 A2999 RMK AO2 SNE33 SLP194 P0000 T10331072 20-01-22",0,0,0,0,0,0,43.60733333333334,-110.73775
"KGEY","SOUTH BIG HORN COUNTY","USA","20-01-22","""2020-01-22T15:53:00.000Z""","KGEY 221553Z AUTO 25003KT 10SM SCT046 BKN055 OVC100 01/M01 A2990 RMK AO2 RAB00E03SNE00 SLP149 P0000 T00111006 20-01-22",0,0,0,2.5,0,0,44.517944444444446,-108.083
"KLAR","LARAMIE RGNL","USA","20-01-22","""2020-01-22T15:53:00.000Z""","KLAR 221553Z AUTO 27012KT 10SM BKN100 M01/M07 A2987 RMK AO2 SLP118 T10111072 20-01-22",0,0,0,0,0,0,41.31205555555555,-105.67500000000001
"KLND","HUNT FIELD","USA","20-01-22","""2020-01-22T15:53:00.000Z""","KLND 221553Z AUTO 32005KT 10SM CLR M02/M07 A2988 RMK AO2 SLP142 T10171067 20-01-22",0,0,0,0,0,0,42.81558333333333,-108.72825
"KWRL","WORLAND MUNI","USA","20-01-22","""2020-01-22T16:30:00.000Z""","KWRL 221630Z AUTO 00000KT 3SM -SN BR SCT004 BKN008 OVC034 M01/M01 A2991 RMK AO2 P0001 T10111011 20-01-22",0,0,6.7,7.5,0,1,43.96288888888889,-107.95052777777778
"KSHR","SHERIDAN COUNTY","USA","20-01-22","""2020-01-22T16:16:00.000Z""","KSHR 221616Z AUTO 31018G24KT 9SM BKN034 BKN044 OVC070 02/M02 A2989 RMK AO2 PK WND 31031/1555 SNE12 P0000 T00171022 20-01-22",0,4,0,0,0,0,44.769194444444445,-106.98027777777779
"KSAA","SHIVELY FIELD","USA","20-01-22","""2020-01-22T16:15:00.000Z""","KSAA 221615Z AUTO 25019G27KT 10SM SCT100 M01/M04 A2997 RMK AO2 20-01-22",0,4,0,0,0,0,41.443527777777774,-106.82752777777777
"KRKS","ROCKSPRINGS-SWETWATER COUNTY","USA","20-01-22","""2020-01-22T15:54:00.000Z""","KRKS 221554Z AUTO 26022KT 10SM BKN060 BKN075 M01/M04 A2999 RMK AO2 PK WND 26029/1542 SLP181 T10111039 20-01-22",0,4,0,0,0,0,41.59422222222222,-109.06519444444444
"KRIW","RIVERTON RGNL","USA","20-01-22","""2020-01-22T15:53:00.000Z""","KRIW 221553Z AUTO 28013KT 10SM FEW075 M02/M08 A2988 RMK AO2 SLP150 T10171078 20-01-22",0,0,0,0,0,0,43.064249999999994,-108.45983333333334
"KRWL","RAWLINS MUNI/HARVEY FIELD","USA","20-01-22","""2020-01-22T15:53:00.000Z""","KRWL 221553Z AUTO 25016G23KT 10SM OVC010 M02/M05 A2996 RMK AO2 SLP159 T10221050 20-01-22",0,4,0,0,0,0,41.80572222222222,-107.20033333333333
"KTOR","TORRINGTON MUNI","USA","20-01-22","""2020-01-22T15:53:00.000Z""","KTOR 221553Z AUTO 30010KT 10SM CLR 04/M04 A2981 RMK AO2 SLP103 T00391044 20-01-22",0,0,0,0,0,0,42.064527777777776,-104.15269444444445
"KDCA","RONALD REAGAN WASHINGTON NATIONAL","USA","20-01-22","""2020-01-22T15:52:00.000Z""","KDCA 221552Z 08003KT 10SM FEW250 01/M09 A3053 RMK AO2 SLP338 T00111089 20-01-22",0,0,0,0,0,0,38.851444444444446,-77.03772222222221
"CYOD","COLD LAKE/GROUP CAPTAIN R.W. MCNAIR, AB","CAN","20-01-22","""2020-01-22T16:00:00.000Z""","CYOD 221600Z 09006KT 15SM OVC005 M05/M06 A2974 RMK SC8 SLP109 20-01-22",0,0,0,2.5,0,0,54.405,-110.27944444444444
"CYBW","CALGARY/SPRINGBANK, AB","CAN","20-01-22","""2020-01-22T16:00:00.000Z""","CYBW 221600Z AUTO 27008KT 9SM BKN180 M01/M09 A2969 RMK SLP103 20-01-22",0,0,0,0,0,0,51.105313888888894,-114.37148888888888
"CYYC","CALGARY INTL, AB","CAN","20-01-22","""2020-01-22T16:00:00.000Z""","CYYC 221600Z 23003KT 40SM FEW180 SCT210 M00/M09 A2968 RMK AC2CI2 SLP096 20-01-22",0,0,0,0,0,0,51.12261388888889,-114.01334722222222
"CYED","EDMONTON/NAMAO, AB (HELI)","CAN","20-01-22","""2020-01-22T16:32:00.000Z""","CYED 221632Z AUTO 34005KT 1 5/8SM -SN BKN010 OVC035 M05/M05 A2967 20-01-22",0,0,6.7,7.5,0,1,53.66916666666666,-113.47555555555556
"CYEG","EDMONTON INTL, AB","CAN","20-01-22","""2020-01-22T16:00:00.000Z""","CYEG 221600Z 32006KT 1 1/2SM R02/5500FT/N -SHSN VV009 M03/M04 A2964 RMK SN8 CVCTV CLD EMBD SLP075 20-01-22",0,0,10,10,0,0,53.30988333333333,-113.57949444444444
"CYET","EDSON, AB","CAN","20-01-22","""2020-01-22T16:00:00.000Z""","CYET 221600Z AUTO 28005KT 230V310 9SM OVC140 M08/M09 A2967 RMK SLP098 20-01-22",0,0,0,2.5,0,0,53.57893333333334,-116.46505833333333
"CZVL","EDMONTON/VILLENEUVE, AB","CAN","20-01-22","""2020-01-22T16:00:00.000Z""","CZVL 221600Z AUTO 34006KT 1 1/4SM -SN OVC016 M04/M05 A2967 RMK VIS VRB 3/4-2 1/4 SLP083 20-01-22",0,0,6.7,7.5,0,0,53.66824166666667,-113.85226388888888
"CYPY","FORT CHIPEWYAN, AB","CAN","20-01-22","""2020-01-22T16:34:00.000Z""","CYPY 221634Z AUTO 11007KT 5/8SM -SN OVC003 M16/M18 A2978 RMK ICG SLP110 20-01-22",0,0,6.7,10,0,1,58.76743888888889,-111.1175611111111
"CYMM","FORT MCMURRAY, AB","CAN","20-01-22","""2020-01-22T16:20:00.000Z""","CYMM 221620Z AUTO 13009KT 9SM OVC011 M04/M06 A2977 RMK SLP109 20-01-22",0,0,0,2.5,0,0,56.65319722222222,-111.22333055555556
"CYOJ","HIGH LEVEL, AB","CAN","20-01-22","""2020-01-22T16:16:00.000Z""","CYOJ 221616Z 15005KT 10SM OVC006 M11/M12 A2962 RMK SC8 SLP064 20-01-22",0,0,0,2.5,0,0,58.62157777777778,-117.16466944444446
"CYQU","GRANDE PRAIRIE, AB","CAN","20-01-22","""2020-01-22T16:00:00.000Z""","CYQU 221600Z 22012KT 25SM FEW090 SCT240 M05/M08 A2965 RMK AC1CI3 SLP078 20-01-22",0,0,0,0,0,0,55.18190277777777,-118.8871888888889
"CYLL","LLOYDMINSTER, AB","CAN","20-01-22","""2020-01-22T16:31:00.000Z""","CYLL 221631Z 10010KT 12SM DRSN OVC046 M07/M08 A2968 RMK SC8 SLP094 20-01-22",0,0,10,10,0,0,53.310583333333334,-110.07416111111111
"CYQL","LETHBRIDGE, AB","CAN","20-01-22","""2020-01-22T16:00:00.000Z""","CYQL 221600Z 26025G33KT 60SM FEW100 BKN260 03/M05 A2973 RMK AC1CI6 SLP097 20-01-22",0,6,0,0,0,0,49.630227777777776,-112.79969722222222
"CYXH","MEDICINE HAT, AB","CAN","20-01-22","""2020-01-22T16:00:00.000Z""","CYXH 221600Z 28012KT 30SM FEW150 BKN270 M02/M06 A2974 RMK AC1CI7 AC TR SLP104 20-01-22",0,0,0,0,0,0,50.01889444444444,-110.72062777777778
"CYPE","PEACE RIVER, AB","CAN","20-01-22","""2020-01-22T16:05:00.000Z""","CYPE 221605Z 18003KT 6SM BR BCFG SCT006 OVC210 M06/M07 A2962 RMK SC4CI4 VIS W-NE 2 SLP071 20-01-22",0,0,0,2.5,0,0,56.227291666666666,-117.44841944444445
"CZPC","PINCHER CREEK, AB","CAN","20-01-22","""2020-01-22T16:00:00.000Z""","CZPC 221600Z AUTO /////KT 9SM CLR 01/M06 A2974 RMK WND MISG SLP103 20-01-22",0,0,0,0,0,0,49.520427777777776,-113.99709722222222
"CYQF","RED DEER REGIONAL, AB","CAN","20-01-22","""2020-01-22T16:00:00.000Z""","CYQF 221600Z 25005KT 12SM SCT080 BKN150 M02/M05 A2968 RMK AC4AC3 SLP093 20-01-22",0,0,0,0,0,0,52.18228611111111,-113.8944888888889
"CYZH","SLAVE LAKE, AB","CAN","20-01-22","""2020-01-22T16:00:00.000Z""","CYZH 221600Z AUTO 09006KT 3/4SM -SN VV017 M05/M06 A2968 RMK SLP086 20-01-22",0,0,6.7,7.5,0,0,55.292922222222224,-114.77720833333333
"CYZU","WHITECOURT, AB","CAN","20-01-22","""2020-01-22T16:00:00.000Z""","CYZU 221600Z VRB02KT 15SM BKN100 OVC130 M05/M06 A2967 RMK AC5AC3 SLP088 20-01-22",0,0,0,2.5,0,0,54.14384722222222,-115.78676666666667
"CYXX","ABBOTSFORD, BC","CAN","20-01-22","""2020-01-22T16:00:00.000Z""","CYXX 221600Z 35003KT 15SM FEW003 FEW025 SCT042 BKN075 BKN220 04/03 A3000 RMK SF1CU1SC3AC3CI1 SF TR CI TR VIS SE 30 SLP162 20-01-22",0,0,0,0,0,0,49.02526666666667,-122.35995555555554
"CYBL","CAMPBELL RIVER, BC","CAN","20-01-22","""2020-01-22T16:13:00.000Z""","CYBL 221613Z 15005KT 12SM FEW005 BKN008 OVC020 03/03 A2988 RMK SF2SF5SC1 SLP125 20-01-22",0,0,0,0,0,0,49.95203888888889,-125.27305
"CYCP","BLUE RIVER, BC","CAN","20-01-22","""2020-01-22T16:00:00.000Z""","CYCP 221600Z VRB02KT 15SM VCFG FEW004 BKN045 BKN080 M01/M01 A2985 RMK SF1SC4AC2 SLP142 20-01-22",0,0,0,2.5,0,0,52.12475277777778,-119.292825
"CYCG","CASTLEGAR/WEST KOOTENAY REGIONAL, BC","CAN","20-01-22","""2020-01-22T16:00:00.000Z""","CYCG 221600Z 14004KT 15SM FEW020 SCT030 BKN045 02/01 A2998 RMK SF1SC3SC3 SLP172 20-01-22",0,0,0,2.5,0,0,49.296225,-117.63250277777777
"CYBD","BELLA COOLA, BC","CAN","20-01-22","""2020-01-22T16:00:00.000Z""","CYBD 221600Z 00000KT 15SM FEW075 M02/M02 A2981 RMK AC2 SLP097 20-01-22",0,0,0,2.5,0,0,52.3875,-126.59583333333333
"CYIN","CLINTON/BLEIBLER RANCH,BC","CAN","20-01-22","""2020-01-22T16:00:00.000Z""","CYIN 221600Z AUTO VRB04KT 9SM CLR M08/M09 A2977 RMK ICG PAST HR SLP128 20-01-22",0,0,0,2.5,0,0,51.26633611111111,-121.68468333333334
"CYDQ","DAWSON CREEK, BC","CAN","20-01-22","""2020-01-22T16:36:00.000Z""","CYDQ 221636Z AUTO 23015G22KT 9SM CLR 02/M03 A2960 RMK SLP061 20-01-22",0,2,0,0,0,0,55.74226111111111,-120.18305833333334
"CYCQ","CHETWYND, BC","CAN","20-01-22","""2020-01-22T16:00:00.000Z""","CYCQ 221600Z VRB02KT 35SM FEW040 SCT090 BKN180 M13/M15 A2964 RMK SC2AC2CI1 FROIN VIRGA S SLP081 20-01-22",0,0,0,2.5,0,0,55.687213888888884,-121.62665
"CYQQ","COMOX, BC","CAN","20-01-22","""2020-01-22T16:00:00.000Z""","CYQQ 221600Z 17009G15KT 20SM SCT006 SCT018 BKN045 BKN078 BKN150 07/06 A2991 RMK SF3SC1SC2AC1AC1 SLP128 20-01-22",0,2,0,0,0,0,49.71083333333333,-124.88666666666667
"CYXC","CRANBROOK/CANADIAN ROCKIES INTL, BC","CAN","20-01-22","""2020-01-22T16:00:00.000Z""","CYXC 221600Z 14005KT 25SM FEW010 FEW053 BKN160 M01/M02 A2988 RMK ST1SC1AC4 SLP159 20-01-22",0,0,0,2.5,0,0,49.612119444444446,-115.78205277777778
"CYLW","KELOWNA, BC","CAN","20-01-22","""2020-01-22T16:29:00.000Z""","CYLW 221629Z AUTO 14007KT 9SM SCT021 BKN042 BKN140 03/00 A2996 RMK SLP164 20-01-22",0,0,0,0,0,0,49.95722222222223,-119.37777777777777
"CYHE","HOPE, BC","CAN","20-01-22","""2020-01-22T16:26:00.000Z""","CYHE 221626Z AUTO 00000KT 2 1/2SM -RA BR FEW021 OVC031 02/01 A3002 RMK SLP170 20-01-22",0,0,0,7.5,0,0,49.36833333333333,-121.49805555555555
"CYXJ","FORT ST JOHN, BC","CAN","20-01-22","""2020-01-22T16:00:00.000Z""","CYXJ 221600Z 15003KT 25SM FEW100 FEW210 M08/M10 A2959 RMK AC1CI1 FG IN RIVER VALLEY S SLP067 20-01-22",0,0,0,2.5,0,0,56.23837777777778,-120.74028611111112
"CYKA","KAMLOOPS, BC","CAN","20-01-22","""2020-01-22T16:00:00.000Z""","CYKA 221600Z 30003KT 40SM FEW060 FEW110 M00/M01 A2992 RMK SC1AC1 SC TR SLP150 20-01-22",0,0,0,2.5,0,0,50.702511111111114,-120.44860555555556
"CYGE","GOLDEN, BC","CAN","20-01-22","""2020-01-22T16:00:00.000Z""","CYGE 221600Z VRB02KT 20SM FEW009 BKN035 OVC100 M03/M04 A2987 RMK ST1SC7AC1 ST TR SLP154 20-01-22",0,0,0,2.5,0,0,51.29918611111111,-116.98212222222223
"CYYE","FORT NELSON, BC","CAN","20-01-22","""2020-01-22T16:00:00.000Z""","CYYE 221600Z VRB02KT 15SM FEW005 BKN110 M20/M23 A2959 RMK SF1AC4 SLP062 20-01-22",0,0,0,0,0,0,58.836400000000005,-122.596975
"CYZY","MACKENZIE, BC","CAN","20-01-22","""2020-01-22T16:00:00.000Z""","CYZY 221600Z AUTO 19004KT 9SM BKN006 OVC011 M05/M05 A2971 RMK SLP103 20-01-22",0,0,0,2.5,0,0,55.29946666666667,-123.13338611111112
"CYCD","NANAIMO, BC","CAN","20-01-22","""2020-01-22T16:00:00.000Z""","CYCD 221600Z 00000KT 15SM FEW003 BKN040 BKN150 BKN240 01/01 A2995 RMK SF1SC5AC1CI1 SF TR SLP144 20-01-22",0,0,0,2.5,0,0,49.05454444444444,-123.87011944444444
"CZMT","MASSET, BC","CAN","20-01-22","""2020-01-22T16:00:00.000Z""","CZMT 221600Z 15015G22KT 15SM FEW008 BKN012 BKN040 06/05 A2953 RMK CF1SC5SC1 SLP003 20-01-22",0,2,0,0,0,0,54.02710555555556,-132.1250777777778
"CYYF","PENTICTON, BC","CAN","20-01-22","""2020-01-22T16:00:00.000Z""","CYYF 221600Z 17008G15KT 15SM FEW020 SCT045 BKN070 03/01 A2999 RMK SC2SC1AC4 SLP167 20-01-22",0,2,0,0,0,0,49.462575,-119.60227499999999
"CYXS","PRINCE GEORGE, BC","CAN","20-01-22","""2020-01-22T16:00:00.000Z""","CYXS 221600Z AUTO 16006KT 9SM OVC090 M02/M04 A2974 RMK SLP108 20-01-22",0,0,0,2.5,0,0,53.88403611111111,-122.67755277777778
"CYPW","POWELL RIVER, BC","CAN","20-01-22","""2020-01-22T16:00:00.000Z""","CYPW 221600Z 10009KT 20SM FEW016 BKN041 OVC055 06/04 A2992 RMK SF1SC5SC2 SLP135 20-01-22",0,0,0,0,0,0,49.83408055555556,-124.50033888888889
"CYPR","PRINCE RUPERT, BC","CAN","20-01-22","""2020-01-22T16:00:00.000Z""","CYPR 221600Z AUTO 12008KT 9SM OVC036 05/02 A2961 RMK SLP031 20-01-22",0,0,0,0,0,0,54.285891666666664,-130.44467777777777
"CYDC","PRINCETON, BC","CAN","20-01-22","""2020-01-22T16:00:00.000Z""","CYDC 221600Z VRB02KT 6SM BR FEW006 BKN009 BKN052 M02/M03 A2995 RMK SF1ST7SC1 SF TR SC TR VIS E 3 SLP169 20-01-22",0,0,0,7.5,0,0,49.46788611111111,-120.51247222222223
"CYZT","PORT HARDY, BC","CAN","20-01-22","""2020-01-22T16:00:00.000Z""","CYZT 221600Z 11019G24KT 15SM BKN044 OVC120 06/04 A2974 RMK SC7AC1 SLP075 20-01-22",0,4,0,0,0,0,50.680594444444445,-127.36665833333333
"CYQZ","QUESNEL, BC","CAN","20-01-22","""2020-01-22T16:00:00.000Z""","CYQZ 221600Z AUTO VRB02KT 9SM OVC090 M03/M03 A2979 RMK SLP119 20-01-22",0,0,0,2.5,0,0,53.026075,-122.51036666666667
"CYRV","REVELSTOKE, BC","CAN","20-01-22","""2020-01-22T16:00:00.000Z""","CYRV 221600Z AUTO 00000KT 9SM -RA 00/00 A2993 RMK CLD MISG SLP155 20-01-22",0,0,0,2.5,0,0,50.96234166666667,-118.18435277777778
"CYZP","SANDSPIT, BC","CAN","20-01-22","""2020-01-22T16:00:00.000Z""","CYZP 221600Z AUTO 14019KT 9SM FEW040 OVC200 06/05 A2953 RMK SLP002 20-01-22",0,2,0,0,0,0,53.25425555555555,-131.81380833333336
"CYVR","VANCOUVER INTL, BC","CAN","20-01-22","""2020-01-22T16:17:00.000Z""","CYVR 221617Z 11012KT 12SM FEW036 BKN062 BKN077 BKN260 07/06 A2998 RMK SC1SC4AC1CI1 SLP153 20-01-22",0,0,0,0,0,0,49.194694444444444,-123.18396666666668
"CYYD","SMITHERS, BC","CAN","20-01-22","""2020-01-22T16:00:00.000Z""","CYYD 221600Z 00000KT 25SM FEW015 OVC060 M06/M07 A2971 RMK SF2SC6 SLP091 20-01-22",0,0,0,2.5,0,0,54.825361111111114,-127.18283333333333
"CYXT","TERRACE, BC","CAN","20-01-22","""2020-01-22T16:00:00.000Z""","CYXT 221600Z 09003KT 8SM -SN FEW005 BKN012 OVC043 M02/M02 A2972 RMK SF2SC4SC2 PCPN VRY LGT SLP077 20-01-22",0,0,6.7,7.5,0,0,54.46854722222223,-128.57838055555555
"CYAZ","TOFINO/LONG BEACH, BC","CAN","20-01-22","""2020-01-22T16:00:00.000Z""","CYAZ 221600Z 09008KT 15SM -RA BCFG FEW015 OVC036 07/06 A2986 RMK SF2SC6 VRY LGT RA SLP113 20-01-22",0,0,0,0,0,0,49.082119444444444,-125.77239722222222
"CZST","STEWART, BC","CAN","20-01-22","""2020-01-22T16:00:00.000Z""","CZST 221600Z 00000KT 6SM -FZRA BR OVC060 00/M00 A2971 RMK SC8 SLP061 20-01-22",0,0,3.3,7.5,0,0,55.93333333333333,-129.98333333333332
"CYWL","WILLIAMS LAKE, BC","CAN","20-01-22","""2020-01-22T16:00:00.000Z""","CYWL 221600Z 13007KT 15SM FEW100 M03/M05 A2978 RMK AC2 SLP123 20-01-22",0,0,0,2.5,0,0,52.18340277777777,-122.05433611111111
"CYYJ","VICTORIA INTL, BC","CAN","20-01-22","""2020-01-22T16:00:00.000Z""","CYYJ 221600Z 11004KT 15SM BKN017 BKN061 BKN150 BKN190 07/07 A2996 RMK SC5SC1AC1AC1 AC TR SLP147 20-01-22",0,0,0,0,0,0,48.64716388888889,-123.42574166666667
"CYYQ","CHURCHILL, MB","CAN","20-01-22","""2020-01-22T16:12:00.000Z""","CYYQ 221612Z 35021G29KT 1SM -SN BLSN SCT013 OVC019 M16/M18 A2978 RMK SC3SC5 FU AT AD VIS LWR E-S PRESRR SLP088 20-01-22",0,6,10,10,0,1,58.73905833333333,-94.06637222222221
"CYDN","DAUPHIN (LT. COL W.G. (BILLY) BARKER VC), MB","CAN","20-01-22","""2020-01-22T16:06:00.000Z""","CYDN 221606Z AUTO 28007KT 9SM BKN021 M12/M13 A2982 RMK SLP120 20-01-22",0,0,0,2.5,0,0,51.10151944444445,-100.05326111111111
"CYBR","BRANDON MUNI, MB","CAN","20-01-22","""2020-01-22T16:00:00.000Z""","CYBR 221600Z 32004KT 15SM FEW160 BKN250 M15/M17 A2978 RMK AC1CI5 AC TR SLP121 20-01-22",0,0,0,0,0,0,49.91,-99.95226944444445
"CYFO","FLIN FLON, MB","CAN","20-01-22","""2020-01-22T16:00:00.000Z""","CYFO 221600Z 34006KT 15SM SCT014 BKN250 M12/M14 A2983 RMK SC3CI3 SLP127 20-01-22",0,0,0,2.5,0,0,54.678063888888886,-101.68188055555557
"CYGX","GILLAM, MB","CAN","20-01-22","""2020-01-22T16:00:00.000Z""","CYGX 221600Z 34015G21KT 12SM -SN OVC013 M15/M18 A2973 RMK SC8 PRESRR SLP085 20-01-22",0,2,6.7,10,0,0,56.35772222222222,-94.7107
"CYQD","THE PAS, MB","CAN","20-01-22","""2020-01-22T16:33:00.000Z""","CYQD 221633Z AUTO 33005KT 9SM -SN OVC013 M10/M13 A2984 RMK SLP127 20-01-22",0,0,6.7,7.5,0,0,53.97128333333333,-101.09104722222222
"CYTH","THOMPSON, MB","CAN","20-01-22","""2020-01-22T16:00:00.000Z""","CYTH 221600Z 32006KT 15SM DRSN FEW020 SCT150 M16/M19 A2981 RMK SC1AC3 SLP119 20-01-22",0,0,10,10,0,0,55.804630555555555,-97.86240833333333
"CYIV","ISLAND LAKE, MB","CAN","20-01-22","""2020-01-22T16:00:00.000Z""","CYIV 221600Z 35013G20KT 12SM -SN DRSN OVC020 M10/M13 A2969 RMK SC8 SLP076 20-01-22",0,2,10,10,0,0,53.85712222222222,-94.65366944444445
"CYBQ","TADOULE LAKE, MB","CAN","20-01-22","""2020-01-22T16:00:00.000Z""","CYBQ 221600Z AUTO 33006KT 9SM -SN OVC021 M19/M21 A2981 RMK SLP128 20-01-22",0,0,6.7,10,0,0,58.70608055555556,-98.51221666666666
"CYYL","LYNN LAKE, MB","CAN","20-01-22","""2020-01-22T16:00:00.000Z""","CYYL 221600Z AUTO 28005KT 9SM CLR M19/M21 A2981 RMK SLP133 20-01-22",0,0,0,0,0,0,56.86438888888889,-101.07610555555556
"CZBF","BATHURST, NB","CAN","20-01-22","""2020-01-22T16:00:00.000Z""","CZBF 221600Z AUTO 16003KT 120V190 9SM OVC060 M10/M16 A3038 RMK SLP294 20-01-22",0,0,0,0,0,0,47.62961111111111,-65.73895833333333
"CYWG","WINNIPEG/JAMES ARMSTRONG RICHARDSON INTL, MB","CAN","20-01-22","""2020-01-22T16:00:00.000Z""","CYWG 221600Z 32005KT 6SM IC FEW220 M14/M17 A2979 RMK CI2 SLP110 20-01-22",0,0,3.3,2.5,0,0,49.91001111111111,-97.24009444444445
"CYQM","MONCTON/GREATER MONCTON INTL, NB","CAN","20-01-22","""2020-01-22T16:00:00.000Z""","CYQM 221600Z 17003KT 15SM FEW026 SCT090 M10/M11 A3039 RMK SC1AC2 SLP301 20-01-22",0,0,0,2.5,0,0,46.11609444444444,-64.67860555555556
"CYNE","NORWAY HOUSE, MB","CAN","20-01-22","""2020-01-22T16:00:00.000Z""","CYNE 221600Z AUTO 35007G19KT 9SM -SN OVC019 M11/M13 A2979 RMK PRESRR SLP108 20-01-22",0,2,6.7,7.5,0,0,53.958286111111114,-97.8441611111111
"CYFC","FREDERICTON INTL, NB","CAN","20-01-22","""2020-01-22T16:00:00.000Z""","CYFC 221600Z AUTO VRB02KT 9SM BKN075 M10/M15 A3040 RMK SLP299 20-01-22",0,0,0,0,0,0,45.868877777777776,-66.53721944444445
"CYCX","GAGETOWN, NB (HELI)","CAN","20-01-22","""2020-01-22T16:00:00.000Z""","CYCX 221600Z 25004KT 210V300 15SM -SN FEW040 SCT075 M07/M12 A3040 RMK SC1AC3 DA-3014FT PCPN VRY LGT SLP298 20-01-22",0,0,6.7,7.5,0,0,45.8377778,-66.4366667
"CYDF","DEER LAKE, NL","CAN","20-01-22","""2020-01-22T16:00:00.000Z""","CYDF 221600Z 22010KT 15SM -SN OVC031 M06/M13 A3047 RMK SC8 SLP323 20-01-22",0,0,6.7,7.5,0,0,49.20916944444445,-57.39435833333333
"CYSJ","SAINT JOHN, NB","CAN","20-01-22","""2020-01-22T16:00:00.000Z""","CYSJ 221600Z VRB02KT 15SM FEW025 FEW130 M05/M11 A3039 RMK SC1AC1 SC TR SLP302 20-01-22",0,0,0,0,0,0,45.316158333333334,-65.89012222222223
"CYMH","MARY'S HARBOUR, NL","CAN","20-01-22","""2020-01-22T16:34:00.000Z""","CYMH 221634Z AUTO 21012KT 9SM -SN OVC035 M08/M13 A3036 RMK SLP284 20-01-22",0,0,6.7,7.5,0,0,52.302816666666665,-55.84784166666667
"CYDP","NAIN, NL","CAN","20-01-22","""2020-01-22T16:00:00.000Z""","CYDP 221600Z 21010KT 15SM FEW230 M20/M26 A3006 RMK CI1 TR CI SLP181 20-01-22",0,0,0,0,0,0,56.55061666666666,-61.682249999999996
"CYFT","MAKKOVIK, NL","CAN","20-01-22","""2020-01-22T16:00:00.000Z""","CYFT 221600Z 22016KT 15SM SKC M17/M22 A3016 RMK SLP222 20-01-22",0,2,0,0,0,0,55.07725277777778,-59.187799999999996
"CYQX","GANDER INTL, NL","CAN","20-01-22","""2020-01-22T16:00:00.000Z""","CYQX 221600Z 28010KT 20SM FEW022 FEW070 FEW250 M10/M15 A3047 RMK CU1AC1CI1 AC TR CI TR PRESFR SLP334 20-01-22",0,0,0,0,0,0,48.93701944444444,-54.568136111111116
"CYYR","GOOSE BAY, NL","CAN","20-01-22","""2020-01-22T16:00:00.000Z""","CYYR 221600Z 00000KT 15SM BKN060 BKN280 M19/M25 A3027 RMK SC6CI2 SLP257 20-01-22",0,0,0,0,0,0,53.31916666666667,-60.42583333333333
"CYWK","WABUSH, NL","CAN","20-01-22","""2020-01-22T16:22:00.000Z""","CYWK 221622Z 18009KT 15SM SCT028 BKN220 M13/M18 A2992 RMK SC4CI2 PRESFR SLP193 20-01-22",0,0,0,0,0,0,52.922725,-66.86467499999999
"CYAY","ST ANTHONY, NL","CAN","20-01-22","""2020-01-22T16:18:00.000Z""","CYAY 221618Z AUTO 18011G16KT 6SM -SN SCT023 OVC032 M07/M10 A3039 RMK SLP296 20-01-22",0,2,6.7,7.5,0,0,51.391891666666666,-56.08316388888889
"CYJT","STEPHENVILLE, NL","CAN","20-01-22","""2020-01-22T16:00:00.000Z""","CYJT 221600Z 18004KT 15SM BKN033 M06/M12 A3045 RMK SC5 SLP315 20-01-22",0,0,0,0,0,0,48.54145,-58.549908333333335
"CYYT","ST. JOHN'S INTL, NL","CAN","20-01-22","""2020-01-22T16:00:00.000Z""","CYYT 221600Z 05008KT 15SM BKN020 M08/M13 A3044 RMK SC6 WND ESTD VIA CYHZ SLP320 20-01-22",0,0,0,0,0,0,47.61861944444445,-52.75241944444444
"LFVP","SAINT PIERRE","FRA","20-01-22","""2020-01-22T16:00:00.000Z""","LFVP 221600Z 06010KT 030V090 9999 OVC024 M06/M07 Q1031 NOSIG 20-01-22",0,0,0,2.5,0,0,46.76305555555555,-56.174166666666665
"CYHZ","HALIFAX/STANFIELD INTL, NS","CAN","20-01-22","""2020-01-22T16:00:00.000Z""","CYHZ 221600Z 23006KT 15SM FEW025 BKN130 BKN250 M07/M11 A3041 RMK CU1AC6CI1 CU TR SLP310 20-01-22",0,0,0,0,0,0,44.87968055555556,-63.510191666666664
"CYZX","GREENWOOD, NS","CAN","20-01-22","""2020-01-22T16:00:00.000Z""","CYZX 221600Z 00000KT 15SM BKN090 M07/M10 A3044 RMK AC5 SLP310 20-01-22",0,0,0,0,0,0,44.98444444444444,-64.91694444444445
"CYPD","PORT HAWKESBURY, NS","CAN","20-01-22","""2020-01-22T16:00:00.000Z""","CYPD 221600Z AUTO 20004KT 120V240 9SM CLR M07/M12 A3042 RMK SLP311 20-01-22",0,0,0,0,0,0,45.656502777777774,-61.36836666666667
"CYQY","SYDNEY/J.A DOUGLAS MCCURDY, NS","CAN","20-01-22","""2020-01-22T16:00:00.000Z""","CYQY 221600Z 18004KT 170V240 15SM -SN BKN031 M06/M10 A3043 RMK SC7 SLP312 20-01-22",0,0,6.7,7.5,0,0,46.161519444444444,-60.04804166666666
"CYGH","FORT GOOD HOPE, NT","CAN","20-01-22","""2020-01-22T16:00:00.000Z""","CYGH 221600Z 00000KT 15SM -SN OVC065 M23/M25 A2961 RMK SC8 SLP041 20-01-22",0,0,6.7,10,0,0,66.24063611111112,-128.6475972222222
"CYKD","AKLAVIK/FREDDIE CARMICHAEL, NT","CAN","20-01-22","""2020-01-22T16:00:00.000Z""","CYKD 221600Z 14004KT 15SM FEW240 M36/M40 A2965 RMK CI2 SLP044 20-01-22",0,0,0,0,0,0,68.22330000000001,-135.00556944444443
"CYQI","YARMOUTH, NS","CAN","20-01-22","""2020-01-22T16:00:00.000Z""","CYQI 221600Z 20007KT 150V210 15SM SCT020 BKN110 BKN250 M02/M07 A3042 RMK SC3AC4CI1 CI TR SLP307 20-01-22",0,0,0,0,0,0,43.82718055555556,-66.08825833333333
"CYWJ","DELINE, NT","CAN","20-01-22","""2020-01-22T16:00:00.000Z""","CYWJ 221600Z 31004KT 10SM BKN059 M25/M28 A2954 RMK SC7 CIG RAG SLP037 20-01-22",0,0,0,0,0,0,65.211175,-123.43651944444444
"CZFM","FORT MCPHERSON, NT","CAN","20-01-22","""2020-01-22T16:34:00.000Z""","CZFM 221634Z 17004KT 10SM -SN SCT059 BKN088 M30/M34 A2965 RMK SC4AC2 SLP048 20-01-22",0,0,6.7,10,0,0,67.40690000000001,-134.85975
"CYSM","FORT SMITH, NT","CAN","20-01-22","""2020-01-22T16:19:00.000Z""","CYSM 221619Z CCA 14005KT 15SM BKN005 OVC140 M22/M24 A2976 RMK SC7AC1 SLP107 20-01-22",0,0,0,0,0,0,60.020316666666666,-111.96181944444444
"CYHY","HAY RIVER/MERLYN CARTER AIRPORT, NT","CAN","20-01-22","""2020-01-22T16:00:00.000Z""","CYHY 221600Z 17010KT 15SM BKN150 BKN230 M15/M17 A2961 RMK AC6CI1 SLP046 20-01-22",0,0,0,0,0,0,60.83977777777778,-115.78279722222221
"CYHI","ULUKHAKTOK/HOLMAN, NT","CAN","20-01-22","""2020-01-22T16:00:00.000Z""","CYHI 221600Z 08019KT 15SM DRSN FEW200 M26/M29 A2987 RMK CS1 SLP122 20-01-22",0,2,10,10,0,0,70.76286944444445,-117.80601666666666
"CYFS","FORT SIMPSON, NT","CAN","20-01-22","""2020-01-22T16:00:00.000Z""","CYFS 221600Z 13003KT 080V160 15SM BKN015 BKN210 M17/M19 A2953 RMK SC6CI1 CIG RAG SLP020 20-01-22",0,0,0,0,0,0,61.760152777777776,-121.23652777777778
"CYEV","INUVIK (MIKE ZUBKO) NT","CAN","20-01-22","""2020-01-22T16:00:00.000Z""","CYEV 221600Z 11003KT 15SM FEW034 FEW250 M31/M34 A2961 RMK SC1CI1 SLP042 20-01-22",0,0,0,0,0,0,68.30377777777778,-133.483125
"CYRA","GAMETI/RAE LAKES,NT","CAN","20-01-22","""2020-01-22T16:17:00.000Z""","CYRA 221617Z 15009G15KT 10SM BKN017 M20/M22 A2961 RMK ST7 OCNL DRSN SLP060 20-01-22",0,2,0,0,0,0,64.11614999999999,-117.30975
"CYLK","LUTSELKE, NT","CAN","20-01-22","""2020-01-22T16:00:00.000Z""","CYLK 221600Z 08002KT 25SM SCT014 BKN150 M23/M27 A2984 RMK SC3AC4 SLP133 20-01-22",0,0,0,0,0,0,62.418194444444445,-110.68223888888889
"CYPC","PAULATUK (NORA ALIQATCHIALUK RUBEN) NT","CAN","20-01-22","""2020-01-22T16:00:00.000Z""","CYPC 221600Z 25004KT 15SM BKN053 M21/M24 A2969 RMK SC6 SLP055 20-01-22",0,0,0,0,0,0,69.36065833333333,-124.07570833333332
"CYVQ","NORMAN WELLS, NT","CAN","20-01-22","""2020-01-22T16:00:00.000Z""","CYVQ 221600Z 11003KT 30SM BKN075 BKN095 M23/M27 A2963 RMK AC6AC1 SLP047 20-01-22",0,0,0,0,0,0,65.28132222222222,-126.79856944444444
"CYAB","ARCTIC BAY, NU","CAN","20-01-22","""2020-01-22T16:00:00.000Z""","CYAB 221600Z VRB02KT 30SM IC SKC M31/M35 A2966 RMK SLP048 20-01-22",0,0,3.3,10,0,0,73.00638611111111,-85.04731666666666
"CYEK","ARVIAT, NU","CAN","20-01-22","""2020-01-22T16:00:00.000Z""","CYEK 221600Z 36017G23KT 7SM IC DRSN SKC M29/M32 A2987 RMK SLP117 20-01-22",0,4,10,10,0,0,61.093963888888894,-94.07159166666666
"CYLT","ALERT, NU","CAN","20-01-22","""2020-01-22T16:00:00.000Z""","CYLT 221600Z 03004KT 8SM -SN SCT015 OVC030 M33/M37 A2971 RMK SC3SC5 PCPN VRY LGT SLP066 20-01-22",0,0,6.7,10,0,0,82.51777777777778,-62.28055555555555
"CYUB","TUKTOYAKTUK, JAMES GRUBEN, NT","CAN","20-01-22","""2020-01-22T16:00:00.000Z""","CYUB 221600Z 24004KT 15SM OVC040 M25/M29 A2964 RMK SC8 SLP038 20-01-22",0,0,0,0,0,0,69.43324166666667,-133.02634444444445
"CYWE","WEKWEETI, NT","CAN","20-01-22","""2020-01-22T16:00:00.000Z""","CYWE 221600Z AUTO VRB05KT 9SM BKN120 OVC140 M22/M25 A2965 RMK SLP093 20-01-22",0,0,0,0,0,0,64.19075555555555,-114.07680277777777
"CYZF","YELLOWKNIFE, NT","CAN","20-01-22","""2020-01-22T16:00:00.000Z""","CYZF 221600Z 12012G17KT 15SM BKN110 M21/M23 A2971 RMK AC7 SLP090 20-01-22",0,2,0,0,0,0,62.463036111111116,-114.4404
"CYBK","BAKER LAKE, NU","CAN","20-01-22","""2020-01-22T16:00:00.000Z""","CYBK 221600Z 32019KT 20SM IC DRSN FEW020 FEW100 FEW220 M35/M40 A2996 RMK SC1AC1CI1 SC TR CI TR SLP152 20-01-22",0,2,10,10,0,0,64.2988111111111,-96.07765277777777
"CYCB","CAMBRIDGE BAY, NU","CAN","20-01-22","""2020-01-22T16:00:00.000Z""","CYCB 221600Z 04004KT 15SM FEW040 M37/M41 A3000 RMK SC1 SLP166 20-01-22",0,0,0,0,0,0,69.10792222222221,-105.13711666666667
"CYTE","CAPE DORSET, NU","CAN","20-01-22","""2020-01-22T16:00:00.000Z""","CYTE 221600Z 23012G17KT 5SM -SN DRSN FEW014 BKN048 M20/M22 A2957 RMK SC2SC5 SLP023 20-01-22",0,2,10,10,0,0,64.230225,-76.52486111111111
"CYVM","QIKIQTARJUAQ, NU","CAN","20-01-22","""2020-01-22T16:00:00.000Z""","CYVM 221600Z 21007KT 15SM IC FEW025 FEW140 OVC250 M28/M32 A2957 RMK SC1AC2CC6 SC TR SLP016 20-01-22",0,0,3.3,10,0,0,67.54655277777778,-64.03156111111112
"CYFB","IQALUIT, NU","CAN","20-01-22","""2020-01-22T16:28:00.000Z""","CYFB 221628Z 00000KT 6SM IC FEW018 FEW055 SCT250 M32/M36 A2977 RMK SC1SC2CI2 SC TR SLP090 20-01-22",0,0,3.3,10,0,0,63.756572222222225,-68.55611666666667
"CYCO","KUGLUKTUK, NU","CAN","20-01-22","""2020-01-22T16:27:00.000Z""","CYCO 221627Z 02008KT 15SM IC OVC069 M23/M26 A2978 RMK AC8 SLP088 20-01-22",0,0,3.3,10,0,0,67.8167,-115.14390555555556
"CYCY","CLYDE RIVER, NU","CAN","20-01-22","""2020-01-22T16:00:00.000Z""","CYCY 221600Z 30017KT 3SM -SN DRSN BKN040 M23/M26 A2948 RMK SC7 SLP990 20-01-22",0,2,10,10,0,0,70.48591388888889,-68.51693333333333
"CYHK","GJOA HAVEN, NU","CAN","20-01-22","""2020-01-22T16:00:00.000Z""","CYHK 221600Z 29007KT 6SM IC SKC M40/M44 A2990 RMK IC1 SLP137 20-01-22",0,0,3.3,10,0,0,68.635475,-95.85035555555555
"CYUX","HALL BEACH, NU","CAN","20-01-22","""2020-01-22T16:00:00.000Z""","CYUX 221600Z 32013KT 10SM DRSN FEW007 FEW020 SCT090 M38/M42 A2966 RMK SF1SC1AC2 SF TR SLP049 20-01-22",0,0,10,10,0,0,68.77576944444445,-81.24244444444444
"CYZS","CORAL HARBOUR, NU","CAN","20-01-22","""2020-01-22T16:00:00.000Z""","CYZS 221600Z 34017KT 15SM IC DRSN FEW030 FEW210 M34/M38 A2959 RMK SC1CI1 CI TR SLP034 20-01-22",0,2,10,10,0,0,64.19336666666668,-83.3593611111111
"CYBB","KUGAARUK, NU","CAN","20-01-22","""2020-01-22T16:00:00.000Z""","CYBB 221600Z 22018KT 15SM DRSN SKC M35/M39 A2982 RMK SLP104 20-01-22",0,2,10,10,0,0,68.53590555555556,-89.80539444444445
"CYGT","IGLOOLIK, NU","CAN","20-01-22","""2020-01-22T16:00:00.000Z""","CYGT 221600Z 33005KT 15SM FEW037 SCT055 BKN130 M36/M40 A2964 RMK SC2SC2AC2 SLP048 20-01-22",0,0,0,0,0,0,69.3646611111111,-81.81647777777778
"CYIO","POND INLET, NU","CAN","20-01-22","""2020-01-22T16:00:00.000Z""","CYIO 221600Z 18003KT 40SM FEW065 SCT220 SCT280 M29/M32 A2958 RMK SC1CC2CC2 FROIN S00 AFT 00UTC/48/SNW CVR/MEDIUM PACK SLP028 20-01-22",0,0,0,0,0,0,72.6895138888889,-77.96893055555556
"CYLC","KIMMIRUT, NU","CAN","20-01-22","""2020-01-22T16:00:00.000Z""","CYLC 221600Z 21002KT 15SM FEW008 SCT022 BKN080 M30/M33 A2977 RMK ST2SC1AS2 SLP090 20-01-22",0,0,0,0,0,0,62.848061111111114,-69.87718888888888
"CYXP","PANGNIRTUNG, NU","CAN","20-01-22","""2020-01-22T16:00:00.000Z""","CYXP 221600Z 00000KT 15SM IC SCT020 BKN250 M32/M36 A2972 RMK SC3CI2 SLP071 20-01-22",0,0,3.3,10,0,0,66.14488055555556,-65.71352222222222
"CYRB","RESOLUTE BAY, NU","CAN","20-01-22","""2020-01-22T16:00:00.000Z""","CYRB 221600Z 31012KT 15SM IC SKC M33/M36 A2980 RMK OCNL DRSN SLP107 20-01-22",0,0,3.3,10,0,0,74.71690833333334,-94.96933888888888
"CYRT","RANKIN INLET, NU","CAN","20-01-22","""2020-01-22T16:00:00.000Z""","CYRT 221600Z 34021KT 3SM IC BLSN FEW240 M34/M38 A2981 RMK CI2 SLP103 20-01-22",0,4,10,10,0,0,62.81066111111111,-92.1146111111111
"CYUT","NAUJAAT, NU","CAN","20-01-22","""2020-01-22T16:00:00.000Z""","CYUT 221600Z 34017KT 15SM DRSN FEW280 M37/M41 A2974 RMK CC2 SLP077 20-01-22",0,2,10,10,0,0,66.52066944444444,-86.22473333333333
"CYYH","TALOYOAK, NU","CAN","20-01-22","""2020-01-22T16:00:00.000Z""","CYYH 221600Z 15008KT 12SM IC VCFG FEW021 M41/M46 A2986 RMK SC1 FG DIST SE/ VIS SE 5/ SLP119 20-01-22",0,0,3.3,10,0,0,69.54665,-93.57702222222221
"CYTL","BIG TROUT LAKE, ON","CAN","20-01-22","""2020-01-22T16:35:00.000Z""","CYTL 221635Z AUTO 33012G21KT 5SM -SN FEW015 BKN022 BKN030 OVC035 M08/M11 A2954 RMK PRESRR SLP022 20-01-22",0,2,6.7,7.5,0,0,53.817883333333334,-89.89691944444445
"CYCK","CHATHAM-KENT, ON","CAN","20-01-22","""2020-01-22T16:00:00.000Z""","CYCK 221600Z AUTO 23013KT 9SM CLR M03/M06 A3036 RMK SLP293 20-01-22",0,0,0,0,0,0,42.30623055555555,-82.08174722222222
"CYLD","CHAPLEAU, ON","CAN","20-01-22","""2020-01-22T16:00:00.000Z""","CYLD 221600Z 20014G31KT 15SM DRSN OVC012 M03/M05 A2981 RMK SC8 SLP127 20-01-22",0,2,10,10,0,0,47.820175000000006,-83.34688888888888
"CYER","FORT SEVERN, ON","CAN","20-01-22","""2020-01-22T16:38:00.000Z""","CYER 221638Z AUTO 28013G21KT 5SM -SN OVC031 M10/M11 A2940 RMK SLP958 20-01-22",0,2,6.7,7.5,0,0,56.019,-87.67616666666667
"CYXR","EARLTON(TIMISKAMING REGIONAL), ON","CAN","20-01-22","""2020-01-22T16:23:00.000Z""","CYXR 221623Z AUTO 20020G25KT 9SM SCT021 M02/M05 A2991 RMK SLP145 20-01-22",0,4,0,0,0,0,47.694913888888884,-79.84895555555555
"CYHD","DRYDEN REGIONAL, ON","CAN","20-01-22","""2020-01-22T16:00:00.000Z""","CYHD 221600Z AUTO 26007KT 6SM BR OVC006 M06/M07 A2971 RMK SLP091 20-01-22",0,0,0,7.5,0,0,49.83151111111111,-92.743675
"CYGQ","GERALDTON (GREENSTONE REGIONAL), ON","CAN","20-01-22","""2020-01-22T16:00:00.000Z""","CYGQ 221600Z 24009G17KT 15SM DRSN OVC015 M05/M09 A2971 RMK SC8 SLP084 20-01-22",0,2,10,10,0,0,49.77868888888889,-86.93855277777779
"CYYU","KAPUSKASING, ON","CAN","20-01-22","""2020-01-22T16:16:00.000Z""","CYYU 221616Z 24014G19KT 10SM -SN OVC017 M02/M05 A2974 RMK SC8 SLP086 20-01-22",0,2,6.7,7.5,0,0,49.411588888888886,-82.46845
"CYHM","HAMILTON, ON","CAN","20-01-22","""2020-01-22T16:00:00.000Z""","CYHM 221600Z 22011G19KT 12SM FEW017 SCT160 BKN240 M02/M05 A3034 RMK SC2AC2CI2 SLP290 20-01-22",0,2,0,0,0,0,43.173655555555555,-79.93507777777778
"CYZE","GORE BAY-MANITOULIN, ON","CAN","20-01-22","""2020-01-22T16:00:00.000Z""","CYZE 221600Z AUTO 20017G22KT 9SM CLR M01/M05 A3007 RMK SLP195 20-01-22",0,4,0,0,0,0,45.884233333333334,-82.56828055555555
"CYMO","MOOSONEE, ON","CAN","20-01-22","""2020-01-22T16:39:00.000Z""","CYMO 221639Z AUTO 21013KT 9SM -SN OVC029 M01/M04 A2962 RMK SLP034 20-01-22",0,0,6.7,7.5,0,0,51.29203333333333,-80.60833333333333
"CYQK","KENORA, ON","CAN","20-01-22","""2020-01-22T16:27:00.000Z""","CYQK 221627Z 25003KT 220V310 3/8SM FZFG OVC002 M07/M08 A2974 RMK FG6SC2 FROIN SLP099 20-01-22",4,0,10,10,0,1,49.78832777777777,-94.36311388888889
"CYGK","KINGSTON, ON","CAN","20-01-22","""2020-01-22T16:00:00.000Z""","CYGK 221600Z 21012G20KT 15SM OVC015 M00/M03 A3035 RMK SC8 SLP285 20-01-22",0,2,0,0,0,0,44.22586388888889,-76.59660555555556
"CYSP","MARATHON, ON","CAN","20-01-22","""2020-01-22T16:00:00.000Z""","CYSP 221600Z 25012G24KT 180V330 7SM SCT009 OVC011 M02/M04 A2976 RMK SC3SC5 BR CIG RAG SLP098 20-01-22",0,2,0,2.5,0,0,48.757105555555555,-86.34584722222222
"CYXU","LONDON, ON","CAN","20-01-22","""2020-01-22T16:00:00.000Z""","CYXU 221600Z 21016KT 15SM FEW015 FEW180 OVC250 M03/M07 A3032 RMK SC1AC1CI7 SC TR CONTRAILS SLP287 20-01-22",0,2,0,0,0,0,43.033052777777776,-81.15100000000001
"CYOO","TORONTO/OSHAWA MUNI, ON","CAN","20-01-22","""2020-01-22T16:07:00.000Z""","CYOO 221607Z AUTO 22013G20KT 9SM BKN230 M01/M04 A3032 RMK SLP278 20-01-22",0,2,0,0,0,0,43.922827777777776,-78.89674444444445
"CYYB","NORTH BAY, ON","CAN","20-01-22","""2020-01-22T16:00:00.000Z""","CYYB 221600Z 21016G27KT 20SM OVC012 M02/M04 A3006 RMK SC8 SLP203 20-01-22",0,4,0,2.5,0,0,46.363825,-79.42423055555555
"CYWA","PETAWAWA, ON (HELI)","CAN","20-01-22","""2020-01-22T16:00:00.000Z""","CYWA 221600Z AUTO 19004KT 9SM FEW099 M01/M06 A3018 RMK SLP227 20-01-22",0,0,0,0,0,0,45.9522222,-77.3191667
"CYQA","MUSKOKA, ON","CAN","20-01-22","""2020-01-22T16:00:00.000Z""","CYQA 221600Z AUTO 16008KT 9SM CLR M06/M09 A3021 RMK SLP248 20-01-22",0,0,0,0,0,0,44.975072222222224,-79.30376111111111
"CYPQ","PETERBOROUGH, ON","CAN","20-01-22","""2020-01-22T16:00:00.000Z""","CYPQ 221600Z AUTO 23008G15KT 200V270 9SM BKN230 M02/M06 A3030 RMK SLP272 20-01-22",0,2,0,0,0,0,44.230536111111114,-78.36319444444445
"CYOW","OTTAWA/MACDONALD-CARTIER INTL, ON","CAN","20-01-22","""2020-01-22T16:00:00.000Z""","CYOW 221600Z 21011KT 15SM FEW080 FEW220 FEW250 M03/M08 A3027 RMK AC1CI1CI1 AC TR SLP259 20-01-22",0,0,0,0,0,0,45.322500000000005,-75.66726944444444
"CZMD","MUSKRAT DAM, ON","CAN","20-01-22","""2020-01-22T16:00:00.000Z""","CZMD 221600Z AUTO 31011G23KT 280V350 4SM -SN OVC013 M06/M07 A2957 RMK ICG INTMT PRESRR SLP036 20-01-22",0,2,6.7,7.5,0,0,53.44145833333333,-91.76286666666667
"CZSJ","SANDY LAKE, ON","CAN","20-01-22","""2020-01-22T16:37:00.000Z""","CZSJ 221637Z AUTO 31016G21KT 9SM -SN BKN013 BKN020 BKN027 OVC035 M06/M08 A2965 RMK SLP063 20-01-22",0,4,6.7,7.5,0,0,53.06418055555555,-93.34437777777778
"CYAM","SAULT STE. MARIE, ON","CAN","20-01-22","""2020-01-22T16:21:00.000Z""","CYAM 221621Z 23016G24KT 6SM -SN OVC019 01/M03 A3000 RMK SC8 SLP170 20-01-22",0,4,6.7,7.5,0,0,46.48506944444445,-84.50955
"CYPL","PICKLE LAKE, ON","CAN","20-01-22","""2020-01-22T16:00:00.000Z""","CYPL 221600Z AUTO 25012G23KT 9SM -SN BKN009 OVC012 M05/M07 A2961 RMK SLP054 20-01-22",0,2,6.7,7.5,0,0,51.44648333333333,-90.21413333333334
"CYRL","RED LAKE, ON","CAN","20-01-22","""2020-01-22T16:00:00.000Z""","CYRL 221600Z 24005KT 15SM OVC016 M08/M08 A2969 RMK SC8 SLP083 20-01-22",0,0,0,2.5,0,0,51.06709166666667,-93.79304166666667
"CYZR","SARNIA (CHRIS HADFIELD), ON","CAN","20-01-22","""2020-01-22T16:00:00.000Z""","CYZR 221600Z AUTO 20014G19KT 9SM FEW210 M02/M08 A3032 RMK SLP278 20-01-22",0,2,0,0,0,0,42.99967777777778,-82.30936388888888
"CYQT","THUNDER BAY, ON","CAN","20-01-22","""2020-01-22T16:00:00.000Z""","CYQT 221600Z 24007KT 15SM FEW021 BKN170 M05/M09 A2982 RMK SC1AC6 SLP112 20-01-22",0,0,0,0,0,0,48.37199444444445,-89.32170555555555
"CYSB","SUDBURY, ON","CAN","20-01-22","""2020-01-22T16:00:00.000Z""","CYSB 221600Z 22017G24KT 20SM OVC014 M03/M05 A3002 RMK SC8 SLP185 20-01-22",0,4,0,2.5,0,0,46.625547222222224,-80.79783333333333
"CYSN","ST CATHARINES/NIAGARA DISTRICT, ON","CAN","20-01-22","""2020-01-22T16:00:00.000Z""","CYSN 221600Z 22017G23KT 12SM SCT018 OVC250 M00/M05 A3037 RMK SC3CI5 SLP292 20-01-22",0,4,0,0,0,0,43.191599999999994,-79.17115000000001
"CYTS","TIMMINS/VICTOR M. POWER, ON","CAN","20-01-22","""2020-01-22T16:00:00.000Z""","CYTS 221600Z 23009G16KT 170V250 15SM OVC020 M01/M05 A2979 RMK SC8 SLP106 20-01-22",0,2,0,0,0,0,48.570658333333334,-81.37663611111111
"CYTZ","TORONTO/BILLY BISHOP TORONTO CITY AIRPORT, ON","CAN","20-01-22","""2020-01-22T16:00:00.000Z""","CYTZ 221600Z AUTO 22017KT 9SM SCT018 M01/M04 A3036 RMK SLP285 20-01-22",0,2,0,0,0,0,43.62739166666667,-79.39620277777779
"CYXL","SIOUX LOOKOUT, ON","CAN","20-01-22","""2020-01-22T16:00:00.000Z""","CYXL 221600Z 24006KT 180V260 5SM -SN BR OVC006 M05/M07 A2971 RMK ST8 SLP088 20-01-22",0,0,6.7,7.5,0,0,50.11416666666667,-91.9055
"CYYZ","TORONTO/LESTER B. PEARSON INTL, ON","CAN","20-01-22","""2020-01-22T16:00:00.000Z""","CYYZ 221600Z 19017KT 12SM FEW020 BKN260 M01/M06 A3033 RMK CF1CI6 CF TR SLP281 20-01-22",0,2,0,0,0,0,43.67666111111111,-79.63064166666666
"CYXZ","WAWA, ON","CAN","20-01-22","""2020-01-22T16:16:00.000Z""","CYXZ 221616Z 22017G26KT 1SM -SN BLSN VV005 M03/M03 A2987 RMK BLSN8 SLP132 20-01-22",0,4,10,10,0,0,47.966858333333334,-84.78631944444444
"CYKF","KITCHENER/WATERLOO, ON","CAN","20-01-22","""2020-01-22T16:00:00.000Z""","CYKF 221600Z AUTO 20010G15KT 9SM FEW013 BKN240 M03/M06 A3030 RMK SLP281 20-01-22",0,2,0,0,0,0,43.460775000000005,-80.37871388888888
"CYQG","WINDSOR, ON","CAN","20-01-22","""2020-01-22T16:00:00.000Z""","CYQG 221600Z AUTO 21013G18KT 9SM BKN230 M03/M07 A3036 RMK SLP292 20-01-22",0,2,0,0,0,0,42.275975,-82.9554
"CYTR","TRENTON, ON","CAN","20-01-22","""2020-01-22T16:00:00.000Z""","CYTR 221600Z 23011G18KT 15SM BKN016 01/M05 A3034 RMK SC7 SLP280 20-01-22",0,2,0,0,0,0,44.11888888888889,-77.52805555555555
"CYVV","WIARTON, ON","CAN","20-01-22","""2020-01-22T16:00:00.000Z""","CYVV 221600Z 22017G26KT 12SM FEW015 FEW100 BKN250 M02/M06 A3019 RMK SC1AC1CI7 SC TR AC TR SLP236 20-01-22",0,4,0,0,0,0,44.74403888888889,-81.10858333333333
"CYYG","CHARLOTTETOWN, PE","CAN","20-01-22","""2020-01-22T16:00:00.000Z""","CYYG 221600Z 19007KT 15SM FEW230 M09/M13 A3042 RMK CI1 CI TR SLP306 20-01-22",0,0,0,0,0,0,46.28915277777777,-63.11925
"CYBC","BAIE-COMEAU, QC","CAN","20-01-22","""2020-01-22T16:00:00.000Z""","CYBC 221600Z AUTO 18008KT 9SM OVC016 M08/M11 A3025 RMK SLP246 20-01-22",0,0,0,0,0,0,49.13249722222222,-68.20435
"CYBG","BAGOTVILLE, QC","CAN","20-01-22","""2020-01-22T16:00:00.000Z""","CYBG 221600Z 10009KT 25SM BKN028 M08/M11 A3014 RMK SC7 SLP219 20-01-22",0,0,0,0,0,0,48.330555555555556,-70.99638888888889
"CYLA","AUPALUK, QC","CAN","20-01-22","""2020-01-22T16:00:00.000Z""","CYLA 221600Z 07004KT 360V080 13SM -SN OVC021 M27/M31 A2980 RMK SC8 SLP099 20-01-22",0,0,6.7,10,0,0,59.296730555555555,-69.59985277777777
"CYBX","LOURDES-DE-BLANC-SABLON, QC","CAN","20-01-22","""2020-01-22T16:00:00.000Z""","CYBX 221600Z 23003KT 210V290 10SM -SN OVC027 M08/M11 A3039 RMK SC8 SLP295 20-01-22",0,0,6.7,7.5,0,0,51.442049999999995,-57.18612222222222
"CYGP","GASPE (MICHEL-POULIOT), QC","CAN","20-01-22","""2020-01-22T16:00:00.000Z""","CYGP 221600Z 00000KT 15SM SKC M10/M17 A3034 RMK SLP277 20-01-22",0,0,0,0,0,0,48.77516388888889,-64.4796638888889
"CYGV","HAVRE ST-PIERRE, QC","CAN","20-01-22","""2020-01-22T16:00:00.000Z""","CYGV 221600Z AUTO 07003KT 9SM -SN BKN020 M11/M13 A3032 RMK SLP272 20-01-22",0,0,6.7,7.5,0,0,50.28194444444444,-63.611111111111114
"CYMT","CHIBOUGAMOU/CHAPAIS, QC","CAN","20-01-22","""2020-01-22T16:00:00.000Z""","CYMT 221600Z AUTO 21014G21KT 9SM OVC013 M04/M06 A2984 RMK SLP131 20-01-22",0,2,0,2.5,0,0,49.77186111111111,-74.52797222222222
"CYND","OTTAWA/GATINEAU, QC","CAN","20-01-22","""2020-01-22T16:00:00.000Z""","CYND 221600Z 24009KT 15SM BKN230 M03/M08 A3028 RMK CI5 SLP257 20-01-22",0,0,0,0,0,0,45.52169166666667,-75.56361111111111
"CYPH","INUKJUAK, QC","CAN","20-01-22","""2020-01-22T16:37:00.000Z""","CYPH 221637Z AUTO 12015KT 5SM -SN OVC038 M12/M15 A2943 RMK SLP971 20-01-22",0,0,6.7,7.5,0,0,58.47193055555556,-78.07701388888889
"CYAS","KANGIRSUK, QC","CAN","20-01-22","""2020-01-22T16:30:00.000Z""","CYAS 221630Z 35003KT 290V010 5/8SM -SN BR BKN001 OVC013 M30/M34 A2975 RMK SN2ST4ST2 SLP097 20-01-22",0,0,6.7,10,0,1,60.027252777777775,-69.99917777777777
"CYGR","ILES-DE-LA-MADELEINE, QC","CAN","20-01-22","""2020-01-22T16:00:00.000Z""","CYGR 221600Z 23008KT 180V250 20SM SCT020 M07/M12 A3043 RMK SC3 SLP307 20-01-22",0,0,0,0,0,0,47.425066666666666,-61.77797777777778
"CYIK","IVUJIVIK, QC","CAN","20-01-22","""2020-01-22T16:00:00.000Z""","CYIK 221600Z 14014G22KT 15SM DRSN FEW015 FEW030 FEW060 FEW120 M27/M30 A2965 RMK ST1SC1SC1AC1 ST TR SC TR SC TR AC TR SLP047 20-01-22",0,2,10,10,0,0,62.417341666666665,-77.92528055555556
"CYAH","LA GRANDE-4, QC","CAN","20-01-22","""2020-01-22T16:38:00.000Z""","CYAH 221638Z AUTO 18010G21KT 3SM -SN OVC018 M06/M09 A2958 RMK SLP044 20-01-22",0,2,6.7,7.5,0,0,53.754725,-73.67529444444445
"CYGW","KUUJJUARAPIK, QC","CAN","20-01-22","""2020-01-22T16:11:00.000Z""","CYGW 221611Z AUTO 17011G17KT 9SM -SN OVC019 M04/M06 A2939 RMK SLP954 20-01-22",0,2,6.7,7.5,0,0,55.28202777777778,-77.76525277777777
"CYGL","LA GRANDE RIVIERE, QC","CAN","20-01-22","""2020-01-22T16:00:00.000Z""","CYGL 221600Z 20013G23KT 15SM -SN DRSN OVC006 M04/M06 A2948 RMK SF8 SLP999 20-01-22",0,2,10,10,0,0,53.62538611111111,-77.70405555555556
"CYVP","KUUJJUAQ, QC","CAN","20-01-22","""2020-01-22T16:00:00.000Z""","CYVP 221600Z 00000KT 15SM -SN OVC027 M20/M22 A2984 RMK SC8 SLP111 20-01-22",0,0,6.7,10,0,0,58.094875,-68.42217222222223
"CYNM","MATAGAMI, QC","CAN","20-01-22","""2020-01-22T16:27:00.000Z""","CYNM 221627Z AUTO 21012G17KT 9SM OVC022 M03/M05 A2977 RMK SLP100 20-01-22",0,2,0,2.5,0,0,49.76177222222222,-77.80270555555555
"CYMX","MONTREAL INTL (MIRABEL), QC","CAN","20-01-22","""2020-01-22T16:00:00.000Z""","CYMX 221600Z 24009G15KT 200V260 20SM FEW022 FEW100 BKN250 M04/M09 A3027 RMK SC1AC1CI5 SC TR SLP259 20-01-22",0,2,0,0,0,0,45.67978055555555,-74.03870833333333
"CYNA","NATASHQUAN, QC","CAN","20-01-22","""2020-01-22T16:00:00.000Z""","CYNA 221600Z AUTO 19012KT 9SM -SN OVC020 M07/M11 A3035 RMK SLP281 20-01-22",0,0,6.7,7.5,0,0,50.19008333333333,-61.78894722222222
"CYUL","MONTREAL/PIERRE ELLIOT TRUDEAU INTL,  QC","CAN","20-01-22","""2020-01-22T16:00:00.000Z""","CYUL 221600Z 22013KT 15SM FEW015 FEW180 BKN210 M02/M06 A3029 RMK SC1AC1CS5 AC TR CI ASOCT CONTRAILS SLP262 20-01-22",0,0,0,0,0,0,45.470463888888894,-73.74093055555555
"CYYY","MONT-JOLI, QC","CAN","20-01-22","""2020-01-22T16:00:00.000Z""","CYYY 221600Z 17007KT 15SM OVC051 M07/M12 A3024 RMK SC8 SLP245 20-01-22",0,0,0,0,0,0,48.609025,-68.20758888888889
"CYPX","PUVIRNITUQ, QC","CAN","20-01-22","""2020-01-22T16:00:00.000Z""","CYPX 221600Z AUTO 09014KT 7SM -SN BKN007 BKN018 M22/M24 A2960 RMK SLP028 20-01-22",0,0,6.7,10,0,0,60.05211111111111,-77.28760555555556
"CYKL","SCHEFFERVILLE, QC","CAN","20-01-22","""2020-01-22T16:32:00.000Z""","CYKL 221632Z AUTO 18013G18KT 9SM -SN OVC027 M13/M16 A2981 RMK SLP152 20-01-22",0,2,6.7,7.5,0,0,54.80517222222222,-66.80531666666667
"CYHA","QUAQTAQ, QC","CAN","20-01-22","""2020-01-22T16:00:00.000Z""","CYHA 221600Z 18015KT 15SM DRSN FEW240 M26/M30 A2978 RMK CC1 SLP091 20-01-22",0,0,10,10,0,0,61.04651666666666,-69.61765
"CYHU","MONTREAL/ST-HUBERT, QC","CAN","20-01-22","""2020-01-22T16:00:00.000Z""","CYHU 221600Z AUTO 19013KT 9SM FEW210 M03/M07 A3030 RMK SLP263 20-01-22",0,0,0,0,0,0,45.51805833333333,-73.41699444444446
"CYQB","QUEBEC/JEAN LESAGE INTL, QC","CAN","20-01-22","""2020-01-22T16:00:00.000Z""","CYQB 221600Z 00000KT 6SM -SN OVC017 M08/M11 A3028 RMK SC8 VIS S 15 SLP261 20-01-22",0,0,6.7,7.5,0,0,46.79119444444444,-71.39331111111112
"CYRJ","ROBERVAL, QC","CAN","20-01-22","""2020-01-22T16:00:00.000Z""","CYRJ 221600Z 20005KT 140V250 25SM OVC017 M04/M08 A3007 RMK SC8 SLP197 20-01-22",0,0,0,0,0,0,48.519891666666666,-72.26596666666667
"CYUY","ROUYN-NORANDA, QC","CAN","20-01-22","""2020-01-22T16:00:00.000Z""","CYUY 221600Z 21015G26KT 15SM DRSN FEW020 BKN180 OVC240 M01/M05 A2987 RMK SC1AC5CS2 SLP134 20-01-22",0,2,10,10,0,0,48.20618888888889,-78.83558611111111
"CYZV","SEPT-ILES, QC","CAN","20-01-22","""2020-01-22T16:00:00.000Z""","CYZV 221600Z VRB02KT 30SM -SN BKN020 BKN110 BKN260 M10/M16 A3029 RMK SC5AC1CI1 AC TR SLP263 20-01-22",0,0,6.7,7.5,0,0,50.22338611111111,-66.26569166666667
"CYTQ","TASIUJAQ, QC","CAN","20-01-22","""2020-01-22T16:00:00.000Z""","CYTQ 221600Z 03002KT 10SM OVC030 M24/M28 A2980 RMK SC8 SLP097 20-01-22",0,0,0,0,0,0,58.66766111111111,-69.95578611111111
"CYMU","UMIUJAQ, QC","CAN","20-01-22","""2020-01-22T16:37:00.000Z""","CYMU 221637Z 13022G28KT 1 1/2SM -SN DRSN FEW013 SCT036 OVC049 M08/M10 A2939 RMK ST2SC2SC4 SLP963 20-01-22",0,6,10,10,0,1,56.53612222222222,-76.51825
"CYKQ","WASKAGANISH, QC","CAN","20-01-22","""2020-01-22T16:00:00.000Z""","CYKQ 221600Z 20013G21KT 12SM FEW018 OVC027 M02/M05 A2965 RMK SF2NS6 SLP045 20-01-22",0,2,0,0,0,0,51.47332222222222,-78.75838888888889
"CYNC","WEMINDJI, QC","CAN","20-01-22","""2020-01-22T16:00:00.000Z""","CYNC 221600Z 20012G21KT 10SM -SN DRSN BKN010 OVC024 M03/M04 A2954 RMK SC6SC2 SF ASOCTD SLP007 20-01-22",0,2,10,10,0,0,53.01060277777778,-78.83121388888888
"CYRQ","TROIS-RIVIERES, QC","CAN","20-01-22","""2020-01-22T16:00:00.000Z""","CYRQ 221600Z AUTO 20013G18KT 9SM SCT016 OVC029 M04/M07 A3024 RMK SLP248 20-01-22",0,2,0,0,0,0,46.351572222222224,-72.68045833333333
"CYVO","VAL-D'OR, QC","CAN","20-01-22","""2020-01-22T16:00:00.000Z""","CYVO 221600Z 20017G24KT 15SM FEW018 SCT180 BKN240 M02/M05 A2989 RMK CF1AC2CI3 SLP147 20-01-22",0,4,0,0,0,0,48.053286111111106,-77.78266111111111
"CYVT","BUFFALO NARROWS, SK","CAN","20-01-22","""2020-01-22T16:40:00.000Z""","CYVT 221640Z AUTO 16003KT 110V180 2 1/2SM -SN OVC004 M08/M09 A2981 RMK VIS VRB 1 1/2-3 SLP128 20-01-22",0,0,6.7,7.5,0,1,55.84193611111111,-108.41760833333333
"CYKJ","KEY LAKE, SK","CAN","20-01-22","""2020-01-22T16:35:00.000Z""","CYKJ 221635Z AUTO VRB02KT 7SM -SN OVC004 M13/M15 A2979 RMK SLP135 20-01-22",0,0,6.7,7.5,0,0,57.25633055555556,-105.61742222222222
"CYKY","KINDERSLEY,REGIONAL SK","CAN","20-01-22","""2020-01-22T16:00:00.000Z""","CYKY 221600Z 28010KT 200V280 15SM FEW080 SCT100 BKN240 M08/M10 A2967 RMK AC2AC2CI2 SLP094 20-01-22",0,0,0,2.5,0,0,51.515144444444445,-109.18055833333334
"CYEN","ESTEVAN REGIONAL, SK","CAN","20-01-22","""2020-01-22T16:00:00.000Z""","CYEN 221600Z AUTO VRB02KT 7SM SCT200 M13/M14 A2976 RMK SLP119 20-01-22",0,0,0,2.5,0,0,49.21019444444445,-102.96575833333334
"CYVC","LA RONGE (BARBER FIELD), SK","CAN","20-01-22","""2020-01-22T16:00:00.000Z""","CYVC 221600Z 32004KT 260V330 15SM OVC008 M07/M09 A2984 RMK SC8 SLP133 20-01-22",0,0,0,2.5,0,0,55.15133888888889,-105.26698611111111
"CYMJ","MOOSE JAW/AIR VICE MARSHALL C.M. MCEWEN, SK","CAN","20-01-22","""2020-01-22T16:00:00.000Z""","CYMJ 221600Z 09002KT 15SM FEW040 OVC090 M07/M08 A2977 RMK SC1AC8 SLP119 20-01-22",0,0,0,2.5,0,0,50.33027777777778,-105.55916666666667
"CYLJ","MEADOW LAKE, SK","CAN","20-01-22","""2020-01-22T16:00:00.000Z""","CYLJ 221600Z 08006KT 10SM OVC005 M05/M06 A2978 RMK SC8 BR SLP116 20-01-22",0,0,0,2.5,0,0,54.125391666666665,-108.52289722222223
"CYBU","NIPAWIN, SK","CAN","20-01-22","""2020-01-22T16:00:00.000Z""","CYBU 221600Z AUTO 35002KT 9SM OVC013 M09/M09 A2983 RMK SLP130 20-01-22",0,0,0,2.5,0,0,53.33245277777778,-104.0088
"CYQW","NORTH BATTLEFORD,SK","CAN","20-01-22","""2020-01-22T16:40:00.000Z""","CYQW 221640Z AUTO 13014KT 4SM BR BKN005 OVC060 M07/M08 A2979 RMK SLP127 20-01-22",0,0,0,7.5,0,0,52.7691,-108.24446111111111
"CYXE","SASKATOON/JOHN G. DIEFENBAKER INTL, SK","CAN","20-01-22","""2020-01-22T16:19:00.000Z""","CYXE 221619Z 09009KT 8SM FEW005 OVC060 M09/M10 A2978 RMK SF1SC7 VIRGA SLP126 20-01-22",0,0,0,2.5,0,0,52.17096111111111,-106.69995555555556
"CYQR","REGINA INTL, SK","CAN","20-01-22","""2020-01-22T16:00:00.000Z""","CYQR 221600Z 21002KT 12SM OVC089 M10/M11 A2978 RMK AC8 SLP126 20-01-22",0,0,0,2.5,0,0,50.43219166666666,-104.66605277777778
"CYPA","PRINCE ALBERT (GLASS FIELD), SK","CAN","20-01-22","""2020-01-22T16:00:00.000Z""","CYPA 221600Z 07003KT 12SM OVC009 M09/M10 A2984 RMK ST8 SLP138 20-01-22",0,0,0,2.5,0,0,53.214577777777784,-105.67298055555555
"CYSF","STONY RAPIDS, SK","CAN","20-01-22","""2020-01-22T16:26:00.000Z""","CYSF 221626Z AUTO 15002KT 8SM OVC008 M24/M26 A2989 RMK SLP153 20-01-22",0,0,0,0,0,0,59.250366666666665,-105.8414111111111
"CYQV","YORKTON MUNI, SK","CAN","20-01-22","""2020-01-22T16:14:00.000Z""","CYQV 221614Z AUTO 25005KT 6SM BR OVC004 M07/M08 A2979 RMK SLP122 20-01-22",0,0,0,7.5,0,0,51.264722222222225,-102.46138888888889
"CYDB","BURWASH, YT","CAN","20-01-22","""2020-01-22T16:00:00.000Z""","CYDB 221600Z 28002KT 10SM VCFG FEW003 M31/M34 A2944 RMK ST2 FG PTCHS E OVR TOWN SLP070 20-01-22",0,0,0,10,0,0,61.37066111111111,-139.03994722222222
"CYYN","SWIFT CURRENT, SK","CAN","20-01-22","""2020-01-22T16:00:00.000Z""","CYYN 221600Z AUTO 22011KT 9SM CLR M04/M06 A2967 RMK ICG SLP087 20-01-22",0,0,0,2.5,0,0,50.292516666666664,-107.69088611111111
"CYOC","OLD CROW, YT","CAN","20-01-22","""2020-01-22T16:28:00.000Z""","CYOC 221628Z 09003KT 080V140 6SM -SN BR SCT015 OVC030 M29/M33 A2963 RMK ST3SC5 PCPN LGT SLP077 20-01-22",0,0,6.7,10,0,0,67.57006666666666,-139.83988055555557
"CYDA","DAWSON CITY, YT","CAN","20-01-22","""2020-01-22T16:00:00.000Z""","CYDA 221600Z CCA VRB02KT 10SM -SN SCT013 BKN085 M22/M24 A2958 RMK ST3AS4 SLP061 20-01-22",0,0,6.7,10,0,0,64.04211388888889,-139.13030833333335
"CYMA","MAYO, YT","CAN","20-01-22","""2020-01-22T16:00:00.000Z""","CYMA 221600Z 00000KT 6SM -SN SCT080 M19/M22 A2953 RMK AC3 SLP058 20-01-22",0,0,6.7,10,0,0,63.61673611111111,-135.8690138888889
"CZFA","FARO, YT","CAN","20-01-22","""2020-01-22T16:00:00.000Z""","CZFA 221600Z 12004KT 30SM -SN FEW048 BKN053 M21/M23 A2948 RMK SC2SC4 PCPN VRY LGT SLP065 20-01-22",0,0,6.7,10,0,0,62.206950000000006,-133.37341666666669
"CYQH","WATSON LAKE, YT","CAN","20-01-22","""2020-01-22T16:00:00.000Z""","CYQH 221600Z 28002KT 10SM -SN OVC050 M19/M22 A2956 RMK SC8 SLP080 20-01-22",0,0,6.7,10,0,0,60.11645,-128.82241666666667
"CYXY","WHITEHORSE/ERIK NIELSEN INTL, YT","CAN","20-01-22","""2020-01-22T16:00:00.000Z""","CYXY 221600Z 00000KT 15SM SCT160 BKN200 M19/M21 A2947 RMK AC4CI4 SLP045 20-01-22",0,0,0,0,0,0,60.70955,-135.06726944444443
"MMCU","CHIHUAHUA","MEX","20-01-22","""2020-01-22T15:49:00.000Z""","MMCU 221549Z 00000KT 10SM BKN080 BKN200 10/06 A3012 RMK 8/072 20-01-22",0,0,0,0,0,0,28.70232777777778,-105.9629638888889
"MMAA","ACAPULCO","MEX","20-01-22","""2020-01-22T15:48:00.000Z""","MMAA 221548Z 08006KT 7SM SKC 28/22 A2998 RMK HZY DSNT CB S 20-01-22",0,0,0,0,0,0,16.75709722222222,-99.75381944444445
"MMCP","CAMPECHE","MEX","20-01-22","""2020-01-22T15:45:00.000Z""","MMCP 221545Z 09010KT 7SM SKC 22/13 A3016 20-01-22",0,0,0,0,0,0,19.816805555555554,-90.50030555555556
"MMCE","CD. DEL CARMEN","MEX","20-01-22","""2020-01-22T15:45:00.000Z""","MMCE 221545Z 09010KT 7SM SCT015 22/15 A3015 RMK 8/100 20-01-22",0,0,0,0,0,0,18.651963888888886,-91.79954166666667
"MMUN","CANCUN","MEX","20-01-22","""2020-01-22T15:43:00.000Z""","MMUN 221543Z 08007KT 7SM SKC 22/12 A3014 20-01-22",0,0,0,0,0,0,21.04277777777778,-86.87333333333332
"MMAS","AGUASCALIENTES","MEX","20-01-22","""2020-01-22T15:42:00.000Z""","MMAS 221542Z 19010KT 12SM SKC 16/07 A3028 RMK ISOL SC AC 20-01-22",0,0,0,0,0,0,21.70548611111111,-102.31789444444443
"MMCM","CHETUMAL","MEX","20-01-22","""2020-01-22T15:41:00.000Z""","MMCM 221541Z 35007KT 7SM SKC 21/14 A3015 20-01-22",0,0,0,0,0,0,18.50463611111111,-88.32679444444445
"MMBT","BAHIAS DE HUATULCO","MEX","20-01-22","""2020-01-22T15:40:00.000Z""","MMBT 221540Z 00000KT 10SM FEW030 27/21 A3000 RMK 8/100 20-01-22",0,0,0,0,0,0,15.775327777777779,-96.26255277777778
"MMIA","COLIMA","MEX","20-01-22","""2020-01-22T15:52:00.000Z""","MMIA 221552Z 00000KT 6SM SKC 23/18 A3010 RMK 6//// HZY 20-01-22",0,0,0,0,0,0,19.277016666666665,-103.57759999999999
"MMCL","CULIACAN","MEX","20-01-22","""2020-01-22T15:51:00.000Z""","MMCL 221551Z 00000KT 10SM BKN080 OVC250 19/14 A3000 RMK 8/037 MSGTX MMMX 20-01-22",0,0,0,0,0,0,24.765058333333332,-107.47515
"MMCB","CUERNAVACA","MEX","20-01-22","""2020-01-22T15:50:00.000Z""","MMCB 221550Z 22005KT 10SM SKC 20/08 A3023 RMK CI 20-01-22",0,0,0,0,0,0,18.834508333333332,-99.26159166666666
"MMCS","CD. JUAREZ","MEX","20-01-22","""2020-01-22T15:48:00.000Z""","MMCS 221548Z 19006KT 10SM SCT015 BKN030 10/06 A3009 RMK 8/800 20-01-22",0,0,0,0,0,0,31.636358333333334,-106.42876111111111
"MMGL","GUADALAJARA","MEX","20-01-22","""2020-01-22T15:48:00.000Z""","MMGL 221548Z 08004KT 12SM SKC 19/10 A3023 20-01-22",0,0,0,0,0,0,20.521833333333333,-103.31114444444444
"MMCZ","COZUMEL","MEX","20-01-22","""2020-01-22T15:44:00.000Z""","MMCZ 221544Z 36015KT 8SM FEW015 23/14 A3012 RMK 8/100 20-01-22",0,0,0,0,0,0,20.522063888888887,-86.92927777777778
"MMCV","CD. VICTORIA","MEX","20-01-22","""2020-01-22T15:44:00.000Z""","MMCV 221544Z 14024KT 10SM FEW020 SCT200 18/12 A3001 RMK 8/101 20-01-22",0,4,0,0,0,0,23.703430555555556,-98.95644444444444
"MMCT","CHICHEN-ITZA","MEX","20-01-22","""2020-01-22T15:41:00.000Z""","MMCT 221541Z 08010KT 8SM SKC 22/11 A3013 RMK HZY 20-01-22",0,0,0,0,0,0,20.64133888888889,-88.44621666666667
"MMCN","CD. OBREGON","MEX","20-01-22","""2020-01-22T15:41:00.000Z""","MMCN 221541Z 32007KT 10SM BKN200 16/14 A3003 RMK 8/008 HZY 20-01-22",0,0,0,0,0,0,27.393044444444445,-109.83338333333333
"MMLO","LEON","MEX","20-01-22","""2020-01-22T15:40:00.000Z""","MMLO 221540Z 00000KT 10SM BKN030 BKN250 13/04 A3034 RMK 8/508 20-01-22",0,0,0,0,0,0,20.993305555555555,-101.4809638888889
"MMHO","HERMOSILLO","MEX","20-01-22","""2020-01-22T16:02:00.000Z""","MMHO 221602Z 13004KT 10SM SCT080 16/13 A3013 RMK 8/030 ISOL CI HZY 20-01-22",0,0,0,0,0,0,29.095816666666664,-111.04785277777778
"MMZH","IXTAPA-ZIHUATANEJO","MEX","20-01-22","""2020-01-22T15:47:00.000Z""","MMZH 221547Z 00000KT 7SM FEW100 30/22 A2998 RMK 8/030 HZY TCU DSNT 3ER QUAD ISOL CI 20-01-22",0,0,0,0,0,0,17.601622222222225,-101.46055
"MMDO","DURANGO","MEX","20-01-22","""2020-01-22T15:46:00.000Z""","MMDO 221546Z 21004KT 10SM OVC090 14/05 A3026 RMK 8/01/ BINOVC 20-01-22",0,0,0,0,0,0,24.126033333333332,-104.52746111111111
"MMMA","MATAMOROS","MEX","20-01-22","""2020-01-22T15:46:00.000Z""","MMMA 221546Z 15007KT 6SM SCT006 BKN012 OVC080 19/19 A3004 RMK 8/72/ HZ OCNL DROPS 20-01-22",0,0,0,0,0,0,25.76994722222222,-97.52523333333333
"MMLT","LORETO","MEX","20-01-22","""2020-01-22T15:44:00.000Z""","MMLT 221544Z 00000KT 10SM SCT100 BKN200 17/14 A3008 RMK 8/096 20-01-22",0,0,0,0,0,0,25.989877777777778,-111.34696666666666
"MMMZ","MAZATLAN","MEX","20-01-22","""2020-01-22T15:42:00.000Z""","MMMZ 221542Z 04003KT 14SM SCT100 BKN240 20/17 A3001 RMK 8/032 20-01-22",0,0,0,0,0,0,23.161483333333333,-106.26455833333333
"MMLP","LA PAZ","MEX","20-01-22","""2020-01-22T15:40:00.000Z""","MMLP 221540Z 02003KT 10SM BKN100 BKN200 19/15 A3008 RMK 8/038 HZY ISOL SC 20-01-22",0,0,0,0,0,0,24.072744444444446,-110.36254166666666
"MMLM","LOS MOCHIS","MEX","20-01-22","""2020-01-22T15:40:00.000Z""","MMLM 221540Z 30009KT 10SM BKN065 OVC220 18/14 A3005 RMK 8/027 HZY 20-01-22",0,0,0,0,0,0,25.68608888888889,-109.0812
"MMGM","GUAYMAS","MEX","20-01-22","""2020-01-22T15:40:00.000Z""","MMGM 221540Z 00000KT 10SM FEW140 15/14 A3002 RMK 8/010 HZY 20-01-22",0,0,0,0,0,0,27.96932222222222,-110.92371666666668
"MMZO","MANZANILLO","MEX","20-01-22","""2020-01-22T15:40:00.000Z""","MMZO 221540Z 01006KT 10SM FEW020 28/22 A2997 RMK 8/100 20-01-22",0,0,0,0,0,0,19.14476388888889,-104.558475
"MMMX","MEXICO","MEX","20-01-22","""2020-01-22T16:21:00.000Z""","MMMX 221621Z 10005KT 5SM SKC 15/04 A3036 NOSIG RMK HZY 20-01-22",0,0,0,0,0,0,19.436394444444446,-99.07196944444443
"MMML","MEXICALI","MEX","20-01-22","""2020-01-22T15:50:00.000Z""","MMML 221550Z 15002KT 1 1/2SM BR SCT200 07/07 A3017 RMK 8/004 20-01-22",0,0,0,0,0,0,32.63068888888889,-115.24191111111111
"MMMM","MORELIA","MEX","20-01-22","""2020-01-22T15:46:00.000Z""","MMMM 221546Z 12002KT 6SM BKN100 15/07 A3029 RMK 8/030 HZY 20-01-22",0,0,0,0,0,0,19.849869444444444,-101.025375
"MMMD","MERIDA","MEX","20-01-22","""2020-01-22T15:45:00.000Z""","MMMD 221545Z 04007KT 7SM FEW020 SCT080 22/13 A3016 RMK 8/570 20-01-22",0,0,0,0,0,0,20.93702222222222,-89.65769444444445
"MMMT","MINATITLAN","MEX","20-01-22","""2020-01-22T15:42:00.000Z""","MMMT 221542Z 00000KT 7SM SKC 23/18 A3010 20-01-22",0,0,0,0,0,0,18.10334166666667,-94.58061388888889
"MMOX","OAXACA","MEX","20-01-22","""2020-01-22T15:41:00.000Z""","MMOX 221541Z 02006KT 10SM SKC 14/06 A3031 20-01-22",0,0,0,0,0,0,16.998586111111113,-96.7260388888889
"MMNL","NUEVO LAREDO","MEX","20-01-22","""2020-01-22T15:41:00.000Z""","MMNL 221541Z 11008KT 2SM -DZ BR OVC008 14/14 A3001 RMK 8/7// -DZB35 20-01-22",0,0,0,0,0,1,27.44336388888889,-99.56991666666666
"MMMY","MONTERREY","MEX","20-01-22","""2020-01-22T15:41:00.000Z""","MMMY 221541Z 34003KT 7SM SCT030 BKN070 14/13 A3003 RMK 8/520 HZY 20-01-22",0,0,0,0,0,0,25.775858333333332,-100.10694444444444
"MMMV","MONCLOVA","MEX","20-01-22","""2020-01-22T15:40:00.000Z""","MMMV 221540Z 00000KT 5SM BKN050 OVC070 11/08 A2999 RMK 8/57/ HZY 20-01-22",0,0,0,0,0,0,26.9555,-101.47103888888888
"MMAN","AEROPUERTO DEL NORTE","MEX","20-01-22","""2020-01-22T15:40:00.000Z""","MMAN 221540Z 28008KT 10SM SCT025 OVC080 14/11 A3007 RMK 8/52/ 20-01-22",0,0,0,0,0,0,25.865605555555558,-100.23721111111111
"MMQT","QUERETARO","MEX","20-01-22","""2020-01-22T16:28:00.000Z""","MMQT 221628Z 00000KT 2 1/2SM BR SCT010 12/07 A3035 RMK 8/600 20-01-22",0,0,0,0,0,1,20.617372222222222,-100.18566111111112
"MMPQ","PALENQUE","MEX","20-01-22","""2020-01-22T15:50:00.000Z""","MMPQ 221550Z 09007KT 5SM FEW030 21/18 A3004 RMK 8/100 HZY 20-01-22",0,0,0,0,0,0,17.53301388888889,-92.01558888888889
"MMPR","PUERTO VALLARTA","MEX","20-01-22","""2020-01-22T15:46:00.000Z""","MMPR 221546Z 35004KT 15SM SKC 23/20 A2999 20-01-22",0,0,0,0,0,0,20.680072222222222,-105.2542
"MMPS","PUERTO ESCONDIDO","MEX","20-01-22","""2020-01-22T15:46:00.000Z""","MMPS 221546Z 10008KT 15SM SKC 28/15 A2999 20-01-22",0,0,0,0,0,0,15.876916666666666,-97.08908333333333
"MMPA","POZA RICA","MEX","20-01-22","""2020-01-22T15:44:00.000Z""","MMPA 221544Z 18004KT 3SM BR HZ BKN008 OVC012 17/17 A3008 RMK 8/8// BINOVC 20-01-22",0,0,0,0,0,1,20.602094444444447,-97.46059166666667
"MMSD","SAN JOSE DEL CABO","MEX","20-01-22","""2020-01-22T15:43:00.000Z""","MMSD 221543Z 25005KT 12SM BKN120 BKN250 19/11 A3007 RMK 8/028 20-01-22",0,0,0,0,0,0,23.15207222222222,-109.72074722222223
"MMPB","PUEBLA","MEX","20-01-22","""2020-01-22T15:42:00.000Z""","MMPB 221542Z 04003KT 6SM SKC 11/06 A3036 RMK HZY 20-01-22",0,0,0,0,0,0,19.15813611111111,-98.3715
"MMRX","REYNOSA","MEX","20-01-22","""2020-01-22T15:41:00.000Z""","MMRX 221541Z 17008KT 8SM SCT010 BKN040 20/15 A3003 RMK 8/500 HZY 20-01-22",0,0,0,0,0,0,26.00858611111111,-98.22824722222222
"MMPG","PIEDRAS NEGRAS","MEX","20-01-22","""2020-01-22T15:40:00.000Z""","MMPG 221540Z 00000KT 3/4SM FG VV002 12/11 A3005 RMK 8/5// 20-01-22",0,0,0,0,0,0,28.627369444444444,-100.53440555555555
"MMIO","SALTILLO","MEX","20-01-22","""2020-01-22T15:40:00.000Z""","MMIO 221540Z 18005KT 10SM SCT100 15/04 A3010 RMK 8/030 20-01-22",0,0,0,0,0,0,25.549786111111114,-100.92835277777779
"MMSP","SAN LUIS POTOSI","MEX","20-01-22","""2020-01-22T16:29:00.000Z""","MMSP 221629Z 16006KT 2SM HZ SKC 12/07 A3024 20-01-22",0,0,0,0,0,0,22.254261111111113,-100.93075833333334
"MMTO","TOLUCA","MEX","20-01-22","""2020-01-22T16:17:00.000Z""","MMTO 221617Z 05003KT 5SM SKC 13/04 A3041 RMK HZY CU VSBY LWR E 20-01-22",0,0,0,0,0,0,19.337083333333332,-99.56603333333334
"MMSL","CABO SAN LUCAS","MEX","20-01-22","""2020-01-22T15:50:00.000Z""","MMSL 221550Z 00000KT 9SM SCT120 BKN230 21/14 A3008 RMK 8/032 20-01-22",0,0,0,0,0,0,22.948258333333335,-109.938325
"MMTM","TAMPICO","MEX","20-01-22","""2020-01-22T15:49:00.000Z""","MMTM 221549Z E26008KT 4SM SCT020 BKN070 19/18 A3009 RMK 8/570 BR 20-01-22",0,0,0,0,0,0,22.289819444444447,-97.86441388888888
"MMTG","TUXTLA GUTIERREZ","MEX","20-01-22","""2020-01-22T15:48:00.000Z""","MMTG 221548Z 27002KT 8SM FEW020 SCT070 22/13 A3014 RMK 8/630 20-01-22",0,0,0,0,0,0,16.561819444444446,-93.02608055555555
"MMTJ","TIJUANA","MEX","20-01-22","""2020-01-22T15:44:00.000Z""","MMTJ 221544Z 00000KT 8SM BKN230 11/10 A3022 RMK 8/008 HZY ISOL CU 20-01-22",0,0,0,0,0,0,32.54105555555555,-116.96995833333334
"MMEP","TEPIC","MEX","20-01-22","""2020-01-22T15:41:00.000Z""","MMEP 221541Z 00000KT 10SM SKC 17/13 A3013 20-01-22",0,0,0,0,0,0,21.41942777777778,-104.84256388888889
"MMTC","TORREON","MEX","20-01-22","""2020-01-22T15:41:00.000Z""","MMTC 221541Z 00000KT 8SM BKN025 BKN080 OVC200 14/07 A3009 RMK 8/577 HZY 20-01-22",0,0,0,0,0,0,25.56828611111111,-103.41067222222223
"MMTP","TAPACHULA","MEX","20-01-22","""2020-01-22T15:41:00.000Z""","MMTP 221541Z 14007KT 10SM SKC 30/19 A2997 RMK HZY 20-01-22",0,0,0,0,0,0,14.79435,-92.36996666666666
"MMPN","URUAPAN","MEX","20-01-22","""2020-01-22T15:40:00.000Z""","MMPN 221540Z 00000KT 10SM SKC 18/13 A3024 RMK HZY CU SC AC 20-01-22",0,0,0,0,0,0,19.396452777777778,-102.03888611111111
"PLCH","CHRISTMAS ISLAND","KIR","20-01-22","""2020-01-22T16:00:00.000Z""","PLCH 221600Z 08007KT 9999 FEW020 26/24 Q1010 20-01-22",0,0,0,0,0,0,1.9862111111111111,-157.34964166666668
"PWAK","WAKE ISLAND AIRFIELD","USA","20-01-22","""2020-01-22T15:58:00.000Z""","PWAK 221558Z AUTO 01016KT 9999 CLR 25/22 A3000 RMK AO2 SLP165 T02480215 $ 20-01-22",0,2,0,0,0,0,19.28248888888889,166.6366611111111
"PGUA","ANDERSON AFB","USA","20-01-22","""2020-01-22T15:55:00.000Z""","PGUA 221555Z 08020G27KT 10SM SCT011 BKN015 OVC034 25/22 A3001 RMK AO2A SCT011 V BKN SLP153 T02510224 $ 20-01-22",0,4,0,0,0,0,13.583883333333334,144.93005833333333
"MMZC","ZACATECAS","MEX","20-01-22","""2020-01-22T15:54:00.000Z""","MMZC 221554Z 18010KT 10SM FEW200 13/08 A3025 RMK 8/001 20-01-22",0,0,0,0,0,0,22.897394444444444,-102.68576944444445
"PGUM","GUAM INTL","USA","20-01-22","""2020-01-22T15:54:00.000Z""","PGUM 221554Z 07012KT 10SM CLR 26/22 A3000 RMK AO2 SLP151 T02560222 $ 20-01-22",0,0,0,0,0,0,13.483949999999998,144.79713055555555
"MMVR","VERACRUZ","MEX","20-01-22","""2020-01-22T15:43:00.000Z""","MMVR 221543Z 19006KT 7SM SCT010 20/19 A3012 RMK 8/100 HZY 20-01-22",0,0,0,0,0,0,19.145780555555554,-96.1873638888889
"MMVA","VILLAHERMOSA","MEX","20-01-22","""2020-01-22T15:40:00.000Z""","MMVA 221540Z 07012KT 7SM FEW015 22/16 A3016 RMK 8/100 20-01-22",0,0,0,0,0,0,17.997019444444444,-92.81481388888889
"PKWA","KWAJALEIN ATOLL/BUCHOLZ AAF, KIRIBATI","MHL","20-01-22","""2020-01-22T16:40:00.000Z""","PKWA 221640Z AUTO 06014KT 10SM CLR 28/26 A2982 RMK AO2 LTG DSNT W T02810262 20-01-22",0,0,0,0,0,0,8.720122222222223,167.73166111111112
"PGSN","FRANCISCO C. ADA/SAIPAN INTERNATIONAL, OBYAN","USA","20-01-22","""2020-01-22T15:54:00.000Z""","PGSN 221554Z 06020G26KT 10SM FEW017 SCT023 SCT041 26/22 A3000 RMK AO2 PK WND 07028/1544 SLP181 T02610222 $ 20-01-22",0,4,0,0,0,0,15.120252777777779,145.72998333333334
"PTKK","WENO ISLAND ,FM CHUUK INTL.","FSM","20-01-22","""2020-01-22T15:50:00.000Z""","PTKK 221550Z VRB05KT 15SM FEW014 SCT280 27/25 A2987 RMK SLP116 T02720252 20-01-22",0,0,0,0,0,0,7.461888888888889,151.84301666666667
"PTRO","BABELTHUAP/KOROR, BABELTHUAP ISLAND","PLW","20-01-22","""2020-01-22T15:50:00.000Z""","PTRO 221550Z 02004KT 14SM SCT015 BKN110 BKN290 26/23 A2987 20-01-22",0,0,0,0,0,0,7.367302777777778,134.544275
"PTYA","YAP INTL,YAP ISLAND","FSM","20-01-22","""2020-01-22T15:50:00.000Z""","PTYA 221550Z VRB06KT 12SM FEW016 SCT130 BKN300 28/25 A2992 RMK SLP134 T02830248 20-01-22",0,0,0,0,0,0,9.498911111111111,138.08248333333333
"TJNR","ROOSEVELT ROADS NAS,PR.","USA","20-01-22","""2020-01-22T16:35:00.000Z""","TJNR 221635Z AUTO 00000KT 3/4SM +RA BKN023 BKN032 OVC070 A2994 RMK AO2 RAB31 P0015 $ 20-01-22",0,0,6.7,0,0,0,18.245,-65.6433333
"MBGT","JAGS MCCARTNEY INTERNATIONAL AIRPORT GRAND TURK","GBR","20-01-22","""2020-01-22T16:30:00.000Z""","MBGT 221630Z 25018KT 4000 SCT010TCU SCT050 25/22 Q1010 20-01-22",0,2,0,0,1.7,1,21.444422222222222,-71.14183611111112
"TJBQ","RAPHAEL HERNANDEZ","USA","20-01-22","""2020-01-22T16:10:00.000Z""","TJBQ 221610Z COR 21009G14KT 10SM SCT032 SCT042 29/ A2992 20-01-22",0,2,0,0,0,0,18.494861111111113,-67.12944444444443
"MBPV","PROVIDENCIALES INTERNATIONAL","GBR","20-01-22","""2020-01-22T16:00:00.000Z""","MBPV 221600Z 29011KT 8000 VCRA SCT012 BKN025CB 24/20 Q1009 20-01-22",0,0,3.3,0,3.3,0,21.773763888888887,-72.268675
"MYNN","LYNDEN PINDLING INTERNATIONAL","BHS","20-01-22","""2020-01-22T16:00:00.000Z""","MYNN 221600Z 33023KT 9999 BKN030 19/11 A2994 20-01-22",0,4,0,0,0,0,25.038958333333333,-77.46623055555555
"TJSJ","LUIS MUNOZ MARIN INTL","USA","20-01-22","""2020-01-22T15:56:00.000Z""","TJSJ 221556Z 15005KT 10SM FEW023 SCT045 BKN055 27/22 A2993 RMK AO2 RAB21E45 SLP134 VCSH N P0000 T02720222 20-01-22",0,0,0,0,0,0,18.439397222222222,-66.00213333333333
"TJIG","FERNANDO LUIS RIBAS DOMINICCI","USA","20-01-22","""2020-01-22T15:54:00.000Z""","TJIG 221554Z 17012G18KT 10SM SCT035 BKN060 26/21 A2993 20-01-22",0,2,0,0,0,0,18.456777777777777,-66.09847222222221
"MUCC","CAYO COCO/JARDINES DEL REY","CUB","20-01-22","""2020-01-22T15:51:00.000Z""","MUCC 221551Z 33015KT 9000 BKN020 20/09 Q1017 20-01-22",0,0,0,0,0,0,22.461111111111112,-78.3286111111111
"MUCF","CIENFUEGOS/JAMIE GONZALEZ","CUB","20-01-22","""2020-01-22T15:50:00.000Z""","MUCF 221550Z 36012KT 330V030 9000 FEW020 SCT080 16/07 Q1020 20-01-22",0,0,0,0,0,0,22.15,-80.41416666666667
"MUCU","SANTIAGO DE CUBA/ANTONIO MACEO INTL","CUB","20-01-22","""2020-01-22T16:22:00.000Z""","MUCU 221622Z 34015KT 320V020 9000 SCT020 22/15 Q1013 RMK TUR B MOD APCH RWY 10 20-01-22",0,0,0,0,0,0,19.97,-75.83555555555554
"MKJP","KINGSTON/NORMAN MANLEY","JAM","20-01-22","""2020-01-22T16:00:00.000Z""","MKJP 221600Z 36025KT 9999 FEW020 28/20 Q1013 20-01-22",0,4,0,0,0,0,17.935555555555556,-76.7875
"MKJS","MONTEGO BAY/SANGSTER","JAM","20-01-22","""2020-01-22T16:00:00.000Z""","MKJS 221600Z 34015KT 9999 -SHRA BKN018 OVC030 24/20 Q1015 20-01-22",0,0,3.3,0,0,0,18.503669444444444,-77.91338888888889
"MUGM","GUANTANAMO (US NAVEL AIR BASE)","CUB","20-01-22","""2020-01-22T15:56:00.000Z""","MUGM 221556Z 33017G27KT 9999 FEW025 FEW075 SCT250 24/19 A2993 RMK PK WND 34028/1543 SLP135 T02390189 20-01-22",0,4,0,0,0,0,19.906569444444443,-75.20705833333334
"MUHA","LA HABANA/JOSE MARTI INTL.","CUB","20-01-22","""2020-01-22T15:55:00.000Z""","MUHA 221555Z 36015KT 330V040 9000 BKN045 17/07 Q1020 20-01-22",0,0,0,0,0,0,22.989166666666666,-82.40916666666668
"MUCM","CAMAGUEY/IGNACIO AGRAMANTE INTL","CUB","20-01-22","""2020-01-22T15:51:00.000Z""","MUCM 221551Z 30014KT 9000 FEW018 20/10 Q1016 20-01-22",0,0,0,0,0,0,21.42027777777778,-77.8475
"MUSC","SANTA CLARA/A. SANTAMARIA - CIV/MIL","CUB","20-01-22","""2020-01-22T15:51:00.000Z""","MUSC 221551Z 36012KT 330V030 9000 BKN025 16/06 Q1019 20-01-22",0,0,0,0,0,0,22.492222222222225,-79.94361111111111
"MUCL","CAYO LARGO DEL SUR/VILO ACUNA INTL.","CUB","20-01-22","""2020-01-22T15:50:00.000Z""","MUCL 221550Z 36012KT 310V040 9000 SCT020 17/09 Q1019 20-01-22",0,0,0,0,0,0,21.616111111111113,-81.54555555555555
"MUHG","HOLGUIN/FRANK PAIS INTL. - CIV/MIL","CUB","20-01-22","""2020-01-22T15:50:00.000Z""","MUHG 221550Z 30008KT 270V330 8000 FEW018 SCT025 OVC070 18/15 Q1016 20-01-22",0,0,0,0,0,0,20.785555555555558,-76.315
"MUVR","VARADERO/JUAN G. GOMEZ INTL","CUB","20-01-22","""2020-01-22T15:50:00.000Z""","MUVR 221550Z 35013KT 9000 BKN020 15/07 Q1020 20-01-22",0,0,0,0,0,0,23.034444444444446,-81.43527777777778
"MDPC","PUNTA CANA INTL.","DOM","20-01-22","""2020-01-22T16:28:00.000Z""","MDPC 221628Z 19010KT 9999 SCT020 SCT070 27/22 Q1013 20-01-22",0,0,0,0,0,0,18.570780555555555,-68.3661861111111
"MWCB","CHARLES KIRKCONNELL INTERNATIONAL AIRPORT/CAYMAN BRAC","GBR","20-01-22","""2020-01-22T16:00:00.000Z""","MWCB 221600Z 34013KT 9999 FEW016 SCT025 22/13 Q1018 20-01-22",0,0,0,0,0,0,19.686983333333334,-79.88280555555555
"MDSD","SANTO DOMINGO/INTL JOSE FRANCISCO PENA GOMEZ","DOM","20-01-22","""2020-01-22T16:00:00.000Z""","MDSD 221600Z 24006KT 9999 SCT020 28/23 Q1012 20-01-22",0,0,0,0,0,0,18.42966388888889,-69.668925
"MDPP","PUERTO PLATA /INTL GREGORIO LUPERON.","DOM","20-01-22","""2020-01-22T16:00:00.000Z""","MDPP 221600Z 04005KT 9999 FEW020 SCT300 28/24 Q1011 20-01-22",0,0,0,0,0,0,19.7579,-70.57003333333333
"MDAB","SAMANA/ARROYO BARRIL","DOM","20-01-22","""2020-01-22T16:00:00.000Z""","MDAB 221600Z 09004KT 9999 FEW020 28/24 Q1013 20-01-22",0,0,0,0,0,0,19.2,-69.43333333333334
"MDLR","LA ROMANA/INTL CASA DE CAMPO","DOM","20-01-22","""2020-01-22T16:00:00.000Z""","MDLR 221600Z 16009KT 8000 VCSH BKN016 24/23 Q1012 RERA TEMPO 7000 RA 20-01-22",0,0,0,0,0,0,18.4525,-68.9113888888889
"MDJB","HIGUERO/INTL DR. JOAQUIN BALAGUER","DOM","20-01-22","""2020-01-22T16:00:00.000Z""","MDJB 221600Z 18010KT 9999 FWE020 29/23 Q1012 NOSIG 20-01-22",0,0,0,0,0,0,18.572275,-69.98566944444444
"MDCY","SAMANA/ INTL CATEY","DOM","20-01-22","""2020-01-22T16:00:00.000Z""","MDCY 221600Z 18004KT 9999 FEW020 28/24 Q1011 20-01-22",0,0,0,0,0,0,19.269547222222222,-69.73697777777778
"MDBH","BARAHONA/INTL MARIA MONTEZ","DOM","20-01-22","""2020-01-22T16:00:00.000Z""","MDBH 221600Z 13006KT 9999 FEW022 SCT300 28/22 Q1012 20-01-22",0,0,0,0,0,0,18.25178888888889,-71.12019166666666
"MWCR","OWEN ROBERTS INTERNATIONAL AIRPORT/GRAND CAYMAN","GBR","20-01-22","""2020-01-22T16:00:00.000Z""","MWCR 221600Z 02012KT 350V050 9999 FEW020 BKN035 23/14 Q1018 20-01-22",0,0,0,0,0,0,19.29277777777778,-81.35776944444444
"MDST","SANTIAGO/INTL CIBAO","DOM","20-01-22","""2020-01-22T16:00:00.000Z""","MDST 221600Z 14005KT 060V200 FEW024 BKN300 27/22 Q1011 20-01-22",0,0,0,0,0,0,19.406091666666665,-70.60468888888889
"TAPA","V.C.BIRD,ANTIGUA","ATG","20-01-22","""2020-01-22T16:00:00.000Z""","TAPA 221600Z 09011KT 040V140 9999 FEW018 27/19 Q1014 NOSIG 20-01-22",0,0,0,0,0,0,17.136666666666667,-61.79277777777778
"TDCF","CANEFIELD,DOMINICA","DMA","20-01-22","""2020-01-22T16:00:00.000Z""","TDCF 221600Z 35002KT 8000 -SHRA BKN015 BKN036 25/24 Q1013 20-01-22",0,0,3.3,0,0,0,15.336666666666668,-61.39222222222222
"TDPD","DOUGLAS CHARLES,DOMINICA","DMA","20-01-22","""2020-01-22T16:00:00.000Z""","TDPD 221600Z 14005KT 9999 2000W -RA BKN014 BKN038 23/23 Q1015 20-01-22",0,0,0,0,0,0,15.546666666666667,-61.30138888888889
"TNCC","CURACAO/HATO CURACAO INTERNATIONAL AIRPORT","NLD","20-01-22","""2020-01-22T16:00:00.000Z""","TNCC 221600Z 14013KT 100V160 9999 SCT021 30/21 Q1012 NOSIG 20-01-22",0,0,0,0,0,0,12.188913888888889,-68.95968888888889
"TNCM","ST. MAARTEN/PRINCES JULIANA INTERNATIONAL AIRPORT","NLD","20-01-22","""2020-01-22T16:00:00.000Z""","TNCM 221600Z 11011KT 070V140 9999 FEW018 28/22 Q1015 NOSIG 20-01-22",0,0,0,0,0,0,18.040927777777778,-63.108958333333334
"TQPF","CLAYTON J. LLOYD ,ANGUILLA","GBR","20-01-22","""2020-01-22T16:00:00.000Z""","TQPF 221600Z 12013KT 9999 SCT020 26/20 Q1015 20-01-22",0,0,0,0,0,0,18.2048,-63.05385555555555
"TUPJ","TERRANCE B. LETTSOME,TORTOLA","GBR","20-01-22","""2020-01-22T16:00:00.000Z""","TUPJ 221600Z 12010KT 100V170 10SM SCT018 28/22 A2995 RMK Q1014 VIS16KM 20-01-22",0,0,0,0,0,0,18.445555555555554,-64.54166666666667
"TIST","CYRIL E. KING","USA","20-01-22","""2020-01-22T15:53:00.000Z""","TIST 221553Z 14013KT 10SM FEW023 28/22 A2993 RMK AO2 SLP137 T02780217 20-01-22",0,0,0,0,0,0,18.337305555555556,-64.97333333333333
"TFFF","AIME CESAIRE, MARTINIQUE","FRA","20-01-22","""2020-01-22T16:30:00.000Z""","TFFF 221630Z AUTO 10011KT 9999 FEW027 SCT032 BKN041 26/23 Q1013 20-01-22",0,0,0,0,0,0,14.592222222222222,-60.99638888888889
"TFFR","POINTE-A-PITRE,LE RAIZET, GUADELOUPE","FRA","20-01-22","""2020-01-22T16:30:00.000Z""","TFFR 221630Z AUTO 09003KT 020V130 9999 FEW031 OVC041 26/21 Q1013 20-01-22",0,0,0,0,0,0,16.264166666666668,-61.52583333333333
"TKPK","ROBERT L. BRADSHAW, ST. CHRISTOPHER (ST. KITTS) AND NEVIS","KNA","20-01-22","""2020-01-22T16:00:00.000Z""","TKPK 221600Z 08014KT 9999 SCT017 28/22 Q1014 20-01-22",0,0,0,0,0,0,17.311180555555556,-62.71868611111111
"TKPN","VANCE WINKWORTH AMORY, ST. CHRISTOPHER (ST. KITTS) AND NEVIS","KNA","20-01-22","""2020-01-22T16:00:00.000Z""","TKPN 221600Z 10008KT 9999 FEW022 27/21 Q1014 20-01-22",0,0,0,0,0,0,17.205555555555556,-62.59
"TLPC","GEORGE F. CHARLES, SAINT LUCIA","LCA","20-01-22","""2020-01-22T16:00:00.000Z""","TLPC 221600Z 12009KT 7000 -RA FEW005 SCT016 OVC038 25/24 Q1013 NOSIG 20-01-22",0,0,0,0,0,0,14.020000000000001,-60.99305555555556
"TLPL","HEWANORRA SAINT LUCIA","LCA","20-01-22","""2020-01-22T16:00:00.000Z""","TLPL 221600Z 10018KT 9999 FEW005 SCT018 BKN038 26/24 Q1014 NOSIG 20-01-22",0,2,0,0,0,0,13.733333333333333,-60.95472222222222
"TNCA","ORANJESTAD/BEATRIX","NLD","20-01-22","""2020-01-22T16:00:00.000Z""","TNCA 221600Z 12012KT 9999 SCT023 28/22 Q1012 NOSIG 20-01-22",0,0,0,0,0,0,12.501380555555556,-70.01523055555556
"TNCB","BONAIRE/FLAMINGO AIRPORT","NLD","20-01-22","""2020-01-22T15:55:00.000Z""","TNCB 221555Z AUTO 11013KT 080V170 9999 FEW017/// SCT027/// 29/23 Q1012 20-01-22",0,0,0,0,0,0,12.130808333333334,-68.26741944444444
"TNCE","ST. EUSTATIUS/F.D ROOSEVELT AIRPORT","NLD","20-01-22","""2020-01-22T15:55:00.000Z""","TNCE 221555Z AUTO 10011KT 060V140 //// // ///////// 27/22 Q1014 RE// 20-01-22",0,0,0,0,0,0,17.49651666666667,-62.97949722222222
"TXKF","L.F. WADE INTERNATIONAL AIRPORT","GBR","20-01-22","""2020-01-22T16:36:00.000Z""","TXKF 221636Z 06015KT 9999 -RA SCT022 BKN078 OVC095 17/14 Q1016 20-01-22",0,0,0,0,0,0,32.364041666666665,-64.67870277777779
"MGCB","COBAN","GTM","20-01-22","""2020-01-22T16:00:00.000Z""","MGCB 221600Z 09004KT 8000 SCT014 OVC016 14/12 QFE874.7 BR MTN N/NE/SE/W CUB/CL 20-01-22",0,0,0,0,0,0,15.468833333333334,-90.40666666666667
"MGES","ESQUIPULAS","GTM","20-01-22","""2020-01-22T16:00:00.000Z""","MGES 221600Z 03006KT 9999 BKN015 18/12 QFE913.2 20-01-22",0,0,0,0,0,0,14.5677778,-89.3261111
"MZBZ","PHILIP S.W. GOLDSON INTERNATIONAL","BLZ","20-01-22","""2020-01-22T16:00:00.000Z""","MZBZ 221600Z 35005KT CAVOK 22/17 A3014 Q1020 NOSIG 20-01-22",0,0,0,0,0,0,17.539166666666667,-88.30833333333334
"TBPB","GRANTLEY ADAMS","BRB","20-01-22","""2020-01-22T16:00:00.000Z""","TBPB 221600Z 10010KT 9999 4000SW SHRA VCSH BKN014 BKN032 25/23 Q1013 NOSIG 20-01-22",0,0,3.3,0,0,0,13.074722222222222,-59.492222222222225
"TGPY","MAURICE BISHOP, GRENADA","GRD","20-01-22","""2020-01-22T16:00:00.000Z""","TGPY 221600Z 13012KT 9999 SCT018 29/23 Q1013 NOSIG 20-01-22",0,0,0,0,0,0,12.004247222222222,-61.78619166666667
"TRPG","JOHN A. OSBORNE, MONTSERRAT","GBR","20-01-22","""2020-01-22T16:00:00.000Z""","TRPG 221600Z 11014KT 360V160 9999 SCT022 26/22 Q1015 20-01-22",0,0,0,0,0,0,16.79138888888889,-62.19333333333333
"TTCP","A.N.R. ROBINSON,TOBAGO","TTO","20-01-22","""2020-01-22T16:00:00.000Z""","TTCP 221600Z 14009KT 9999 FEW018 29/21 Q1012 NOSIG 20-01-22",0,0,0,0,0,0,11.149722222222222,-60.83222222222223
"TTPP","PIARCO,TRINIDAD","TTO","20-01-22","""2020-01-22T16:00:00.000Z""","TTPP 221600Z 14007KT 9999 SCT020 29/22 Q1012 NOSIG 20-01-22",0,0,0,0,0,0,10.595277777777778,-61.33722222222222
"MGGT","LA AURORA","GTM","20-01-22","""2020-01-22T16:00:00.000Z""","MGGT 221600Z 03014KT 9999 FEW018 16/09 Q1028 A3036 20-01-22",0,0,0,0,0,0,14.583333333333334,-90.5275
"MGHT","HUEHUETENANGO","GTM","20-01-22","""2020-01-22T16:00:00.000Z""","MGHT 221600Z 00000KT 9999 FEW024 15/10 20-01-22",0,0,0,0,0,0,15.3083333,-91.5083333
"MGMM","MUNDO MAYA","GTM","20-01-22","""2020-01-22T16:00:00.000Z""","MGMM 221600Z 10006KT CAVOK 21/17 Q1022 A3018 BKN090 20-01-22",0,0,0,0,0,0,16.913888888888888,-89.86638888888888
"MGPB","PUERTO BARRIOS","GTM","20-01-22","""2020-01-22T16:00:00.000Z""","MGPB 221600Z 30006KT 9999 SCT018 24/18 Q1021 A3015 20-01-22",0,0,0,0,0,0,15.748333333333333,-88.585
"MGQZ","QUETZALTENANGO","GTM","20-01-22","""2020-01-22T16:00:00.000Z""","MGQZ 221600Z 00000KT 9999 FEW015 13/08 QFE774/9 20-01-22",0,0,0,0,0,0,14.8638889,-91.5036111
"MGRT","RETALHULEU","GTM","20-01-22","""2020-01-22T16:00:00.000Z""","MGRT 221600Z 22004KT CAVOK 30/20 Q1017 A3003 FEW080 VOL",0,0,0,0,0,0,14.518333333333334,-91.69666666666667
"MGSJ","PUERTO SAN JOSE","GTM","20-01-22","""2020-01-22T16:00:00.000Z""","MGSJ 221600Z 00000KT CAVOK 29/13 Q1015 A2997 FEW080 20-01-22",0,0,0,0,0,0,13.936111111111112,-90.83583333333333
"MGZA","ZACAPA","GTM","20-01-22","""2020-01-22T16:00:00.000Z""","MGZA 221600Z 09008KT 9999 BKN025 25/15 QFE995/1 FEW090 20-01-22",0,0,0,0,0,0,14.9605556,-89.5394444
"MHCA","CATACAMAS","HND","20-01-22","""2020-01-22T16:00:00.000Z""","MHCA 221600Z VRB02KT 9999 FEW028 24/17 20-01-22",0,0,0,0,0,0,14.916666666666666,-85.9
"MHLC","LA CEIBA/GOLOSON INTL","HND","20-01-22","""2020-01-22T16:00:00.000Z""","MHLC 221600Z 19004KT 9999 4000W VCSH BKN023 OVC070 12/19 Q1021 A3015 NOSIG 20-01-22",0,0,0,0,0,0,15.742363888888889,-86.85330277777777
"MHTE","TELA","HND","20-01-22","""2020-01-22T16:00:00.000Z""","MHTE 221600Z 00000KT 9999 SCT022TCU OVC080 22/21 Q1018 20-01-22",0,0,0,0,1.7,0,15.776000000000002,-87.47583333333334
"MHSR","SANTA ROSA DE COPAN","HND","20-01-22","""2020-01-22T16:00:00.000Z""","MHSR 221600Z 34006KT 9999 BKN025 SCT250 17/12 20-01-22",0,0,0,0,0,0,15.4686111,-87.8269444
"MHRO","ROATAN/JUAN MANUEL GALVEZ INTL.","HND","20-01-22","""2020-01-22T16:00:00.000Z""","MHRO 221600Z 37003KT 3000 -RA SCT020TCU BKN070 22/19 Q1020 A3012 NOSIG 20-01-22",0,0,0,0,1.7,0,16.317283333333332,-86.52229444444444
"MHPL","PUERTO LEMPIRA","HND","20-01-22","""2020-01-22T16:00:00.000Z""","MHPL 221600Z 36016KT 9999 SCT016 OVC080 26/24 Q1015 20-01-22",0,2,0,0,0,0,15.271111111111113,-83.78388888888888
"MHLM","SAN PEDRO SULA/RAMON V MORALES INTL","HND","20-01-22","""2020-01-22T16:00:00.000Z""","MHLM 221600Z VRB02KT 9999 FEW030 BKN070 22/18 Q1021 A3015 NOSIG 20-01-22",0,0,0,0,0,0,15.451958333333332,-87.92415277777778
"MHLE","LA ESPERANZA","HND","20-01-22","""2020-01-22T16:00:00.000Z""","MHLE 221600Z 09008KT 9999 FEW020 BKN070 15/10 20-01-22",0,0,0,0,0,0,14.266666666666667,-88.16666666666667
"MHTG","TEGUCIGALPA/TONCONTIN INTL","HND","20-01-22","""2020-01-22T16:00:00.000Z""","MHTG 221600Z 06014KT 9999 FEW034 SCT200 19/11 Q1023 A3021 NOSIG 20-01-22",0,0,0,0,0,0,14.060255555555557,-87.21741111111112
"MHSC","PALMEROLA /SOTO CANO (MIL)","HND","20-01-22","""2020-01-22T15:56:00.000Z""","MHSC 221556Z 02007KT 9999 FEW040 22/12 A3018 RMK A02A SLPNO ALSTG/SLP ESTMD $ 20-01-22",0,0,0,0,0,0,14.382375,-87.6211611111111
"MNBL","BLUEFIELDS","NIC","20-01-22","""2020-01-22T16:00:00.000Z""","MNBL 221600Z 06012KT 9999 SCT018 SCT080 26/20 Q1016 20-01-22",0,0,0,0,0,0,11.990805555555555,-83.77418888888889
"MSLP","AEROPUERTO INTERNACIONAL DE EL SAVADOR MONSENOR OSCAR ARNULFO ROMERO Y GALDAMEZ","SLV","20-01-22","""2020-01-22T15:50:00.000Z""","MSLP 221550Z 02014G24KT 350V050 CAVOK 29/14 Q1015 A2997 NOSIG RMK FU E 20-01-22",0,2,0,0,0,0,13.440936111111112,-89.05575
"MSSS","AEROPUERTO INTERNACIONAL DE LLAPANGO","SLV","20-01-22","""2020-01-22T15:50:00.000Z""","MSSS 221550Z 33012G22KT CAVOK 23/13 Q1020 A3012 20-01-22",0,2,0,0,0,0,13.691666666666666,-89.12555555555555
"MNCH","CHINANDEGA","NIC","20-01-22","""2020-01-22T16:00:00.000Z""","MNCH 221600Z 31004KT CAVOK 29/15 Q1014 20-01-22",0,0,0,0,0,0,12.640277777777778,-87.13833333333334
"MROC","ALAJUELA/JUAN SANTAMARIA INTL.","CRI","20-01-22","""2020-01-22T16:00:00.000Z""","MROC 221600Z 11012KT 060V130 9999 FEW030 25/15 A3009 NOSIG 20-01-22",0,0,0,0,0,0,9.993902777777777,-84.20885555555556
"MRLM","LIMON/ INTL.","CRI","20-01-22","""2020-01-22T16:00:00.000Z""","MRLM 221600Z 28012G22KT 9999 FEW020 BKN110 25/20 A3002 20-01-22",0,2,0,0,0,0,9.957897222222222,-83.02202777777778
"MRLB","LIBERIA/DANIEL ODUBER QUIROS INTL.","CRI","20-01-22","""2020-01-22T16:00:00.000Z""","MRLB 221600Z 23008KT 170V260 CAVOK 29/18 A2993 20-01-22",0,0,0,0,0,0,10.593013888888889,-85.54554444444445
"MNPC","PUERTO CABEZAS","NIC","20-01-22","""2020-01-22T16:00:00.000Z""","MNPC 221600Z 01004KT 7000 BKN016 27/23 Q1015 HZ 20-01-22",0,0,0,0,0,0,14.046208333333333,-83.38770277777779
"MNMG","MANAGUA/AEROPUERTO INERNACIONAL AGUSTO C. SANDINO","NIC","20-01-22","""2020-01-22T16:00:00.000Z""","MNMG 221600Z 09006KT 9999 FEW020 BKN290 28/15 Q1013 A2993 NOSIG 20-01-22",0,0,0,0,0,0,12.141741666666666,-86.16976944444446
"MRPV","PAVAS/TOBIAS BOLANOS INTL.","CRI","20-01-22","""2020-01-22T16:00:00.000Z""","MRPV 221600Z 10018KT 9999 FEW030 BKN140 22/14 A3011 NOSIG 20-01-22",0,2,0,0,0,0,9.957138888888888,-84.13955833333334
"MPDA","ENRIQUE MALEK","PAN","20-01-22","""2020-01-22T16:00:00.000Z""","MPDA 221600Z 05005KT 9999 FEW017 SCT120 30/23 Q1013 20-01-22",0,0,0,0,0,0,8.389166666666666,-82.4363888888889
"MPMG","MARCOS A. GELABERT","PAN","20-01-22","""2020-01-22T16:00:00.000Z""","MPMG 221600Z 33011KT 9999 SCT018CB SCT090 28/23 Q1014 NOSIG 20-01-22",0,0,0,0,2,0,8.973333333333333,-79.55555555555556
"MPPA","PANAMA PACIFICO","PAN","20-01-22","""2020-01-22T16:00:00.000Z""","MPPA 221600Z 35008KT 9999 SCT015 SCT080 29/24 Q1015 20-01-22",0,0,0,0,0,0,8.914833333333334,-79.59958333333333
"MPTO","TOCUMEN","PAN","20-01-22","""2020-01-22T16:00:00.000Z""","MPTO 221600Z 27007KT 9999 FEW018 SCT090 29/22 Q1014 NOSIG 20-01-22",0,0,0,0,0,0,9.071388888888889,-79.38333333333334
"SKAR","EL EDEN/QUINDIO","COL","20-01-22","""2020-01-22T16:00:00.000Z""","SKAR 221600Z 00000KT 7000 VCFG BKN010 BKN080 22/21 A3016 20-01-22",0,0,0,0,0,0,4.451752777777778,-75.76617222222222
"SKBG","PALONEGRO/SANTANDER","COL","20-01-22","""2020-01-22T16:00:00.000Z""","SKBG 221600Z 09004KT 9999 SCT015 SCT070 22/22 A3009 20-01-22",0,0,0,0,0,0,7.126619444444444,-73.18476111111111
"SKBO","EL DORADO/DISTRITO CAPITAL","COL","20-01-22","""2020-01-22T16:00:00.000Z""","SKBO 221600Z 32012KT 9999 VCSH SCT020 BKN070 17/10 A3038 NOSIG RMK VCSH/NE 20-01-22",0,0,0,0,0,0,4.7016,-74.14694444444446
"SKBQ","ERNESTO CORTISSOZ/ATLANTICO","COL","20-01-22","""2020-01-22T16:00:00.000Z""","SKBQ 221600Z 16006KT 040V170 9999 SCT015 BKN200 30/23 A2992 NOSIG 20-01-22",0,0,0,0,0,0,10.88946111111111,-74.78067777777778
"SKCC","CAMILO DAZA/NORTE DE SANTANDER","COL","20-01-22","""2020-01-22T16:00:00.000Z""","SKCC 221600Z 33003KT 6000 VCFG SCT012 BKN080 24/23 A2999 20-01-22",0,0,0,0,0,0,7.927388888888889,-72.51161111111111
"SKCG","RAFAEL NUNEZ/BOLIVAR","COL","20-01-22","""2020-01-22T16:00:00.000Z""","SKCG 221600Z 34005KT 9999 SCT020 SCT120 30/23 A2992 20-01-22",0,0,0,0,0,0,10.442061111111112,-75.51288055555555
"SKMR","LOS GARZONES/CORDOBA","COL","20-01-22","""2020-01-22T16:00:00.000Z""","SKMR 221600Z 00000KT 9999 SCT018 SCT100 30/24 A2993 20-01-22",0,0,0,0,0,0,8.822855555555556,-75.82516944444444
"SKMD","OLAYA HERRERA/ANTIOQUIA","COL","20-01-22","""2020-01-22T16:00:00.000Z""","SKMD 221600Z 18008KT 9999 FEW025 BKN100 21/17 A3023 REDZ 20-01-22",0,0,0,0,0,0,6.220477777777778,-75.59042777777778
"SKLT","ALFREDO VASQUEZ COBO/AMAZONAS","COL","20-01-22","""2020-01-22T16:00:00.000Z""","SKLT 221600Z 01005KT 9999 FEW020 SCT100 32/26 A2984 20-01-22",0,0,0,0,0,0,-4.191908333333334,-69.94220277777778
"SKLC","ANTONIO ROLDAN BETANCOURT/ANTIOQUIA","COL","20-01-22","""2020-01-22T16:00:00.000Z""","SKLC 221600Z 13005KT 9999 SCT018 28/23 A2997 20-01-22",0,0,0,0,0,0,7.81175,-76.71644166666667
"SKIP","SAN LUIS/NARINO","COL","20-01-22","""2020-01-22T16:00:00.000Z""","SKIP 221600Z 00000KT 9999 BKN016 14/11 A3046 RERA 20-01-22",0,0,0,0,0,0,0.8614999999999999,-77.6675
"SKIB","PERALES/TOLIMA","COL","20-01-22","""2020-01-22T16:00:00.000Z""","SKIB 221600Z 00000KT 3000 BR VV/// 22/22 A3015 20-01-22",0,0,0,0,0,0,4.421652777777778,-75.13361111111112
"SKEJ","YARIGUIES/SANTANDER","COL","20-01-22","""2020-01-22T16:00:00.000Z""","SKEJ 221600Z 23003KT 9999 FEW012 SCT030 BKN100 27/23 A2994 20-01-22",0,0,0,0,0,0,7.024438888888889,-73.8068111111111
"SKCL","ALFONSO BONILLA ARAGON/VALLE DEL CAUCA","COL","20-01-22","""2020-01-22T16:00:00.000Z""","SKCL 221600Z VRB02KT 4000 HZ BKN015 SCT120 24/21 A3010 BECMG FM1700 7000 NSW 20-01-22",0,0,0,0,0,0,3.543083333333333,-76.38169444444443
"SKNV","BENITO SALAS/HUILA","COL","20-01-22","""2020-01-22T16:00:00.000Z""","SKNV 221600Z 03005KT 340V080 7000 VCSH FEW015 OVC110 28/23 A2998 RMK VCSH E/W 20-01-22",0,0,0,0,0,0,2.9501972222222226,-75.29398888888889
"SKPC","GERMAN OLANO/VICHADA","COL","20-01-22","""2020-01-22T16:00:00.000Z""","SKPC 221600Z VRB02KT CAVOK 34/23 A2982 20-01-22",0,0,0,0,0,0,6.185116666666667,-67.49257222222222
"SKUC","SANTIAGO PEREZ QUIROZ/ARAUCA","COL","20-01-22","""2020-01-22T16:00:00.000Z""","SKUC 221600Z 08006KT CAVOK 32/21 A2989 20-01-22",0,0,0,0,0,0,7.0689111111111105,-70.73695833333333
"SKSP","GUSTAVO ROJAS PINILLA/SAN ANDRES Y PROVIDENCIA","COL","20-01-22","""2020-01-22T16:00:00.000Z""","SKSP 221600Z 35014KT 310V010 9999 SCT016 OVC080 26/23 A2999 20-01-22",0,0,0,0,0,0,12.583661111111113,-81.71133888888889
"SKSM","SIMON BOLIVAR /MAGDALENA","COL","20-01-22","""2020-01-22T16:00:00.000Z""","SKSM 221600Z 21014KT 9999 FEW020 SCT080 28/25 A2995 20-01-22",0,0,0,0,0,0,11.11968888888889,-74.23063888888889
"SKRH","ALMIRANTE PADILLA/GUAJIRA","COL","20-01-22","""2020-01-22T16:00:00.000Z""","SKRH 221600Z 36005KT CAVOK 28/22 A2988 20-01-22",0,0,0,0,0,0,11.526166666666667,-72.92668333333334
"SKRG","JOSE MARIA CORDOVA/ANTIOQUIA","COL","20-01-22","""2020-01-22T16:00:00.000Z""","SKRG 221600Z 24006KT 9999 -DZ FEW015 OVC080 17/12 A3037 NOSIG 20-01-22",0,0,0,0,0,0,6.164461111111112,-75.423
"SKPV","EL EMBRUJO/SAN ANDRES Y","COL","20-01-22","""2020-01-22T16:00:00.000Z""","SKPV 221600Z 33014KT 320V030 8000 -DZ SCT017 BKN080 23/23 A2999 RERA 20-01-22",0,0,0,0,0,0,13.357163888888888,-81.357925
"SKPS","ANTONIO NARINO/NARINO","COL","20-01-22","""2020-01-22T16:00:00.000Z""","SKPS 221600Z 00000KT 8000 -DZ SCT015 OVC070 17/16 A3025 20-01-22",0,0,0,0,0,0,1.3965055555555554,-77.29107222222223
"SKPE","MATECANAS/RISARALDA","COL","20-01-22","""2020-01-22T16:00:00.000Z""","SKPE 221600Z 33005KT 8000 VCFG SCT015 SCT090 21/20 A3018 METAR 20-01-22",0,0,0,0,0,0,4.812761111111111,-75.73931944444445
"SKUI","EL CARANO/CHOCO","COL","20-01-22","""2020-01-22T16:00:00.000Z""","SKUI 221600Z 35005KT 4000 -DZ BKN007 OVC070 23/23 A2995 20-01-22",0,0,0,0,0,1,5.690797222222223,-76.64121944444445
"SKVP","ALFONSO LOPEZ PUMAREJO/CESAR","COL","20-01-22","""2020-01-22T16:00:00.000Z""","SKVP 221600Z 21008KT 9999 BKN015 28/23 A2998 20-01-22",0,0,0,0,0,0,10.435130555555556,-73.24939722222223
"SKVV","VILLAVICENCIO/META","COL","20-01-22","""2020-01-22T16:00:00.000Z""","SKVV 221600Z 05006KT 9999 FEW023 SCT090 31/20 A2992 20-01-22",0,0,0,0,0,0,4.168405555555556,-73.61465833333332
"SVMG","MARGARITA, NUEVA ESPARTA","VEN","20-01-22","""2020-01-22T16:00:00.000Z""","SVMG 221600Z /////KT 9999 FEW010 32/23 Q1012 NOSIG 20-01-22",0,0,0,0,0,0,10.9125,-63.96638888888889
"SVMI","MAIQUETIA, INTL, SIMON BOLIVAR, VARGAS","VEN","20-01-22","""2020-01-22T16:00:00.000Z""","SVMI 221600Z 07006KT 9999 SCT016 29/22 Q1013 20-01-22",0,0,0,0,0,0,10.601194444444443,-66.99122222222222
"SOCA","CAYENNE-FELIX-EBOUE","FRA","20-01-22","""2020-01-22T16:30:00.000Z""","SOCA 221630Z AUTO 06011KT 9999 FEW034 SCT058 30/22 Q1012 NOSIG 20-01-22",0,0,0,0,0,0,4.819722222222222,-52.36194444444445
"SEGU","GUAYAQUIL/AEROPUERTO INTERNACIONAL JOSE JOAQUIN DE OLMEDO","ECU","20-01-22","""2020-01-22T16:00:00.000Z""","SEGU 221600Z 14007KT 080V240 9999 SCT020 SCT100 28/23 Q1013 NOSIG RMK A2993 20-01-22",0,0,0,0,0,0,-2.1577777777777776,-79.88388888888889
"SYCJ","CHEDDI JAGAN INTL AIRPORT","GUY","20-01-22","""2020-01-22T16:00:00.000Z""","SYCJ 221600Z 07010KT 030V090 9999 BKN020 30/22 Q1012 NOSIG 20-01-22",0,0,0,0,0,0,6.498927777777777,-58.254352777777775
"SELT","LATACUNGA/ALTERNATIVO COTOPAXI INTL","ECU","20-01-22","""2020-01-22T16:00:00.000Z""","SELT 221600Z 34005KT 9999 FEW033 18/09 Q1030 20-01-22",0,0,0,0,0,0,-0.9066666666666667,-78.61583333333333
"SPJC","LIMA-CALLAO/INTL. JORGE CHAVEZ","PER","20-01-22","""2020-01-22T16:00:00.000Z""","SPJC 221600Z 30006KT 260V320 9000 NSC 26/20 Q1014 NOSIG RMK PP000 20-01-22",0,0,0,0,0,0,-12.021886111111112,-77.11431666666667
"SPHY","ANDAHUAYLAS","PER","20-01-22","""2020-01-22T16:00:00.000Z""","SPHY 221600Z 36007KT 6000 2000NE BCFG SCT013 OVC050 10/07 Q1035 RMK BIRD HAZARD RWY 03/21 PP000 20-01-22",0,0,0,0,0,0,-13.708819444444444,-73.35155555555555
"SPHO","AYACUCHO/CORONEL FAP ALFREDO MENDIVIL DUARTE","PER","20-01-22","""2020-01-22T16:00:00.000Z""","SPHO 221600Z VRB02KT 6000 -RA BCFG FEW006 OVC080 14/12 Q1028 RMK PP001 20-01-22",0,0,0,0,0,0,-13.154836111111111,-74.20441666666667
"SPHI","CHICLAYO/INTL. CAPITAN FAP JOSE ABELARDO QUINONES GONZALEZ","PER","20-01-22","""2020-01-22T16:00:00.000Z""","SPHI 221600Z 29004KT 220V020 9999 SCT030 BKN090 28/20 Q1014 RMK BIRD HAZARD RWY 19/01 PP000 20-01-22",0,0,0,0,0,0,-6.787477777777777,-79.82809999999999
"SPGM","TINGO MARIA","PER","20-01-22","""2020-01-22T16:00:00.000Z""","SPGM 221600Z 04002KT 9999 SCT015 BKN080 24/23 Q1014 RMK PP000 20-01-22",0,0,0,0,0,0,-9.289666666666667,-76.00505555555556
"SPCL","PUCALLPA/INTL. CAPITAN FAP DAVID ARMANDO ABENSUR RENGIFO","PER","20-01-22","""2020-01-22T16:00:00.000Z""","SPCL 221600Z 02007KT 9999 BKN015 BKN080 30/24 Q1011 RMK BIRD HAZARD RWY 02/20 PP000 20-01-22",0,0,0,0,0,0,-8.377941666666667,-74.5743
"SEQM","QUITO/MARISCAL SUCRE INTL","ECU","20-01-22","""2020-01-22T16:00:00.000Z""","SEQM 221600Z 34004KT 9999 FEW010 BKN026 BKN080 16/12 Q1029 NOSIG RMK A3039 20-01-22",0,0,0,0,0,0,-0.12416666666666668,-78.35444444444444
"SEMT","MANTA/ELOY ALFARO INTL","ECU","20-01-22","""2020-01-22T16:00:00.000Z""","SEMT 221600Z 01006KT 9999 SCT023 29/23 Q1013 20-01-22",0,0,0,0,0,0,-0.9461111111111111,-80.67888888888889
"SPJL","JULIACA/INTL. INCA MANCO CAPAC","PER","20-01-22","""2020-01-22T16:00:00.000Z""","SPJL 221600Z 15006KT 9999 BKN017 OVC080 13/06 Q1035 RMK PP000 20-01-22",0,0,0,0,0,0,-15.466858333333333,-70.15788333333334
"SPJR","CAJAMARCA/MAYOR GENERAL FAP ARMANDO REVOREDO IGLESIAS","PER","20-01-22","""2020-01-22T16:30:00.000Z""","SPJR 221630Z 16010KT CAVOK 20/09 Q1027 20-01-22",0,0,0,0,0,0,-7.139222222222223,-78.48952777777778
"SPTN","TACNA/INTL. CORONEL FAP CARLOS CIRIANI SANTA ROSA","PER","20-01-22","""2020-01-22T16:00:00.000Z""","SPTN 221600Z 25004KT 220V280 9999 BKN130 25/16 Q1014 RMK PP000 20-01-22",0,0,0,0,0,0,-18.05328888888889,-70.27582222222222
"SPST","TARAPOTO/CADETE FAP GUILLERMO DEL CASTILLO PAREDES","PER","20-01-22","""2020-01-22T16:00:00.000Z""","SPST 221600Z 18003KT 9999 SCT015TCU BKN080 28/24 Q1010 RMK BIRD HAZARD RWY 17/35 PP000 20-01-22",0,0,0,0,1.7,0,-6.50875,-76.37325
"SPSO","PISCO/INTL.","PER","20-01-22","""2020-01-22T16:00:00.000Z""","SPSO 221600Z 33007KT 8000 FEW011 OVC050 24/20 Q1014 RMK BIRD HAZARD RWY 22/04 PP000 20-01-22",0,0,0,0,0,0,-13.7448,-76.22041111111112
"SPRU","TRUJILLO/INTL. CAPITAN FAP CARLOS MARTINEZ DE PINILLOS","PER","20-01-22","""2020-01-22T16:00:00.000Z""","SPRU 221600Z 25007KT 9999 SCT040 OVC050 25/19 Q1014 RMK PP000 20-01-22",0,0,0,0,0,0,-8.081708333333333,-79.10864722222222
"SPQU","AREQUIPA/INTL. ALFREDO RODRIGUEZ BALLON","PER","20-01-22","""2020-01-22T16:00:00.000Z""","SPQU 221600Z 24009KT 210V280 9999 FEW010 SCT015 BKN080 15/12 Q1026 NOSIG RMK PP000 20-01-22",0,0,0,0,0,0,-16.340577777777778,-71.57080277777777
"SPQT","IQUITOS/INTL. CORONEL FAP FRANCISCO SECADA VIGNETTA","PER","20-01-22","""2020-01-22T16:00:00.000Z""","SPQT 221600Z 04005KT 340V110 9999 SCT015 32/25 Q1010 NOSIG RMK BIRD HAZARD RWY 06/24 PP000 20-01-22",0,0,0,0,0,0,-3.7847388888888887,-73.30880555555555
"SPMS","YURIMAGUAS/MOISES BENZAQUEN RENGIFO","PER","20-01-22","""2020-01-22T16:00:00.000Z""","SPMS 221600Z 23005KT 8000 VCSH SCT010 BKN070 28/25 Q1010 RMK SH W BIRD HAZARD RWY 09/27 PP000 20-01-22",0,0,0,0,0,0,-5.8936111111111105,-76.11805555555554
"SPME","TUMBES/CAPITAN FAP PEDRO CANGA RODRIGUEZ","PER","20-01-22","""2020-01-22T16:00:00.000Z""","SPME 221600Z 29004KT 9999 SCT007 BKN015 28/22 Q1014 RMK BIRD HAZARD RWY 32/14 PP000 20-01-22",0,0,0,0,0,0,-3.5522638888888887,-80.38106944444444
"SPTU","PUERTO MALDONADO/PADRE ALDAMIZ","PER","20-01-22","""2020-01-22T16:00:00.000Z""","SPTU 221600Z 33004KT 270V010 9999 SCT018 BKN100 29/25 Q1010 RMK BIRD HAZARD RWY 01/19 PP000 20-01-22",0,0,0,0,0,0,-12.613830555555555,-69.22867777777778
"SPZO","CUSCO/INTL. TENIENTE FAP ALEJANDRO VELASCO ASTETE","PER","20-01-22","""2020-01-22T16:30:00.000Z""","SPZO 221630Z 12010KT 9999 SCT046 BKN100 17/08 Q1029 NOSIG RMK BIRD HAZARD RWY 28 20-01-22",0,0,0,0,0,0,-13.535722222222223,-71.93878055555555
"SLCA","CAMIRI","BOL","20-01-22","""2020-01-22T16:00:00.000Z""","SLCA 221600Z 36003KT 9999 SCT036 29/19 Q1015 20-01-22",0,0,0,0,0,0,-20.006944444444443,-63.529444444444444
"SLCB","COCHABAMBA","BOL","20-01-22","""2020-01-22T16:00:00.000Z""","SLCB 221600Z 29005KT 5000 -RA SCT007 BKN020 OVC070 15/14 Q1028 20-01-22",0,0,0,0,0,0,-17.418333333333333,-66.17722222222223
"SLCO","COBIJA","BOL","20-01-22","""2020-01-22T16:00:00.000Z""","SLCO 221600Z 19004KT 2000 TSRA BKN017 FEW020CB BKN080 25/25 Q1010 20-01-22",0,0,3.3,0,8,0,-11.040555555555555,-68.78361111111111
"SLCP","CONCEPCION","BOL","20-01-22","""2020-01-22T16:00:00.000Z""","SLCP 221600Z 00000KT 9999 BKN012 OVC070 26/23 Q1013 20-01-22",0,0,0,0,0,0,-16.138333333333332,-62.02861111111111
"SLET","EL TROMPILLO","BOL","20-01-22","""2020-01-22T16:00:00.000Z""","SLET 221600Z 18006KT 9999 FEW020 BKN070 30/23 Q1011 20-01-22",0,0,0,0,0,0,-17.81138888888889,-63.170833333333334
"SLJO","SAN JOAQUIN","BOL","20-01-22","""2020-01-22T16:00:00.000Z""","SLJO 221600Z 34012KT 9999 SCT015 FEW020CB BKN200 31/25 Q1010 20-01-22",0,0,0,0,1.3,0,-13.065833333333334,-64.67444444444445
"SLLP","LA PAZ","BOL","20-01-22","""2020-01-22T16:00:00.000Z""","SLLP 221600Z 11010KT 6000 FEW006 FEW017CB SCT070 BKN200 11/07 Q1038 20-01-22",0,0,0,0,1.3,0,-16.5125,-68.19222222222223
"SLMG","MAGDALENA","BOL","20-01-22","""2020-01-22T16:00:00.000Z""","SLMG 221600Z 32004KT 8000 VCSH SCT015 FEW023CB BKN080 28/26 Q1009 20-01-22",0,0,0,0,4,0,-13.258611111111112,-64.06194444444444
"SLOR","ORURO","BOL","20-01-22","""2020-01-22T16:00:00.000Z""","SLOR 221600Z 35006KT 9999 SCT012 FEW017CB BKN070 10/07 Q1036 20-01-22",0,0,0,0,1.3,0,-17.955555555555556,-67.075
"SLPS","PUERTO SUAREZ","BOL","20-01-22","""2020-01-22T16:00:00.000Z""","SLPS 221600Z 22009KT 9999 BKN015 OVC070 29/24 Q1006 20-01-22",0,0,0,0,0,0,-18.980555555555554,-57.823888888888895
"SLRB","ROBORE","BOL","20-01-22","""2020-01-22T16:00:00.000Z""","SLRB 221600Z 00000KT 9999 OVC015 24/24 Q1011 20-01-22",0,0,0,0,0,0,-18.32777777777778,-59.76583333333333
"SLRI","RIBERALTA","BOL","20-01-22","""2020-01-22T16:00:00.000Z""","SLRI 221600Z 00000KT 8000 VCSH SCT015 FEW020CB BKN080 28/25 Q1012 20-01-22",0,0,0,0,4,0,-11.01,-66.07277777777777
"SLRQ","RURRENABAQUE","BOL","20-01-22","""2020-01-22T16:00:00.000Z""","SLRQ 221600Z 00000KT 7000 VCSH BKN013 BKN070 OVC200 28/25 Q1010 20-01-22",0,0,0,0,0,0,-14.42611111111111,-67.49861111111112
"SLRY","REYES","BOL","20-01-22","""2020-01-22T16:00:00.000Z""","SLRY 221600Z 00000KT 9999 BKN015 OVC080 30/25 Q1010 20-01-22",0,0,0,0,0,0,-14.302777777777779,-67.3536111111111
"SLSA","SANTA ANA DEL YACUMA","BOL","20-01-22","""2020-01-22T16:00:00.000Z""","SLSA 221600Z 32007KT 9999 SCT017 SCT080 BKN200 30/25 Q1010 20-01-22",0,0,0,0,0,0,-13.761666666666667,-65.43472222222222
"SLSI","SAN IGNACIO DE VELASCO","BOL","20-01-22","""2020-01-22T16:00:00.000Z""","SLSI 221600Z 31005KT 4000 VCSH BKN013 OVC070 26/23 Q1010 20-01-22",0,0,0,0,0,1,-16.384444444444444,-60.961666666666666
"SBAF","RIO DE JANIERO/CAMPO DELIO JARDIM DE MATTOS, RJ","BRA","20-01-22","""2020-01-22T16:00:00.000Z""","SBAF 221600Z 24010KT 9999 SCT035 29/21 Q1009 20-01-22",0,0,0,0,0,0,-22.875555555555557,-43.38444444444444
"SBAN","ANAPOLIS BASE AEREA,GO","BRA","20-01-22","""2020-01-22T16:00:00.000Z""","SBAN 221600Z 30005KT 9999 VCSH BKN008 BKN020 22/20 Q1014 20-01-22",0,0,0,0,0,0,-16.238611111111112,-48.97222222222222
"SBAR","ARACAJU/SANTA MARIA, SE","BRA","20-01-22","""2020-01-22T16:00:00.000Z""","SBAR 221600Z 08016KT 9999 SCT020 31/24 Q1009 20-01-22",0,2,0,0,0,0,-10.985277777777776,-37.07333333333334
"SLTJ","TARIJA","BOL","20-01-22","""2020-01-22T16:00:00.000Z""","SLTJ 221600Z 00000KT 9999 FEW027 BKN070 BKN200 24/15 Q1022 20-01-22",0,0,0,0,0,0,-21.551111111111112,-64.70833333333334
"SLTR","TRINIDAD","BOL","20-01-22","""2020-01-22T16:00:00.000Z""","SLTR 221600Z 13006KT 7000 VCSH SCT005 FEW020CB BKN070 27/24 Q1011 20-01-22",0,0,0,0,4,0,-14.819444444444445,-64.91888888888889
"SLVM","VILLAMONTES","BOL","20-01-22","""2020-01-22T16:00:00.000Z""","SLVM 221600Z 18012G25KT 9999 FEW025 35/22 Q1009 20-01-22",0,2,0,0,0,0,-21.254166666666666,-63.406666666666666
"SLVR","VIRU VIRU","BOL","20-01-22","""2020-01-22T16:00:00.000Z""","SLVR 221600Z 18004KT 9000 SCT017 SCT023 BKN070 31/23 Q1011 20-01-22",0,0,0,0,0,0,-17.64611111111111,-63.13777777777778
"SLYA","YACUIBA","BOL","20-01-22","""2020-01-22T16:00:00.000Z""","SLYA 221600Z 21010KT 9999 SCT020 BKN200 32/23 Q1012 20-01-22",0,0,0,0,0,0,-21.95,-63.65416666666667
"SBBG","BAGE/COMANDANTE GUSTAVO KRAEMER,RS","BRA","20-01-22","""2020-01-22T16:15:00.000Z""","SBBG 221615Z 07013KT 9999 BKN033 31/18 Q1012 20-01-22",0,0,0,0,0,0,-31.390833333333333,-54.109722222222224
"SBAT","ALTA FLORESTA/AEROPORTO PILOTO OSVALDO MARQUES DIAS,MT","BRA","20-01-22","""2020-01-22T16:00:00.000Z""","SBAT 221600Z 35002KT 9999 FEW015 SCT070 25/25 Q1012 20-01-22",0,0,0,0,0,0,-9.866388888888888,-56.105000000000004
"SBBE","BELEM/VAL DE CANS/JULIO CEZAR RIBEIRO, PA","BRA","20-01-22","""2020-01-22T16:00:00.000Z""","SBBE 221600Z 01007KT 8000 4000NE BKN021 OVC070 28/24 Q1011 RERA 20-01-22",0,0,0,0,0,0,-1.3847222222222222,-48.47888888888889
"SBBH","BELO HORIZONTE/PAMPULHA, CARLOS DRUMMOND DE ANDRADE, MG","BRA","20-01-22","""2020-01-22T16:00:00.000Z""","SBBH 221600Z 02004KT 9999 VCSH BKN030 FEW040TCU 27/18 Q1012 20-01-22",0,0,0,0,2,0,-19.851944444444445,-43.95055555555556
"SBBI","CURITIBA/BACACHERI, PR","BRA","20-01-22","""2020-01-22T16:00:00.000Z""","SBBI 221600Z 08007KT 9999 -RA FEW013 BKN100 18/15 Q1015 20-01-22",0,0,0,0,0,0,-25.403333333333332,-49.23361111111111
"SBBQ","BARBACENA/MAJOR-BRIGADEIRO DOORGAL BORGES, MG","BRA","20-01-22","""2020-01-22T16:00:00.000Z""","SBBQ 221600Z 07006KT 020V140 9999 SCT030 BKN045 23/17 Q1015 20-01-22",0,0,0,0,0,0,-21.26722222222222,-43.760555555555555
"SBBR","BRASILIA/PRES. JUSCELINO KUBITSCHEK, DF","BRA","20-01-22","""2020-01-22T16:00:00.000Z""","SBBR 221600Z 30012KT 9999 SCT017 BKN021 25/20 Q1014 20-01-22",0,0,0,0,0,0,-15.871111111111112,-47.91861111111111
"SBBU","BAURU/BAURU,SP","BRA","20-01-22","""2020-01-22T16:00:00.000Z""","SBBU 221600Z 08004KT 9999 BKN030 29/23 Q1010 20-01-22",0,0,0,0,0,0,-22.34361111111111,-49.053888888888885
"SBBV","BOA VISTA/ATLAS BRASIL CANTANHEDE, RR","BRA","20-01-22","""2020-01-22T16:00:00.000Z""","SBBV 221600Z 11009KT 9999 SCT025 32/18 Q1012 20-01-22",0,0,0,0,0,0,2.841388888888889,-60.69222222222222
"SBBW","BARRA DO GARCAS/BARRA DO GARCAS,MT","BRA","20-01-22","""2020-01-22T16:00:00.000Z""","SBBW 221600Z 31001KT 9999 -RA BKN020 BKN100 30/26 Q1009 20-01-22",0,0,0,0,0,0,-15.86061111111111,-52.389430555555556
"SBCA","CASCAVEL/CASCAVEL,PR","BRA","20-01-22","""2020-01-22T16:00:00.000Z""","SBCA 221600Z 06017KT 9999 FEW015 BKN080 24/18 Q1010 20-01-22",0,2,0,0,0,0,-25.002222222222223,-53.50194444444445
"SBCB","CABO FRIO/CABO FRIO, RJ","BRA","20-01-22","""2020-01-22T16:00:00.000Z""","SBCB 221600Z 19011KT 9999 FEW020 28/21 Q1009 20-01-22",0,0,0,0,0,0,-22.920833333333334,-42.07138888888889
"SBCC","GUARANTA DO NORTE/CAMPO DE PROVAS BRIGADEIRO VELOSO, PA","BRA","20-01-22","""2020-01-22T16:00:00.000Z""","SBCC 221600Z 30008KT 9999 BKN020 BKN080 25/20 Q1013 20-01-22",0,0,0,0,0,0,-9.333333333333334,-54.96472222222223
"SBCF","BELO HORIZONTE/TANCREDO NEVES,MG","BRA","20-01-22","""2020-01-22T16:00:00.000Z""","SBCF 221600Z 04006KT 8000 VCSH BKN030 BKN070 23/19 Q1013 RERA 20-01-22",0,0,0,0,0,0,-19.624444444444446,-43.971944444444446
"SBCG","CAMPO GRANDE/CAMPO GRANDE, MS","BRA","20-01-22","""2020-01-22T16:00:00.000Z""","SBCG 221600Z 34008KT 9999 FEW009 BKN040 BKN100 24/22 Q1007 20-01-22",0,0,0,0,0,0,-20.46944444444444,-54.67027777777778
"SBCH","CHAPECO/CHAPECO,SC","BRA","20-01-22","""2020-01-22T16:00:00.000Z""","SBCH 221600Z 13014KT 9999 -DZ SCT004 BKN080 21/21 Q1012 20-01-22",0,0,0,0,0,0,-27.133888888888887,-52.661944444444444
"SBCJ","PARAUAPEBAS/CARAJAS,PA","BRA","20-01-22","""2020-01-22T16:00:00.000Z""","SBCJ 221600Z 01003KT 9999 SCT015 BKN090 26/21 Q1015 20-01-22",0,0,0,0,0,0,-6.115277777777777,-50.00138888888889
"SBCO","PORTO ALEGRE/CANOAS, RS","BRA","20-01-22","""2020-01-22T16:00:00.000Z""","SBCO 221600Z 08010KT 9999 SCT036 BKN100 29/20 Q1012 20-01-22",0,0,0,0,0,0,-29.945555555555554,-51.14361111111111
"SBCP","CAMPOS DOS GOYTACAZES/BARTOLOMEU LISANDRO, RJ","BRA","20-01-22","""2020-01-22T16:00:00.000Z""","SBCP 221600Z 00000KT 9999 BKN020 29/20 Q1008 20-01-22",0,0,0,0,0,0,-21.70111111111111,-41.30777777777777
"SBES","SAO PEDRO DA ALDEIA/SAO PEDRO DA ALDEIA,RJ","BRA","20-01-22","""2020-01-22T16:00:00.000Z""","SBES 221600Z 20009KT 170V250 9999 FEW025 30/22 Q1009 20-01-22",0,0,0,0,0,0,-22.816666666666666,-42.0925
"SBEG","MANAUS/EDUARDO GOMES, AM","BRA","20-01-22","""2020-01-22T16:00:00.000Z""","SBEG 221600Z 06005KT 9999 SCT020 FEW025TCU BKN100 30/24 Q1012 20-01-22",0,0,0,0,1,0,-3.0388888888888888,-60.04611111111111
"SBDN","PRESIDENTE PRUDENTE/PRESIDENTE PRUDENTE,SP","BRA","20-01-22","""2020-01-22T16:00:00.000Z""","SBDN 221600Z 06008KT 9999 FEW040 30/19 Q1007 20-01-22",0,0,0,0,0,0,-22.178333333333335,-51.41888888888889
"SBCZ","CRUZEIRO DO SUL/CRUZEIRO DO SUL, AC","BRA","20-01-22","""2020-01-22T16:00:00.000Z""","SBCZ 221600Z 02003KT 9999 BKN028 30/24 Q1011 20-01-22",0,0,0,0,0,0,-7.599444444444444,-72.76944444444445
"SBCY","CUIABA/MARECHAL RONDON, MT","BRA","20-01-22","""2020-01-22T16:00:00.000Z""","SBCY 221600Z 27009KT 9999 SCT030 BKN100 33/21 Q1007 20-01-22",0,0,0,0,0,0,-15.65,-56.1175
"SBCX","CAXIAS DO SUL/CAMPO DOS BUGRES,RS","BRA","20-01-22","""2020-01-22T16:00:00.000Z""","SBCX 221600Z 15006KT 9000 BKN020 FEW060TCU 21/13 Q1015 20-01-22",0,0,0,0,1,0,-29.195555555555554,-51.189722222222215
"SBCT","CURITIBA/AFONSO PENA, PR","BRA","20-01-22","""2020-01-22T16:00:00.000Z""","SBCT 221600Z 09007KT 9999 -RA BKN015 SCT030 OVC080 18/16 Q1015 20-01-22",0,0,0,0,0,0,-25.531666666666666,-49.17611111111111
"SBCR","CORUMBA/CORUMBA, MS","BRA","20-01-22","""2020-01-22T16:00:00.000Z""","SBCR 221600Z 25011KT 230V290 9999 SCT017 BKN100 28/25 Q1006 20-01-22",0,0,0,0,0,0,-19.011944444444445,-57.671388888888885
"SBFI","FOZ DO IGUACU/CATARATAS, PR","BRA","20-01-22","""2020-01-22T16:00:00.000Z""","SBFI 221600Z 12010KT 7000 -RA SCT008 BKN020 OVC070 23/22 Q1006 20-01-22",0,0,0,0,0,0,-25.60027777777778,-54.485
"SBFL","FLORIANOPOLIS/HERCILIO LUZ,SC","BRA","20-01-22","""2020-01-22T16:00:00.000Z""","SBFL 221600Z 17001KT 9999 -RA SCT030 BKN100 25/22 Q1012 20-01-22",0,0,0,0,0,0,-27.67027777777778,-48.552499999999995
"SBGW","GUARATINGUETA/GUARATINGUETA,SP","BRA","20-01-22","""2020-01-22T16:00:00.000Z""","SBGW 221600Z 03005KT 9999 FEW025 BKN100 29/15 Q1010 20-01-22",0,0,0,0,0,0,-22.791666666666668,-45.20444444444445
"SBGR","SAO PAULO/GUARULHOS, GOVERNADOR ANDRE FRANCO MONTORO,  SP","BRA","20-01-22","""2020-01-22T16:00:00.000Z""","SBGR 221600Z 08006KT 9999 BKN033 25/18 Q1012 20-01-22",0,0,0,0,0,0,-23.435555555555556,-46.473055555555554
"SBGO","GOIANIA/SANTA GENOVEVA, GO","BRA","20-01-22","""2020-01-22T16:00:00.000Z""","SBGO 221600Z 31010KT 9999 BKN019 OVC100 26/22 Q1012 20-01-22",0,0,0,0,0,0,-16.629880555555555,-49.22661388888889
"SBGM","GUAJARA-MIRIM/GUAJARA-MIRIM,RO","BRA","20-01-22","""2020-01-22T16:00:00.000Z""","SBGM 221600Z 07003KT 010V130 5000 2000N -DZ BR BKN005 BKN036 26/25 Q1012 20-01-22",0,0,0,0,0,0,-10.788333333333334,-65.28166666666667
"SBGL","RIO DE JANEIRO/GALEAO-ANTONIO CARLOS JOBIM,  RJ","BRA","20-01-22","""2020-01-22T16:00:00.000Z""","SBGL 221600Z 13015KT 9999 FEW023 28/20 Q1008 20-01-22",0,0,0,0,0,0,-22.810000000000002,-43.25055555555556
"SBFZ","FORTALEZA/ PINTO MARTINS, CE","BRA","20-01-22","""2020-01-22T16:00:00.000Z""","SBFZ 221600Z 08011KT 9999 SCT026 31/23 Q1010 20-01-22",0,0,0,0,0,0,-3.7758333333333334,-38.532222222222224
"SBFN","FERNANDO DE NORONHA/FERNANDO DE NORONHA,PE","BRA","20-01-22","""2020-01-22T16:00:00.000Z""","SBFN 221600Z 11012KT 9999 FEW018 31/24 Q1011 20-01-22",0,0,0,0,0,0,-3.854722222222222,-32.42833333333333
"SBHT","ALTAMIRA/ALTAMIRA,PA","BRA","20-01-22","""2020-01-22T16:00:00.000Z""","SBHT 221600Z 07007KT 5000 -RA BKN015 FEW017TCU BKN100 30/24 Q1011 20-01-22",0,0,0,0,1,0,-3.2508333333333335,-52.25222222222222
"SBIH","ITAITUBA/ITAITUBA,PA","BRA","20-01-22","""2020-01-22T16:00:00.000Z""","SBIH 221600Z 09005KT 9999 FEW012 SCT018 27/25 Q1011 20-01-22",0,0,0,0,0,0,-4.242222222222222,-56.00083333333333
"SBIL","ILHEUS/BAHIA - JORGE AMADO, BA","BRA","20-01-22","""2020-01-22T16:00:00.000Z""","SBIL 221600Z 04006KT 9999 FEW020 FEW025TCU SCT070 29/25 Q1010 20-01-22",0,0,0,0,1,0,-14.815000000000001,-39.03333333333333
"SBIP","IPATINGA/USIMINAS, MG","BRA","20-01-22","""2020-01-22T16:00:00.000Z""","SBIP 221600Z 04006KT 9999 SCT010 BKN025 27/22 Q1009 20-01-22",0,0,0,0,0,0,-19.470555555555553,-42.488055555555555
"SBIZ","IMPERATRIZ/PREFEITO RENATO MOREIRA, MA","BRA","20-01-22","""2020-01-22T16:00:00.000Z""","SBIZ 221600Z 03005KT 9999 SCT020 BKN080 31/24 Q1011 20-01-22",0,0,0,0,0,0,-5.530555555555556,-47.458333333333336
"SBJP","JOAO PESSOA/PRESIDENTE CASTRO  PINTO, PB","BRA","20-01-22","""2020-01-22T16:00:00.000Z""","SBJP 221600Z 07010KT 9999 BKN018 SCT070 30/23 Q1011 20-01-22",0,0,0,0,0,0,-7.148333333333333,-34.95027777777778
"SBJR","RIO DE JANEIRO/JACAREPAGUA-ROBERTO MARINHO,RJ","BRA","20-01-22","""2020-01-22T16:00:00.000Z""","SBJR 221600Z 15011KT 9999 FEW025 30/24 Q1009 20-01-22",0,0,0,0,0,0,-22.9875,-43.37
"SBJU","JUAZEIRO DO NORTE/ORLANDO BEZERRA DE MENEZES, CE","BRA","20-01-22","""2020-01-22T16:00:00.000Z""","SBJU 221600Z 00000KT 9999 SCT022 BKN070 30/21 Q1014 20-01-22",0,0,0,0,0,0,-7.218333333333334,-39.27166666666667
"SBJV","JOINVILLE/LAURO CARNEIRO DE LOYOLA, SC","BRA","20-01-22","""2020-01-22T16:00:00.000Z""","SBJV 221600Z VRB02KT 7000 -RA SCT012 BKN035 23/21 Q1012 20-01-22",0,0,0,0,0,0,-26.223055555555554,-48.797777777777775
"SBKG","CAMPINA GRANDE/PRESIDENTE JOAO SUASSUNA, PB","BRA","20-01-22","""2020-01-22T16:00:00.000Z""","SBKG 221600Z 06006KT 9999 SCT030 31/19 Q1012 20-01-22",0,0,0,0,0,0,-7.269166666666667,-35.894999999999996
"SBKP","CAMPINAS/VIRACOPOS,SP","BRA","20-01-22","""2020-01-22T16:00:00.000Z""","SBKP 221600Z 13006KT 9999 BKN035 27/17 Q1010 20-01-22",0,0,0,0,0,0,-23.006944444444443,-47.13444444444444
"SBLE","LENCOIS/CHAPADA DIAMANTINA, BA","BRA","20-01-22","""2020-01-22T16:00:00.000Z""","SBLE 221600Z 10003KT 9999 OVC020 24/23 Q1013 20-01-22",0,0,0,0,0,0,-12.483333333333333,-41.27305555555555
"SBLO","LONDRINA/GOVERNADOR JOSE RICHA, PR","BRA","20-01-22","""2020-01-22T16:00:00.000Z""","SBLO 221600Z 09008KT 9999 BKN035 27/19 Q1010 20-01-22",0,0,0,0,0,0,-23.330277777777777,-51.13666666666666
"SBLS","LAGOA SANTA/LAGOA SANTA,MG","BRA","20-01-22","""2020-01-22T16:00:00.000Z""","SBLS 221600Z 02004KT 320V060 9999 4000E -SHRA FEW015 SCT023 FEW040TCU BKN080 22/19 Q1013 20-01-22",0,0,3.3,0,1.3,0,-19.66111111111111,-43.897777777777776
"SBMA","MARABA/JOAO CORREA DA ROCHA, PA","BRA","20-01-22","""2020-01-22T16:00:00.000Z""","SBMA 221600Z 31006KT 9999 FEW012 BKN017 BKN090 30/25 Q1011 20-01-22",0,0,0,0,0,0,-5.3677777777777775,-49.138333333333335
"SBME","MACAE/MACAE,RJ","BRA","20-01-22","""2020-01-22T16:00:00.000Z""","SBME 221600Z 16009KT 9999 FEW030 30/23 Q1009 20-01-22",0,0,0,0,0,0,-22.342777777777776,-41.763888888888886
"SBMG","MARINGA/SILVIO NAME JUNIOR, PR","BRA","20-01-22","""2020-01-22T16:00:00.000Z""","SBMG 221600Z 04008KT 040V100 9999 SCT040 BKN090 27/20 Q1008 20-01-22",0,0,0,0,0,0,-23.479444444444443,-52.01222222222222
"SBMK","MONTES CLAROS/MARIO RIBEIRO, MG","BRA","20-01-22","""2020-01-22T16:00:00.000Z""","SBMK 221600Z 01008KT 9999 SCT018 BKN025 FEW030TCU OVC100 25/19 Q1012 20-01-22",0,0,0,0,1,0,-16.70611111111111,-43.82194444444445
"SBMN","MANAUS/PONTA PELADA, AM","BRA","20-01-22","""2020-01-22T16:00:00.000Z""","SBMN 221600Z 06005KT 9999 SCT020 FEW025TCU SCT100 30/25 Q1012 20-01-22",0,0,0,0,1,0,-3.1455555555555557,-59.98444444444444
"SBMO","MACEIO/ZUMBI DOS PALMARES, AL","BRA","20-01-22","""2020-01-22T16:00:00.000Z""","SBMO 221600Z 13008KT 9999 BKN026 29/25 Q1010 20-01-22",0,0,0,0,0,0,-9.517222222222223,-35.78361111111111
"SBMQ","MACAPA/ALBERTO ALCOLUMBRE, AP","BRA","20-01-22","""2020-01-22T16:00:00.000Z""","SBMQ 221600Z 04009KT 9999 SCT022 SCT100 32/24 Q1011 20-01-22",0,0,0,0,0,0,0.050833333333333335,-51.07027777777778
"SBMS","MOSSORO/DIX-SEPT ROSADO, RN","BRA","20-01-22","""2020-01-22T16:00:00.000Z""","SBMS 221600Z 05011KT 9999 SCT025 FEW030TCU 37/23 Q1009 20-01-22",0,0,0,0,1,0,-5.195833333333334,-37.361666666666665
"SBMT","SAO PAULO/CAMPO DE MARTE, SP","BRA","20-01-22","""2020-01-22T16:00:00.000Z""","SBMT 221600Z 08006KT 040V130 9999 BKN042 26/18 Q1011 20-01-22",0,0,0,0,0,0,-23.506666666666668,-46.63388888888889
"SBMY","MANICORE/MANICORE,AM","BRA","20-01-22","""2020-01-22T16:00:00.000Z""","SBMY 221600Z 36003KT 9999 SCT017 BKN100 31/25 Q1011 20-01-22",0,0,0,0,0,0,-5.816944444444444,-61.28388888888889
"SBNF","NAVEGANTES/MINISTRO VICTOR KONDER, SC","BRA","20-01-22","""2020-01-22T16:00:00.000Z""","SBNF 221600Z 00000KT 9999 -RA SCT012 SCT020 BKN035 24/20 Q1012 20-01-22",0,0,0,0,0,0,-26.878611111111113,-48.65083333333333
"SBNT","NATAL/AUGUSTO SEVERO, RN","BRA","20-01-22","""2020-01-22T16:00:00.000Z""","SBNT 221600Z 06010KT 9999 FEW027 31/23 Q1010 20-01-22",0,0,0,0,0,0,-5.908333333333334,-35.24916666666667
"SBOI","OIAPOQUE/OIAPOQUE,AP","BRA","20-01-22","""2020-01-22T16:00:00.000Z""","SBOI 221600Z 02008KT 9999 BKN035 31/21 Q1012 20-01-22",0,0,0,0,0,0,3.861388888888889,-51.79611111111111
"SBPS","PORTO SEGURO/PORTO SEGURO,BA","BRA","20-01-22","""2020-01-22T16:35:00.000Z""","SBPS 221635Z 01012KT 340V040 3000 SHRA FEW014 SCT019 FEW025TCU BKN030 26/24 Q1009 20-01-22",0,0,3.3,0,2,1,-16.438055555555557,-39.08388888888889
"SBPJ","PALMAS/BRIGADEIRO LYSIAS RODRIGUES,TO","BRA","20-01-22","""2020-01-22T16:35:00.000Z""","SBPJ 221635Z 30005KT 9000 -TSRA SCT016 FEW030CB BKN050 30/23 Q1010 20-01-22",0,0,3.3,0,1.3,0,-10.29,-48.35777777777778
"SBPR","BELO HORIZONTE/CARLOS PRATES, MG","BRA","20-01-22","""2020-01-22T16:00:00.000Z""","SBPR 221600Z 01006KT 9999 VCSH BKN025 27/18 Q1013 20-01-22",0,0,0,0,0,0,-19.909166666666664,-43.98916666666667
"SBPP","PONTA PORA/PONTA PORA, MS","BRA","20-01-22","""2020-01-22T16:00:00.000Z""","SBPP 221600Z 23009KT 9999 BKN015 26/22 Q1008 20-01-22",0,0,0,0,0,0,-22.549722222222226,-55.70305555555556
"SBPL","PETROLINA/SENADOR NILO COELHO, PE","BRA","20-01-22","""2020-01-22T16:00:00.000Z""","SBPL 221600Z 29003KT 9999 FEW015 BKN020 OVC070 25/23 Q1012 20-01-22",0,0,0,0,0,0,-9.3675,-40.56361111111111
"SBPK","PELOTAS/PELOTAS, RS","BRA","20-01-22","""2020-01-22T16:00:00.000Z""","SBPK 221600Z 11016G26KT 9999 BKN030 30/20 Q1013 20-01-22",0,4,0,0,0,0,-31.71611111111111,-52.33111111111111
"SBPF","PASSO FUNDO/LAURO KURTZ, RS","BRA","20-01-22","""2020-01-22T16:00:00.000Z""","SBPF 221600Z 08018KT 9999 FEW008 SCT015 BKN040 18/15 Q1014 20-01-22",0,2,0,0,0,0,-28.243333333333336,-52.32888888888889
"SBPC","POCOS DE CALDAS/EMBAIXADOR WALTHER MOREIRA SALLES,MG","BRA","20-01-22","""2020-01-22T16:00:00.000Z""","SBPC 221600Z /////KT 9999 SCT020 OVC080 25/19 Q1014 20-01-22",0,0,0,0,0,0,-21.837777777777777,-46.566111111111105
"SBPB","PARNAIBA/PREFEITO DOUTOR JOAO SILVA FILHO, PI","BRA","20-01-22","""2020-01-22T16:00:00.000Z""","SBPB 221600Z 03008KT 9999 BKN017 BKN100 31/25 Q1009 20-01-22",0,0,0,0,0,0,-2.8930555555555557,-41.72972222222222
"SBPA","PORTO ALEGRE/SALGADO FILHO,   RS","BRA","20-01-22","""2020-01-22T16:00:00.000Z""","SBPA 221600Z 09012KT 9999 SCT036 BKN100 29/19 Q1012 20-01-22",0,0,0,0,0,0,-29.99388888888889,-51.17111111111111
"SBPV","PORTO VELHO/GOVERNADOR JORGE TEIXEIRA DE OLIVEIRA, RO","BRA","20-01-22","""2020-01-22T16:00:00.000Z""","SBPV 221600Z 34006KT 9999 BKN018 BKN100 29/24 Q1011 20-01-22",0,0,0,0,0,0,-8.71361111111111,-63.90277777777778
"SBRB","RIO BRANCO/PLACIDO DE CASTRO,AC","BRA","20-01-22","""2020-01-22T16:00:00.000Z""","SBRB 221600Z 34004KT 270V020 9999 BKN017 BKN100 30/25 Q1011 20-01-22",0,0,0,0,0,0,-9.86888888888889,-67.89805555555556
"SBRF","RECIFE/GUARARAPES - GILBERTO FREYRE, PE","BRA","20-01-22","""2020-01-22T16:00:00.000Z""","SBRF 221600Z 06007KT 9999 BKN023 30/24 Q1010 20-01-22",0,0,0,0,0,0,-8.12638888888889,-34.922777777777775
"SBRJ","RIO DE JANEIRO/SANTOS DUMONT  RJ","BRA","20-01-22","""2020-01-22T16:00:00.000Z""","SBRJ 221600Z 16012KT 9999 FEW025 27/22 Q1009 20-01-22",0,0,0,0,0,0,-22.91,-43.16277777777778
"SBRP","RIBEIRAO PRETO/LEITE LOPES,   SP","BRA","20-01-22","""2020-01-22T16:00:00.000Z""","SBRP 221600Z 03006KT 9999 BKN035 30/21 Q1008 20-01-22",0,0,0,0,0,0,-21.136388888888888,-47.776666666666664
"SBSC","RIO DE JANEIRO/SANTA CRUZ,RJ","BRA","20-01-22","""2020-01-22T16:00:00.000Z""","SBSC 221600Z 14015KT 9999 SCT025 29/21 Q1009 20-01-22",0,0,0,0,0,0,-22.93277777777778,-43.71944444444445
"SBSJ","SAO JOSE DOS CAMPOS/PROFESSOR URBANO ERNESTO STUMPF, SP","BRA","20-01-22","""2020-01-22T16:00:00.000Z""","SBSJ 221600Z 11005KT 9999 SCT030 SCT045 28/17 Q1011 20-01-22",0,0,0,0,0,0,-23.228888888888886,-45.87111111111111
"SBSL","SAO LUIS/MARECHAL CUNHA MACHADO,MA","BRA","20-01-22","""2020-01-22T16:00:00.000Z""","SBSL 221600Z 01012KT 9999 BKN017 30/25 Q1010 20-01-22",0,0,0,0,0,0,-2.5869444444444447,-44.236111111111114
"SBSM","SANTA MARIA/SANTA MARIA,RS","BRA","20-01-22","""2020-01-22T16:00:00.000Z""","SBSM 221600Z 09007KT 050V110 9999 FEW005 SCT025 BKN040 23/21 Q1011 20-01-22",0,0,0,0,0,0,-29.710833333333333,-53.69222222222222
"SBSV","SALVADOR/DEPUTADO LUIS EDUARDO MAGALHAES, BA","BRA","20-01-22","""2020-01-22T16:35:00.000Z""","SBSV 221635Z 22007KT 2000 TSRA BKN009 BKN015 FEW020CB OVC050 23/19 Q1011 20-01-22",0,0,3.3,0,8,1,-12.908611111111112,-38.322500000000005
"SBSN","SANTAREM/MAESTRO WILSON FONSECA, PA","BRA","20-01-22","""2020-01-22T16:00:00.000Z""","SBSN 221600Z 06006KT 9999 FEW017 BKN100 28/25 Q1011 20-01-22",0,0,0,0,0,0,-2.424722222222222,-54.78583333333333
"SBTK","TARAUACA/TARAUACA, AC","BRA","20-01-22","""2020-01-22T16:00:00.000Z""","SBTK 221600Z AUTO 33006KT 280V360 CAVOK 31/23 Q1011 20-01-22",0,0,0,0,0,0,-8.154722222222222,-70.78277777777778
"SBTF","TEFE/TEFE, AM","BRA","20-01-22","""2020-01-22T16:00:00.000Z""","SBTF 221600Z 08008KT 9999 FEW015 31/26 Q1011 20-01-22",0,0,0,0,0,0,-3.3802777777777777,-64.72527777777778
"SBTE","TERESINA/SENADOR PETRONIO PORTELLA, PI","BRA","20-01-22","""2020-01-22T16:00:00.000Z""","SBTE 221600Z 04004KT 9999 BKN025 31/23 Q1009 20-01-22",0,0,0,0,0,0,-5.060555555555555,-42.824444444444445
"SBTC","UNA/HOTEL TRANSAMERICA, BA","BRA","20-01-22","""2020-01-22T16:00:00.000Z""","SBTC 221600Z 10008KT 9999 FEW010 BKN020 OVC060 25/23 Q1010 20-01-22",0,0,0,0,0,0,-15.353333333333333,-38.99722222222222
"SBST","GUARUJA/BASE AEREA DE SANTOS, SP","BRA","20-01-22","""2020-01-22T16:00:00.000Z""","SBST 221600Z 16007KT 9999 SCT030 BKN048 27/21 Q1009 20-01-22",0,0,0,0,0,0,-23.928055555555556,-46.29972222222222
"SBSR","SAO JOSE DO RIO PRETO/SAO JOSE DO RIO PRETO, SP","BRA","20-01-22","""2020-01-22T16:00:00.000Z""","SBSR 221600Z 34003KT 300V030 9999 BKN025 30/21 Q1008 20-01-22",0,0,0,0,0,0,-20.816111111111113,-49.40472222222222
"SBSP","SAO PAULO/CONGONHAS, SP","BRA","20-01-22","""2020-01-22T16:00:00.000Z""","SBSP 221600Z 17005KT 110V220 9999 FEW027 BKN037 24/16 Q1013 20-01-22",0,0,0,0,0,0,-23.62611111111111,-46.656388888888884
"SBTT","TABATINGA/TABATINGA, AM","BRA","20-01-22","""2020-01-22T16:00:00.000Z""","SBTT 221600Z 28004KT CAVOK 30/25 Q1011 20-01-22",0,0,0,0,0,0,-4.250555555555556,-69.93777777777778
"SGAS","ASUNCION/S.PETTIROSSI","PRY","20-01-22","""2020-01-22T16:28:00.000Z""","SGAS 221628Z 22009KT 180V250 7000 -RA SCT007 OVC020 27/25 Q1005 20-01-22",0,0,0,0,0,0,-25.24108888888889,-57.51682777777778
"SBUA","SAO GABRIEL DA CACHOEIRA/SAO GABRIEL DA CACHOEIRA, AM","BRA","20-01-22","""2020-01-22T16:00:00.000Z""","SBUA 221600Z 08005KT 9999 SCT020 SCT070 30/28 Q1010 20-01-22",0,0,0,0,0,0,-0.14805555555555555,-66.98583333333333
"SBUF","PAULO AFONSO/PAULO AFONSO, BA","BRA","20-01-22","""2020-01-22T16:00:00.000Z""","SBUF 221600Z 35006KT 9999 FEW020 BKN070 31/20 Q1011 20-01-22",0,0,0,0,0,0,-9.402222222222223,-38.25416666666667
"SBUL","UBERLANDIA/TEN CEL AV CESAR BOMBONATO, MG","BRA","20-01-22","""2020-01-22T16:00:00.000Z""","SBUL 221600Z 32011KT 9999 SCT023 FEW025TCU 27/20 Q1011 20-01-22",0,0,0,0,1,0,-18.88361111111111,-48.22527777777778
"SBUR","UBERABA/MARIO DE ALMEIDA FRANCO, MG","BRA","20-01-22","""2020-01-22T16:00:00.000Z""","SBUR 221600Z 14009KT 9000 VCSH SCT015 FEW040TCU SCT100 23/19 Q1010 20-01-22",0,0,0,0,2,0,-19.764722222222222,-47.96611111111111
"SBVH","VILHENA/VILHENA, RO","BRA","20-01-22","""2020-01-22T16:00:00.000Z""","SBVH 221600Z 28010KT 240V320 9999 -SHRA BKN023 FEW030TCU BKN100 28/23 Q1013 20-01-22",0,0,3.3,0,1.3,0,-12.683055555555555,-60.09527777777778
"SBVT","VITORIA/EURICO DE AGUIAR SALLES, ES","BRA","20-01-22","""2020-01-22T16:00:00.000Z""","SBVT 221600Z 15012KT 9999 BKN035 28/22 Q1008 20-01-22",0,0,0,0,0,0,-20.258055555555554,-40.28639722222222
"SBYS","PIRASSUNUNGA/CAMPO FONTENELLE, SP","BRA","20-01-22","""2020-01-22T16:00:00.000Z""","SBYS 221600Z 04007KT 9999 BKN040 BKN078 27/19 Q1010 20-01-22",0,0,0,0,0,0,-21.984444444444446,-47.344166666666666
"SCAR","ARICA/AP CHACALLUTA","CHL","20-01-22","""2020-01-22T16:00:00.000Z""","SCAR 221600Z VRB03KT 9999 BKN070 27/15 Q1012 20-01-22",0,0,0,0,0,0,-18.34861111111111,-70.3386111111111
"SUMU","MONTEVIDEO/INTL.CARRASCO GRAL. CESAREO L. BERISSO","URY","20-01-22","""2020-01-22T16:00:00.000Z""","SUMU 221600Z 14013KT 9999 FEW026 28/20 Q1015 NOSIG 20-01-22",0,0,0,0,0,0,-34.83388888888889,-56.028055555555554
"SULS","MALDONADO/ INTL C/C CARLOS A.CURBELO LAGUNA DEL SAUCE","URY","20-01-22","""2020-01-22T16:00:00.000Z""","SULS 221600Z 05008G18KT 030V090 9999 SCT026 29/20 Q1014 20-01-22",0,2,0,0,0,0,-34.85722222222223,-55.09805555555556
"SUDU","DURAZNO/SANTA BERNARDINA INTL. DE ALTERNATIVA","URY","20-01-22","""2020-01-22T16:00:00.000Z""","SUDU 221600Z 09012KT 9999 BKN030 29/19 Q1013 20-01-22",0,0,0,0,0,0,-33.35638888888889,-56.49611111111111
"SUCA","COLONIA/INTL LAGUNA DE LOS PATOS","URY","20-01-22","""2020-01-22T16:00:00.000Z""","SUCA 221600Z 15011KT 9999 FEW030TCU 27/23 Q1014 20-01-22",0,0,0,0,1,0,-34.45138888888889,-57.76694444444444
"SUAA","MONTEVIDEO/AD ANGEL S. ADAMI","URY","20-01-22","""2020-01-22T16:00:00.000Z""","SUAA 221600Z 12010KT 9999 SCT025 28/20 Q1015 20-01-22",0,0,0,0,0,0,-34.78916666666667,-56.264722222222225
"SGES","MINGA GUAZU/GUARANI","PRY","20-01-22","""2020-01-22T16:00:00.000Z""","SGES 221600Z 12008KT 1500 -RA BR SCT004 OVC008 23/23 Q1006 20-01-22",0,0,0,0,0,1,-25.455294444444444,-54.84176666666667
"SCBA","BALMACEDA/AD BALMACEDA","CHL","20-01-22","""2020-01-22T16:00:00.000Z""","SCBA 221600Z 30015KT CAVOK 22/08 Q1015 20-01-22",0,0,0,0,0,0,-45.91638888888889,-71.68694444444445
"SCAT","CALDERA/AD DESIERTO DE ATACAMA","CHL","20-01-22","""2020-01-22T16:00:00.000Z""","SCAT 221600Z 32013KT 9999 FEW030 24/14 Q1015 20-01-22",0,0,0,0,0,0,-27.261666666666667,-70.77916666666667
"SUSO","SALTO/INTL.NUEVA HESPERIDES","URY","20-01-22","""2020-01-22T16:00:00.000Z""","SUSO 221600Z 15010KT 9999 BKN020 29/23 Q1010 20-01-22",0,0,0,0,0,0,-31.434722222222224,-57.98416666666667
"SCCF","CALAMA/AD EL LOA","CHL","20-01-22","""2020-01-22T16:00:00.000Z""","SCCF 221600Z 27007KT 9999 SCT060 SCT200 22/11 Q1025 20-01-22",0,0,0,0,0,0,-22.5,-68.90305555555557
"SCPQ","DALCAHUE/AD MOCOPULLI","CHL","20-01-22","""2020-01-22T16:00:00.000Z""","SCPQ 221600Z 16011KT 120V190 CAVOK 21/14 Q1016 20-01-22",0,0,0,0,0,0,-42.34038888888889,-73.71569444444445
"SCJO","OSORNO/AD CANAL BAJO-CARLOS HOTT S.","CHL","20-01-22","""2020-01-22T16:00:00.000Z""","SCJO 221600Z 18011KT CAVOK 23/14 Q1014 20-01-22",0,0,0,0,0,0,-40.61138888888889,-73.06055555555555
"SCIP","ISLA DE PASCUA/AD MATAVERI","CHL","20-01-22","""2020-01-22T16:00:00.000Z""","SCIP 221600Z 12010KT 9999 FEW020 BKN250 25/18 Q1023 NOSIG 20-01-22",0,0,0,0,0,0,-27.16472222222222,-109.42166666666667
"SCIE","CONCEPCION/AD CARRIEL SUR","CHL","20-01-22","""2020-01-22T16:00:00.000Z""","SCIE 221600Z 01009KT 340V040 5000 HZ OVC004 16/14 Q1013 20-01-22",0,0,0,0,0,0,-36.771388888888886,-73.0625
"SCFA","ANTOFAGASTA/AD ANDRES SABELLA","CHL","20-01-22","""2020-01-22T16:00:00.000Z""","SCFA 221600Z 20009KT CAVOK 25/16 Q1012 NOSIG 20-01-22",0,0,0,0,0,0,-23.444444444444446,-70.44500000000001
"SCEL","SANTIAGO/AP ARTURO MERINO BENITEZ","CHL","20-01-22","""2020-01-22T16:00:00.000Z""","SCEL 221600Z 17010KT 140V210 CAVOK 26/13 Q1012 NOSIG 20-01-22",0,0,0,0,0,0,-33.394441666666665,-70.79380277777777
"SCDA","IQUIQUE/AP DIEGO ARACENA","CHL","20-01-22","""2020-01-22T16:00:00.000Z""","SCDA 221600Z 25009KT CAVOK 28/17 Q1012 20-01-22",0,0,0,0,0,0,-20.53527777777778,-70.18138888888889
"SCCI","PUNTA ARENAS/AP PDTE. CARLOS IBANEZ DEL C.","CHL","20-01-22","""2020-01-22T16:00:00.000Z""","SCCI 221600Z 29011KT 9999 FEW040 SCT120 13/02 Q1011 NOSIG 20-01-22",0,0,0,0,0,0,-53.00361111111111,-70.8536111111111
"SCSE","LA SERENA/AD LA FLORIDA","CHL","20-01-22","""2020-01-22T16:00:00.000Z""","SCSE 221600Z 26008KT 9999 FEW016 OVC020 20/15 Q1014 20-01-22",0,0,0,0,0,0,-29.91638888888889,-71.19944444444445
"SAAR","ROSARIO/ISLAS MALVINAS (SF)","ARG","20-01-22","""2020-01-22T16:00:00.000Z""","SAAR 221600Z 16009KT 9999 BKN024 28/22 Q1013 20-01-22",0,0,0,0,0,0,-32.90361111111111,-60.78444444444444
"SABE","AEROPARQUE J. NEWBERY (CABA)","ARG","20-01-22","""2020-01-22T16:00:00.000Z""","SABE 221600Z 10012KT 9999 SCT021 27/22 Q1015 NOSIG 20-01-22",0,0,0,0,0,0,-34.55888888888889,-58.41638888888889
"SACO","CORDOBA/ING. AER L.V. TARAVELLA (CBA)","ARG","20-01-22","""2020-01-22T16:00:00.000Z""","SACO 221600Z 17006KT 110V220 9999 SCT036 27/19 Q1016 NOSIG 20-01-22",0,0,0,0,0,0,-31.310000000000002,-64.20833333333334
"SADF","SAN FERNANDO (BA)","ARG","20-01-22","""2020-01-22T16:00:00.000Z""","SADF 221600Z 10009KT 070V140 9999 BKN035 27/21 Q1015 20-01-22",0,0,0,0,0,0,-34.455000000000005,-58.59138888888889
"SAEZ","EZEIZA/MINISTRO PISTARINI (BA)","ARG","20-01-22","""2020-01-22T16:00:00.000Z""","SAEZ 221600Z 08009KT 9999 SCT035 SCT050 29/21 Q1014 NOSIG 20-01-22",0,0,0,0,0,0,-34.82222222222222,-58.53583333333333
"SCTE","PUERTO MONTT/AD EL TEPUAL","CHL","20-01-22","""2020-01-22T16:00:00.000Z""","SCTE 221600Z 16012KT CAVOK 19/13 Q1016 NOSIG 20-01-22",0,0,0,0,0,0,-41.43888888888888,-73.09388888888888
"SCVD","VALDIVIA/AD PICHOY","CHL","20-01-22","""2020-01-22T16:00:00.000Z""","SCVD 221600Z VRB04KT CAVOK 24/15 Q1013 20-01-22",0,0,0,0,0,0,-39.64944444444444,-73.08638888888889
"SARF","FORMOSA (F)","ARG","20-01-22","""2020-01-22T16:30:00.000Z""","SARF 221630Z 18010KT 9999 BKN018 FEW040CB SCT100 30/25 Q1104 RESHRA 20-01-22",0,0,0,0,1.3,0,-26.212777777777777,-58.22805555555556
"SAME","MENDOZA/EL PLUMERILLO, INTL (MZA)","ARG","20-01-22","""2020-01-22T16:00:00.000Z""","SAME 221600Z 09009KT 9999 FEW045 SCT050 31/13 Q1015 20-01-22",0,0,0,0,0,0,-32.83166666666667,-68.79277777777777
"SANT","TUCUMAN/TEN. BENJAMIN MATIENZO (T)","ARG","20-01-22","""2020-01-22T16:00:00.000Z""","SANT 221600Z 32004KT 8000 FEW030 BKN050 27/22 Q1015 20-01-22",0,0,0,0,0,0,-26.840833333333332,-65.10472222222222
"SAOC","RIO CUARTO/AREA DE MATERIAL (CBA)","ARG","20-01-22","""2020-01-22T16:00:00.000Z""","SAOC 221600Z 09009KT 9999 FEW035 27/19 Q1016 20-01-22",0,0,0,0,0,0,-33.092222222222226,-64.26944444444445
"SARC","CORRIENTES/DR. FERNANDO PIRAGINE NIVEYRO (CTS)","ARG","20-01-22","""2020-01-22T16:00:00.000Z""","SARC 221600Z 16012KT 9999 SCT012 OVC015 26/23 Q1007 20-01-22",0,0,0,0,0,0,-27.44472222222222,-58.76166666666666
"SARE","RESISTENCIA (CHO)","ARG","20-01-22","""2020-01-22T16:00:00.000Z""","SARE 221600Z 16011KT 9999 BKN015 OVC021 26/23 Q1007 20-01-22",0,0,0,0,0,0,-27.45,-59.05611111111111
"SARI","CATARATAS DEL IGUAZU/MY. D. CARLOS EDUARDO KRAUSE (MS)","ARG","20-01-22","""2020-01-22T16:00:00.000Z""","SARI 221600Z 09005KT 9999 FEW040 BKN100 BKN200 23/22 Q1007 20-01-22",0,0,0,0,0,0,-25.737222222222222,-54.473333333333336
"SARL","PASO DE LOS LIBRES (CTS)","ARG","20-01-22","""2020-01-22T16:00:00.000Z""","SARL 221600Z 09018KT 9999 BKN015 SCT100 26/22 Q1009 20-01-22",0,2,0,0,0,0,-29.688055555555557,-57.15222222222222
"SARP","POSADAS/LIBERTADOR GRAL. D. JOSE DE SAN MARTIN (MS)","ARG","20-01-22","""2020-01-22T16:00:00.000Z""","SARP 221600Z 09011KT 9999 SCT010 OVC050 25/23 Q1007 20-01-22",0,0,0,0,0,0,-27.385833333333334,-55.970555555555556
"SASA","SALTA/GENERAL D. MARTIN MIGUEL DE GUEMES (S)","ARG","20-01-22","""2020-01-22T16:00:00.000Z""","SASA 221600Z 05006KT 9999 FEW020TCU SCT040CB 26/19 Q1018 20-01-22",0,0,0,0,2,0,-24.859722222222224,-65.48694444444445
"SASJ","JUJUY/GOBERNADOR GUZMAN (J)","ARG","20-01-22","""2020-01-22T16:00:00.000Z""","SASJ 221600Z 18005KT 9999 SCT030TCU 28/20 Q1016 20-01-22",0,0,0,0,1.7,0,-24.392777777777777,-65.09777777777778
"SAVC","COMODORO RIVADAVIA/GRAL. E. MOSCONI (CHT)","ARG","20-01-22","""2020-01-22T16:00:00.000Z""","SAVC 221600Z 14008KT 080V190 9999 FEW040 27/12 Q1013 20-01-22",0,0,0,0,0,0,-45.78527777777778,-67.46555555555555
"SAWE","RIO GRANDE (TAIS)","ARG","20-01-22","""2020-01-22T16:00:00.000Z""","SAWE 221600Z 25012KT 9999 FEW020 15/03 Q1010 20-01-22",0,0,0,0,0,0,-53.777499999999996,-67.75
"SAWG","RIO GALLEGOS/PILOTO CIVIL NORBERTO FERNANDEZ (SC)","ARG","20-01-22","""2020-01-22T16:00:00.000Z""","SAWG 221600Z 29010KT CAVOK 16/03 Q1012 20-01-22",0,0,0,0,0,0,-51.60888888888889,-69.31277777777777
"SAWH","USHUAIA/MALVINAS ARGENTINAS (TAIS)","ARG","20-01-22","""2020-01-22T16:00:00.000Z""","SAWH 221600Z 00000KT 9999 SCT048 OVC100 12/02 Q1010 20-01-22",0,0,0,0,0,0,-54.843333333333334,-68.29555555555555
"SAZM","MAR DEL PLATA/ASTOR PIAZZOLLA (BA)","ARG","20-01-22","""2020-01-22T16:00:00.000Z""","SAZM 221600Z 11008KT 080V150 8000 OVC008 21/19 Q1018 20-01-22",0,0,0,0,0,0,-37.93416666666666,-57.57333333333334
"SAZN","NEUQUEN/PRESIDENTE PERON (N)","ARG","20-01-22","""2020-01-22T16:00:00.000Z""","SAZN 221600Z 05006KT CAVOK 31/17 Q1014 20-01-22",0,0,0,0,0,0,-38.94888888888889,-68.15583333333333
"SAZS","SAN CARLOS DE BARILOCHE (RN)","ARG","20-01-22","""2020-01-22T16:00:00.000Z""","SAZS 221600Z 30008KT CAVOK 28/04 Q1015 20-01-22",0,0,0,0,0,0,-41.151111111111106,-71.15777777777778
"EGYP","MOUNT PLEASANT","GBR","20-01-22","""2020-01-22T16:22:00.000Z""","EGYP 221622Z 12009KT 9999 FEW042 BKN250 15/05 Q1013 NOSIG 20-01-22",0,0,0,0,0,0,-51.82178888888889,-58.45611111111111
"SMZO","ZORG EN HOOP","SUR","20-01-22","""2020-01-22T16:00:00.000Z""","SMZO 221600Z 09008KT 9999 SCT035 32/19 Q1011 NOSIG 20-01-22",0,0,0,0,0,0,5.811111111111111,-55.19361111111111
"SMJP","JOHAN ADOLF PENGEL","SUR","20-01-22","""2020-01-22T16:00:00.000Z""","SMJP 221600Z 07007KT 9999 SCT030 30/20 Q1012 NOSIG 20-01-22",0,0,0,0,0,0,5.451388888888889,-55.200833333333335
"BIAR","AKUREYRI","ISL","20-01-22","""2020-01-22T16:00:00.000Z""","BIAR 221600Z 22031G45KT 9999 -DZ FEW030 SCT043 BKN062 07/M03 Q0996 RMK WIND VADLAHEIDI 22445KT 20-01-22",0,10,0,0,0,0,65.65666666666667,-18.071944444444444
"BGTL","THULE AIR BASE (MIL)","DNK","20-01-22","""2020-01-22T15:56:00.000Z""","BGTL 221556Z AUTO 12012KT 9999 CLR M26/M31 A2932 RMK AO2 SLP923 T12641314 TSNO $ 20-01-22",0,0,0,0,0,0,76.53120555555556,-68.7031638888889
"BGSF","KANGERLUSSUAQ","DNK","20-01-22","""2020-01-22T15:50:00.000Z""","BGSF 221550Z AUTO 05003KT 2500NDV -SN VV013/// M15/M17 Q0997 20-01-22",0,0,6.7,10,0,0,67.01696944444444,-50.689325
"BGKK","KULUSUK","DNK","20-01-22","""2020-01-22T15:50:00.000Z""","BGKK 221550Z 29009KT 4000 -SN OVC020 M05/M06 Q0982 20-01-22",0,0,6.7,7.5,0,0,65.5736111111111,-37.12361111111111
"BGJN","ILULISSAT","DNK","20-01-22","""2020-01-22T15:50:00.000Z""","BGJN 221550Z 15008KT 9999 -SN FEW017 BKN025 M10/M13 Q0995 20-01-22",0,0,6.7,7.5,0,0,69.24321666666667,-51.057111111111105
"BGGH","NUUK","DNK","20-01-22","""2020-01-22T15:50:00.000Z""","BGGH 221550Z 26007KT 4200 -SHSN VV020 M08/M12 Q1003 20-01-22",0,0,10,10,0,0,64.19092222222223,-51.678063888888886
"BGBW","NARSARSUAQ","DNK","20-01-22","""2020-01-22T15:50:00.000Z""","BGBW 221550Z 26012KT 9999 -SN FEW012 BKN024 BKN050 M04/M09 Q1007 20-01-22",0,0,6.7,7.5,0,0,61.160719444444446,-45.425675
"BIKF","KEFLAVIK","ISL","20-01-22","""2020-01-22T16:30:00.000Z""","BIKF 221630Z 22020KT 9999 VCSH FEW012CB BKN027 BKN065 04/M01 Q1001 20-01-22",0,2,0,0,4,0,63.985,-22.605555555555558
"EBBE","BEAUVECHAIN (MIL)","BEL","20-01-22","""2020-01-22T16:25:00.000Z""","EBBE 221625Z AUTO 01003KT 4100 BR OVC015/// 02/01 Q1036 GRN 20-01-22",0,0,0,7.5,0,0,50.75783333333333,4.767
"EBBL","KLEINE BROGEL (MIL)","BEL","20-01-22","""2020-01-22T16:25:00.000Z""","EBBL 221625Z AUTO VRB02KT 1300 BR OVC002/// 02/02 Q1036 AMB 20-01-22",0,0,0,7.5,0,1,51.16833333333333,5.469833333333334
"EBAW","ANTWERPEN/DEURNE","BEL","20-01-22","""2020-01-22T16:20:00.000Z""","EBAW 221620Z 32002KT 1600 BR BKN005 05/04 Q1036 TEMPO 0900 FG BKN002 20-01-22",0,0,0,0,0,1,51.18944444444444,4.460277777777778
"BIBD","BILDUDALUR","ISL","20-01-22","""2020-01-22T16:00:00.000Z""","BIBD 221600Z 20032G45KT 1000 +SHSN VV008 01/M01 Q0994 20-01-22",0,10,10,10,0,0,65.6413888888889,-23.546111111111113
"BIEG","EGILSSTADIR","ISL","20-01-22","""2020-01-22T16:00:00.000Z""","BIEG 221600Z 21024G34KT CAVOK 08/03 Q0994 20-01-22",0,6,0,0,0,0,65.28333333333333,-14.401388888888889
"BIHN","HOFN HORNAFIRDI","ISL","20-01-22","""2020-01-22T16:00:00.000Z""","BIHN 221600Z 21023KT 9999 -SHRA BR FEW006 BKN010 OVC016 08/06 Q1004 20-01-22",0,4,3.3,0,0,0,64.29555555555555,-15.227222222222222
"BIIS","ISAFJORDUR","ISL","20-01-22","""2020-01-22T16:00:00.000Z""","BIIS 221600Z 23027G40KT 9999 SHRASN BKN030 02/M02 Q0991 20-01-22",0,6,10,10,0,0,66.05805555555555,-23.135277777777777
"BIRK","REYKJAVIK","ISL","20-01-22","""2020-01-22T16:00:00.000Z""","BIRK 221600Z 21017KT 9999 VCSH FEW020CB SCT035 BKN081 03/M00 Q1002 20-01-22",0,2,0,0,4,0,64.13,-21.940555555555555
"EBFS","FLORENNES (MIL)","BEL","20-01-22","""2020-01-22T16:25:00.000Z""","EBFS 221625Z AUTO 05006KT 1100 BR OVC002/// 00/00 Q1034 AMB 20-01-22",0,0,0,7.5,0,1,50.24333333333333,4.645833333333333
"EBCV","CHIEVRES (MIL)","BEL","20-01-22","""2020-01-22T16:25:00.000Z""","EBCV 221625Z AUTO 05004KT 4300 BR OVC008/// 03/02 Q1036 GRN 20-01-22",0,0,0,7.5,0,1,50.575833333333335,3.831
"EBDT","DIEST/SCHAFFEN (MIL)","BEL","20-01-22","""2020-01-22T16:25:00.000Z""","EBDT 221625Z AUTO VRB02KT 0650 FG FEW000/// SCT003/// BKN007/// 02/02 Q1036 RED 20-01-22",4,0,0,2.5,0,1,50.9991667,5.0655556
"EBFN","KOKSIJDE (MIL)","BEL","20-01-22","""2020-01-22T16:25:00.000Z""","EBFN 221625Z AUTO VRB01KT 1900 BR OVC020/// 04/04 Q1037 YLO 20-01-22",0,0,0,0,0,0,51.090333333333334,2.652833333333333
"EBOS","OOSTENDE-BRUGGE/OOSTENDE","BEL","20-01-22","""2020-01-22T16:20:00.000Z""","EBOS 221620Z 24003KT 2800 BR BKN006 BKN018 04/03 Q1036 NOSIG 20-01-22",0,0,0,0,0,1,51.19888888888889,2.8622222222222224
"EBLG","LIEGE/LIEGE","BEL","20-01-22","""2020-01-22T16:20:00.000Z""","EBLG 221620Z 02005KT 3200 BR FEW006 BKN014 01/00 Q1035 BECMG 3000 BR BKN005 20-01-22",0,0,0,7.5,0,1,50.63638888888889,5.442777777777778
"EBBR","BRUSSELS/BRUSSELS-NATIONAL","BEL","20-01-22","""2020-01-22T16:20:00.000Z""","EBBR 221620Z 03002KT 6000 FEW007 BKN016 03/02 Q1036 BECMG 2000 BR BKN008 TEMPO BKN005 20-01-22",0,0,0,0,0,0,50.90138888888889,4.484444444444445
"EBCI","CHARLEROI/BRUSSELS SOUTH","BEL","20-01-22","""2020-01-22T16:20:00.000Z""","EBCI 221620Z 04006KT 4800 BR SCT003 BKN006 02/01 Q1035 TEMPO 4000 BR BKN004 20-01-22",0,0,0,7.5,0,1,50.46,4.452777777777778
"EDAC","LEIPZIG-ALTENBURG AIRPORT","DEU","20-01-22","""2020-01-22T16:20:00.000Z""","EDAC 221620Z 22004KT 3900 BR OVC004 01/00 Q1033 20-01-22",0,0,0,7.5,0,1,50.98181666666667,12.506361111111111
"EDDB","BERLIN-SCHOENEFELD","DEU","20-01-22","""2020-01-22T16:20:00.000Z""","EDDB 221620Z 31009KT 290V350 9999 BKN022 06/02 Q1031 NOSIG 20-01-22",0,0,0,0,0,0,52.36224722222222,13.500672222222223
"EDDC","DRESDEN","DEU","20-01-22","""2020-01-22T16:20:00.000Z""","EDDC 221620Z 27006KT 220V320 5000 BR BKN003 01/01 Q1032 TEMPO 3000 BR BKN005 20-01-22",0,0,0,7.5,0,0,51.134344444444444,13.768
"EDDE","ERFURT-WEIMAR","DEU","20-01-22","""2020-01-22T16:20:00.000Z""","EDDE 221620Z 26010KT 3000 BR BKN003 00/M00 Q1033 TEMPO 2500 BR SCT003 BKN005 20-01-22",0,0,0,7.5,0,1,50.97981111111111,10.958105555555555
"EDDF","FRANKFURT/MAIN","DEU","20-01-22","""2020-01-22T16:20:00.000Z""","EDDF 221620Z 12003KT 070V160 2500 BR SCT003 OVC004 M02/M02 Q1035 TEMPO 3000 20-01-22",0,0,0,7.5,0,1,50.03330555555556,8.570455555555556
"EDDG","MUENSTER/OSNABRUECK","DEU","20-01-22","""2020-01-22T16:20:00.000Z""","EDDG 221620Z 25004KT 1800 -DZ BR BKN001 03/03 Q1035 TEMPO BKN002 20-01-22",0,0,0,7.5,0,1,52.13464166666667,7.684830555555556
"EDDH","HAMBURG","DEU","20-01-22","""2020-01-22T16:20:00.000Z""","EDDH 221620Z 31006KT 9999 BKN021 07/04 Q1033 NOSIG 20-01-22",0,0,0,0,0,0,53.63038888888889,9.988227777777777
"EDDK","KOELN/BONN","DEU","20-01-22","""2020-01-22T16:20:00.000Z""","EDDK 221620Z 06002KT 1800 BR SCT003 BKN006 BKN011 01/00 Q1036 TEMPO BKN003 20-01-22",0,0,0,7.5,0,1,50.86591666666667,7.142744444444445
"EDDL","DUESSELDORF","DEU","20-01-22","""2020-01-22T16:20:00.000Z""","EDDL 221620Z VRB01KT 1800 -DZ BR OVC003 01/01 Q1036 BECMG 1200 20-01-22",0,0,0,7.5,0,1,51.280924999999996,6.757311111111111
"EDDM","MUENCHEN","DEU","20-01-22","""2020-01-22T16:20:00.000Z""","EDDM 221620Z 21005KT 4000 BR BKN006 M03/M04 Q1033 NOSIG 20-01-22",0,0,0,7.5,0,1,48.35378333333333,11.78608611111111
"EDDN","NUERNBERG","DEU","20-01-22","""2020-01-22T16:20:00.000Z""","EDDN 221620Z VRB02KT 7000 OVC008 M02/M04 Q1034 NOSIG 20-01-22",0,0,0,2.5,0,0,49.4987,11.078008333333333
"EDDP","LEIPZIG/HALLE","DEU","20-01-22","""2020-01-22T16:20:00.000Z""","EDDP 221620Z 25009KT 3500 BR BKN003 OVC020 02/01 Q1033 TEMPO SCT003 BKN005 20-01-22",0,0,0,7.5,0,1,51.423991666666666,12.236383333333333
"EDDR","SAARBRUECKEN","DEU","20-01-22","""2020-01-22T16:20:00.000Z""","EDDR 221620Z 06004KT CAVOK 01/M03 Q1032 NOSIG 20-01-22",0,0,0,0,0,0,49.21455277777778,7.109508333333333
"EDDS","STUTTGART","DEU","20-01-22","""2020-01-22T16:20:00.000Z""","EDDS 221620Z 25004KT 4500 BR SCT005 M04/M05 Q1033 BECMG 5000 20-01-22",0,0,0,7.5,0,1,48.689877777777774,9.221963888888888
"EDDT","BERLIN-TEGEL","DEU","20-01-22","""2020-01-22T16:20:00.000Z""","EDDT 221620Z 30006KT 260V350 9999 BKN023 06/02 Q1031 NOSIG 20-01-22",0,0,0,0,0,0,52.559686111111105,13.287711111111111
"EDDV","HANNOVER","DEU","20-01-22","""2020-01-22T16:20:00.000Z""","EDDV 221620Z 27006KT 240V300 6000 BKN004 BKN026 05/04 Q1034 TEMPO 4500 BKN006 20-01-22",0,0,0,0,0,0,52.460213888888894,9.683522222222223
"EDDW","BREMEN","DEU","20-01-22","""2020-01-22T16:20:00.000Z""","EDDW 221620Z 32009KT 9999 FEW016 07/04 Q1034 NOSIG 20-01-22",0,0,0,0,0,0,53.047399999999996,8.786747222222223
"EDFH","FRANKFURT-HAHN","DEU","20-01-22","""2020-01-22T16:20:00.000Z""","EDFH 221620Z 01003KT 340V130 9999 3000N BCFG FEW002 M03/M04 Q1033 20-01-22",0,0,0,2.5,0,0,49.94867222222222,7.263891666666667
"EDFM","MANNHEIM CITY","DEU","20-01-22","""2020-01-22T16:20:00.000Z""","EDFM 221620Z 00000KT 4500 BR OVC004 M01/M02 Q1035 20-01-22",0,0,0,7.5,0,1,49.47270555555556,8.51426388888889
"EDGS","SIEGERLAND","DEU","20-01-22","""2020-01-22T16:20:00.000Z""","EDGS 221620Z 35005KT 2500 BR OVC003 01/01 Q1032 20-01-22",0,0,0,7.5,0,1,50.707658333333335,8.082969444444444
"EDHL","LUEBECK-BLANKENSEE","DEU","20-01-22","""2020-01-22T16:20:00.000Z""","EDHL 221620Z VRB02KT 9999 SCT025 06/03 Q1032 20-01-22",0,0,0,0,0,0,53.805366666666664,10.719222222222223
"EDJA","MEMMINGEN","DEU","20-01-22","""2020-01-22T16:20:00.000Z""","EDJA 221620Z 04004KT 1100 0900N R24/1600U FZFG BKN001 OVC005 M03/M03 Q1031 20-01-22",0,0,10,10,0,1,47.988822222222225,10.239483333333332
"EDLN","MOENCHENGLADBACH","DEU","20-01-22","""2020-01-22T16:20:00.000Z""","EDLN 221620Z VRB02KT 1700 BR OVC002 02/02 Q1036 20-01-22",0,0,0,7.5,0,1,51.23027777777778,6.504444444444444
"EDLP","PADERBORN/LIPPSTADT","DEU","20-01-22","""2020-01-22T16:20:00.000Z""","EDLP 221620Z 25003KT 220V290 0600 R24/0750U -DZ FG VV/// 02/02 Q1034 REDZ 20-01-22",4,0,0,2.5,0,0,51.614088888888894,8.616316666666666
"EDLV","NIEDERRHEIN","DEU","20-01-22","""2020-01-22T16:20:00.000Z""","EDLV 221620Z VRB01KT 1100 R27/1400N BR VV/// 03/02 Q1036 20-01-22",0,0,0,7.5,0,0,51.60241388888889,6.142172222222222
"EDLW","DORTMUND","DEU","20-01-22","""2020-01-22T16:20:00.000Z""","EDLW 221620Z 23005KT 2000 BR BKN001 02/02 Q1035 20-01-22",0,0,0,7.5,0,1,51.51831388888889,7.612241666666666
"EDMA","AUGSBURG","DEU","20-01-22","""2020-01-22T16:20:00.000Z""","EDMA 221620Z 17004KT 130V210 4500 BR BKN007 M03/M04 Q1033 20-01-22",0,0,0,7.5,0,1,48.42515833333333,10.931763888888888
"EDMO","OBERPFAFFENHOFEN","DEU","20-01-22","""2020-01-22T16:20:00.000Z""","EDMO 221620Z 13003KT 1500 BR OVC002 M03/M04 Q1032 20-01-22",0,0,0,7.5,0,1,48.081363888888895,11.283066666666668
"EDNY","FRIEDRICHSHAFEN","DEU","20-01-22","""2020-01-22T16:20:00.000Z""","EDNY 221620Z VRB02KT 4200 BR OVC005 M03/M04 Q1033 20-01-22",0,0,0,7.5,0,1,47.67131666666666,9.511486111111111
"EDQM","HOF-PLAUEN","DEU","20-01-22","""2020-01-22T16:20:00.000Z""","EDQM 221620Z 28005KT 1300 R26/P2000N -RASN BR OVC003 M01/M02 Q1031 20-01-22",0,0,10,7.5,0,1,50.28883611111111,11.854919444444445
"EDSB","KARLSRUHE/BADEN-BADEN","DEU","20-01-22","""2020-01-22T16:20:00.000Z""","EDSB 221620Z 02006KT 6000 BKN011 M01/M03 Q1034 20-01-22",0,0,0,2.5,0,0,48.779352777777774,8.080499999999999
"EDTL","LAHR","DEU","20-01-22","""2020-01-22T16:20:00.000Z""","EDTL 221620Z 36003KT 320V060 2800 BR BKN005 M02/M03 Q1034 20-01-22",0,0,0,7.5,0,1,48.36925,7.827722222222222
"EDVE","BRAUNSCHWEIG-WOLFSBURG","DEU","20-01-22","""2020-01-22T16:20:00.000Z""","EDVE 221620Z 28007KT 8000 OVC005 04/03 Q1033 20-01-22",0,0,0,0,0,0,52.319361111111114,10.55888888888889
"EDVK","KASSEL-CALDEN","DEU","20-01-22","""2020-01-22T16:20:00.000Z""","EDVK 221620Z VRB02KT 0900 R27/P2000N FG OVC002 01/00 Q1034 20-01-22",0,0,0,2.5,0,1,51.420791666666666,9.392158333333333
"ETHA","ALTENSTADT","DEU","20-01-22","""2020-01-22T16:20:00.000Z""","ETHA 221620Z 06006KT 0100 FZFG VV000 M02/M02 Q1031 BLACKRED RED 20-01-22",10,0,10,10,0,0,47.83551666666667,10.871252777777778
"ETHB","BUECKEBURG","DEU","20-01-22","""2020-01-22T16:20:00.000Z""","ETHB 221620Z 26003KT 4500 BR OVC004 04/03 Q1034 YLO FCST CANCEL 20-01-22",0,0,0,0,0,1,52.2785,9.082166666666666
"ETHC","CELLE","DEU","20-01-22","""2020-01-22T16:20:00.000Z""","ETHC 221620Z 26005KT 3500 BR BKN003 BKN025 05/05 Q1033 YLO YLO TEMPO WHT 20-01-22",0,0,0,0,0,1,52.591166666666666,10.022166666666667
"ETHF","FRITZLAR","DEU","20-01-22","""2020-01-22T16:20:00.000Z""","ETHF 221620Z 00000KT 3500 -DZ BR OVC008 01/00 Q1034 YLO 20-01-22",0,0,0,7.5,0,1,51.114583333333336,9.28586111111111
"ETHL","LAUPHEIM","DEU","20-01-22","""2020-01-22T16:20:00.000Z""","ETHL 221620Z 06005KT 3000 BR OVC003 M03/M04 Q1032 YLO FCST CANCEL 20-01-22",0,0,0,7.5,0,1,48.22016666666667,9.910166666666667
"ETHN","NIEDERSTETTEN","DEU","20-01-22","""2020-01-22T16:20:00.000Z""","ETHN 221620Z 04005KT 2000 BR OVC001 M04/M04 Q1033 RED 20-01-22",0,0,0,7.5,0,1,49.39183333333333,9.958166666666665
"ETHS","FASSBERG","DEU","20-01-22","""2020-01-22T16:20:00.000Z""","ETHS 221620Z 31004KT 9999 BKN023 05/03 Q1033 WHT WHT TEMPO GRN 20-01-22",0,0,0,0,0,0,52.91937222222222,10.183847222222223
"ETMN","NORDHOLZ","DEU","20-01-22","""2020-01-22T16:20:00.000Z""","ETMN 221620Z 31007KT 9999 FEW022 BKN300 04/03 Q1034 BLU+BLU+ 20-01-22",0,0,0,0,0,0,53.76766666666666,8.6585
"ETNH","HOHN","DEU","20-01-22","""2020-01-22T16:20:00.000Z""","ETNH 221620Z 29006KT 9999 BKN018 SCT320 06/04 Q1032 WHT BLU TEMPO WHT 20-01-22",0,0,0,0,0,0,54.3122,9.538144444444445
"ETNL","LAAGE","DEU","20-01-22","""2020-01-22T16:20:00.000Z""","ETNL 221620Z 29007KT 9999 SCT009 BKN020 05/04 Q1031 WHT BLU+ TEMPO GRN 20-01-22",0,0,0,0,0,0,53.918166666666664,12.279333333333334
"ETNN","NOERVENICH","DEU","20-01-22","""2020-01-22T16:20:00.000Z""","ETNN 221620Z VRB01KT 1800 R25/9999N -DZ BR BKN009 BKN015 02/01 Q1035 YLO YLO TEMPO GRN 20-01-22",0,0,0,7.5,0,1,50.83116666666667,6.658166666666667
"ETNS","SCHLESWIG","DEU","20-01-22","""2020-01-22T16:20:00.000Z""","ETNS 221620Z AUTO 28005KT 9999 // ////// 04/03 Q1032 /// 20-01-22",0,0,0,0,0,0,54.45935,9.516361111111111
"ETIH","HOHENFELS AAF","DEU","20-01-22","""2020-01-22T15:51:00.000Z""","ETIH 221551Z AUTO 33003KT 9999 OVC009 M02/M05 A3051 RMK AO2 SLP367 $ 20-01-22",0,0,0,0,0,0,49.2165,11.836166666666667
"ETSN","NEUBURG","DEU","20-01-22","""2020-01-22T16:40:00.000Z""","ETSN 221640Z 12001KT 4000 BR BKN006 M03/M04 Q1033 YLO YLO TEMPO GRN 20-01-22",0,0,0,7.5,0,1,48.711000000000006,11.2115
"ETNT","WITTMUNDHAFEN","DEU","20-01-22","""2020-01-22T16:20:00.000Z""","ETNT 221620Z 30005KT 9999 BKN024 06/04 Q1034 WHT BLU+ TEMPO GRN 20-01-22",0,0,0,0,0,0,53.547913888888885,7.667400000000001
"ETNW","WUNSTORF","DEU","20-01-22","""2020-01-22T16:20:00.000Z""","ETNW 221620Z 28006KT 4700 BR BKN003 05/04 Q1034 YLO YLO BECMG GRN 20-01-22",0,0,0,0,0,1,52.45733333333334,9.427166666666666
"ETSB","BUECHEL","DEU","20-01-22","""2020-01-22T16:20:00.000Z""","ETSB 221620Z 06005KT 2000 BR BKN002 BKN220 M01/M02 Q1033 AMB FCST CANCEL 20-01-22",0,0,0,7.5,0,1,50.173833333333334,7.0633333333333335
"ETSH","HOLZDORF","DEU","20-01-22","""2020-01-22T16:20:00.000Z""","ETSH 221620Z 26007KT 3500 BR SCT003 BKN020 03/03 Q1032 YLO FCST CANCEL 20-01-22",0,0,0,7.5,0,1,51.767833333333336,13.167666666666666
"ETSI","INGOLSTADT/MANCHING","DEU","20-01-22","""2020-01-22T16:20:00.000Z""","ETSI 221620Z VRB02KT 6000 BKN009 M02/M04 Q1033 GRN 20-01-22",0,0,0,2.5,0,0,48.71566666666667,11.533666666666667
"ETSL","LECHFELD","DEU","20-01-22","""2020-01-22T16:20:00.000Z""","ETSL 221620Z 05002KT 0900 R21/6000U FZFG VV000 M03/M04 Q1032 RED RED TEMPO YLO 20-01-22",0,0,10,10,0,0,48.18543611111111,10.861136111111112
"EETN","LENNART MERI TALLINN","EST","20-01-22","""2020-01-22T16:20:00.000Z""","EETN 221620Z 34011KT 9999 FEW028 02/M05 Q1013 R08/12//95 NOSIG 20-01-22",0,0,0,0,0,0,59.413333333333334,24.8325
"EFET","ENONTEKIO","FIN","20-01-22","""2020-01-22T16:20:00.000Z""","EFET 221620Z AUTO 29006KT CAVOK M10/M12 Q1006 20-01-22",0,0,0,2.5,0,0,68.36444444444444,23.427500000000002
"EFHA","HALLI","FIN","20-01-22","""2020-01-22T16:20:00.000Z""","EFHA 221620Z AUTO 30009KT CAVOK M01/M05 Q1011 20-01-22",0,0,0,0,0,0,61.85638888888889,24.789166666666667
"EFHK","HELSINKI-VANTAA","FIN","20-01-22","""2020-01-22T16:20:00.000Z""","EFHK 221620Z 31010KT CAVOK M01/M05 Q1012 NOSIG 20-01-22",0,0,0,0,0,0,60.31722222222223,24.96333333333333
"ETWM","MEPPEN","DEU","20-01-22","""2020-01-22T16:20:00.000Z""","ETWM 221620Z AUTO 31002KT //// // ////// 06/05 Q1035 /// 20-01-22",0,0,0,0,0,0,52.72316666666667,7.326333333333333
"EEKA","KARDLA","EST","20-01-22","""2020-01-22T15:50:00.000Z""","EEKA 221550Z 34016KT 9999 FEW027 03/M02 Q1015 20-01-22",0,2,0,0,0,0,58.990833333333335,22.830833333333334
"EEKE","KURESSAARE","EST","20-01-22","""2020-01-22T15:50:00.000Z""","EEKE 221550Z 33014G24KT 300V010 9999 FEW026 03/M01 Q1015 R17/190095 20-01-22",0,2,0,0,0,0,58.230000000000004,22.509444444444444
"EETU","TARTU","EST","20-01-22","""2020-01-22T15:50:00.000Z""","EETU 221550Z AUTO 30010KT 260V330 9999 OVC033/// 01/M04 Q1009 20-01-22",0,0,0,0,0,0,58.3075,26.686944444444446
"EFIV","IVALO","FIN","20-01-22","""2020-01-22T16:20:00.000Z""","EFIV 221620Z 29011KT CAVOK M07/M11 Q1003 20-01-22",0,0,0,0,0,0,68.61083333333333,27.413888888888888
"EFJO","JOENSUU","FIN","20-01-22","""2020-01-22T16:20:00.000Z""","EFJO 221620Z AUTO 32013G23KT 290V350 CAVOK M04/M10 Q1004 20-01-22",0,2,0,0,0,0,62.65888888888889,29.624444444444446
"EFJY","JYVASKYLA","FIN","20-01-22","""2020-01-22T16:20:00.000Z""","EFJY 221620Z AUTO 30011KT 9999 BKN027 M01/M05 Q1009 20-01-22",0,0,0,0,0,0,62.40083333333333,25.672777777777778
"EFKE","KEMI-TORNIO","FIN","20-01-22","""2020-01-22T16:20:00.000Z""","EFKE 221620Z AUTO 30008KT CAVOK M05/M08 Q1011 20-01-22",0,0,0,0,0,0,65.77916666666667,24.584722222222222
"EFKK","KOKKOLA-PIETARSAARI","FIN","20-01-22","""2020-01-22T16:20:00.000Z""","EFKK 221620Z AUTO 32004KT 290V350 CAVOK M01/M06 Q1013 20-01-22",0,0,0,0,0,0,63.72027777777778,23.139166666666664
"EFKS","KUUSAMO","FIN","20-01-22","""2020-01-22T16:20:00.000Z""","EFKS 221620Z AUTO 32016KT CAVOK M09/M12 Q1002 20-01-22",0,2,0,0,0,0,65.99027777777778,29.231944444444444
"EFKT","KITTILA","FIN","20-01-22","""2020-01-22T16:20:00.000Z""","EFKT 221620Z 28004KT 240V320 CAVOK M09/M11 Q1007 20-01-22",0,0,0,2.5,0,0,67.69861111111112,24.848055555555554
"EFKU","KUOPIO","FIN","20-01-22","""2020-01-22T16:20:00.000Z""","EFKU 221620Z AUTO 34015G25KT 300V010 9999 BKN025 M03/M07 Q1007 20-01-22",0,2,0,0,0,0,63.00861111111111,27.794444444444448
"EFLP","LAPPEENRANTA","FIN","20-01-22","""2020-01-22T16:20:00.000Z""","EFLP 221620Z 34012G22KT 300V010 CAVOK M02/M10 Q1007 20-01-22",0,2,0,0,0,0,61.045833333333334,28.148611111111112
"EFTP","TAMPERE-PIRKKALA","FIN","20-01-22","""2020-01-22T16:20:00.000Z""","EFTP 221620Z AUTO 29009KT 260V320 CAVOK M01/M05 Q1013 20-01-22",0,0,0,0,0,0,61.415277777777774,23.587777777777777
"EFSI","SEINAJOKI","FIN","20-01-22","""2020-01-22T16:20:00.000Z""","EFSI 221620Z AUTO 31013KT 9999 -SHSN FEW033 BKN055 BKN080 M01/M03 Q1013 20-01-22",0,0,10,10,0,0,62.69361111111111,22.831944444444446
"EFSA","SAVONLINNA","FIN","20-01-22","""2020-01-22T16:20:00.000Z""","EFSA 221620Z 33014KT 300V360 9999 FEW037 M03/M09 Q1006 20-01-22",0,0,0,0,0,0,61.94277777777778,28.945
"EFRO","ROVANIEMI","FIN","20-01-22","""2020-01-22T16:20:00.000Z""","EFRO 221620Z AUTO 30006KT CAVOK M08/M11 Q1008 20-01-22",0,0,0,0,0,0,66.56166666666667,25.830833333333334
"EFPO","PORI","FIN","20-01-22","""2020-01-22T16:20:00.000Z""","EFPO 221620Z AUTO 31010KT CAVOK 02/M03 Q1015 20-01-22",0,0,0,0,0,0,61.46138888888889,21.797777777777778
"EFOU","OULU","FIN","20-01-22","""2020-01-22T16:20:00.000Z""","EFOU 221620Z AUTO 32014KT CAVOK M02/M07 Q1010 20-01-22",0,0,0,0,0,0,64.92916666666667,25.355555555555558
"EFMI","MIKKELI","FIN","20-01-22","""2020-01-22T16:20:00.000Z""","EFMI 221620Z AUTO 28006KT CAVOK M02/M07 Q1009 20-01-22",0,0,0,0,0,0,61.686388888888885,27.2
"EFMA","MARIEHAMN","FIN","20-01-22","""2020-01-22T16:20:00.000Z""","EFMA 221620Z AUTO 32010KT 280V340 CAVOK 02/M02 Q1020 20-01-22",0,0,0,0,0,0,60.121944444444445,19.89638888888889
"EFTU","TURKU","FIN","20-01-22","""2020-01-22T16:20:00.000Z""","EFTU 221620Z AUTO 31007KT 280V340 CAVOK 00/M03 Q1015 20-01-22",0,0,0,0,0,0,60.514722222222225,22.261666666666667
"EFUT","UTTI","FIN","20-01-22","""2020-01-22T16:20:00.000Z""","EFUT 221620Z 32007KT 280V010 CAVOK M02/M08 Q1009 20-01-22",0,0,0,0,0,0,60.896388888888886,26.938055555555557
"EFVA","VAASA","FIN","20-01-22","""2020-01-22T16:20:00.000Z""","EFVA 221620Z AUTO 36014KT 9999 -SN OVC031 00/M03 Q1015 REUP 20-01-22",0,0,6.7,7.5,0,0,63.04527777777778,21.764166666666668
"EGAA","BELFAST/ALDERGROVE","GBR","20-01-22","""2020-01-22T16:20:00.000Z""","EGAA 221620Z VRB02KT 9999 FEW045 08/07 Q1037 20-01-22",0,0,0,0,0,0,54.6575,-6.215833333333333
"EGAC","BELFAST/CITY","GBR","20-01-22","""2020-01-22T16:20:00.000Z""","EGAC 221620Z AUTO 17003KT 9999 NCD 10/08 Q1037 20-01-22",0,0,0,0,0,0,54.61805555555556,-5.8725000000000005
"EGAE","LONDONDERRY/EGLINTON","GBR","20-01-22","""2020-01-22T16:20:00.000Z""","EGAE 221620Z 25007KT 9999 FEW007 11/09 Q1037 20-01-22",0,0,0,0,0,0,55.04277777777778,-7.161944444444445
"EGBB","BIRMINGHAM","GBR","20-01-22","""2020-01-22T16:20:00.000Z""","EGBB 221620Z 15001KT 8000 SCT045 09/08 Q1036 20-01-22",0,0,0,0,0,0,52.453855555555556,-1.7480277777777777
"EGBJ","GLOUCESTERSHIRE","GBR","20-01-22","""2020-01-22T16:20:00.000Z""","EGBJ 221620Z 36002KT 2500 BR SCT003 BKN005 08/08 Q1036 20-01-22",0,0,0,0,0,1,51.89416666666666,-2.167222222222222
"EGEC","CAMPBELTOWN","GBR","20-01-22","""2020-01-22T16:20:00.000Z""","EGEC 221620Z 27010KT 0300 -DZ FG VV/// 09/09 Q1037 20-01-22",10,0,0,0,0,0,55.43761666666666,-5.6881
"EGCC","MANCHESTER","GBR","20-01-22","""2020-01-22T16:20:00.000Z""","EGCC 221620Z AUTO VRB03KT 4600 BR OVC002 09/08 Q1037 BECMG 2500 20-01-22",0,0,0,0,0,1,53.35388888888889,-2.275
"EGCN","DONCASTER SHEFFIELD","GBR","20-01-22","""2020-01-22T16:20:00.000Z""","EGCN 221620Z 13004KT 4000 BR MIFG NSC 07/07 Q1037 20-01-22",0,0,0,0,0,0,53.47528333333334,-1.0041361111111111
"EGEO","OBAN","GBR","20-01-22","""2020-01-22T16:20:00.000Z""","EGEO 221620Z VRB02KT 3000 -DZ BR OVC002 09/09 Q1036 20-01-22",0,0,0,0,0,1,56.46361111111111,-5.4
"EGFF","CARDIFF","GBR","20-01-22","""2020-01-22T16:20:00.000Z""","EGFF 221620Z 09008KT 9999 BKN008 OVC015 08/07 Q1036 20-01-22",0,0,0,0,0,0,51.39666666666667,-3.3433333333333333
"EGGD","BRISTOL","GBR","20-01-22","""2020-01-22T16:20:00.000Z""","EGGD 221620Z AUTO 05005KT 1500 R27/0800 BR OVC001 07/07 Q1036 20-01-22",0,0,0,0,0,1,51.382669444444446,-2.7191
"EGHQ","NEWQUAY","GBR","20-01-22","""2020-01-22T16:20:00.000Z""","EGHQ 221620Z 06007KT 9999 BKN010 08/06 Q1035 20-01-22",0,0,0,0,0,0,50.44083333333333,-4.995277777777778
"EGDM","BOSCOMBE DOWN","GBR","20-01-22","""2020-01-22T15:50:00.000Z""","EGDM 221550Z 07004KT 5000 BR BKN004 OVC010 07/07 Q1035 TEMPO BKN005 RMK YLO2 TEMPO YLO1 20-01-22",0,0,0,0,0,0,51.153308333333335,-1.751011111111111
"EGDR","CULDROSE","GBR","20-01-22","""2020-01-22T15:50:00.000Z""","EGDR 221550Z AUTO 06010KT 1600 // OVC001/// 07/07 Q1034 20-01-22",0,0,0,0,0,1,50.08539722222223,-5.254072222222222
"EGDY","YEOVILTON","GBR","20-01-22","""2020-01-22T15:50:00.000Z""","EGDY 221550Z AUTO 01005KT 9999 OVC011/// 07/07 Q1036 20-01-22",0,0,0,0,0,0,51.008269444444444,-2.6454916666666666
"EGGP","LIVERPOOL","GBR","20-01-22","""2020-01-22T16:20:00.000Z""","EGGP 221620Z 27005KT 1800 BR BKN001 OVC004 08/08 Q1037 20-01-22",0,0,0,0,0,1,53.33361111111111,-2.8497222222222223
"EGKB","BIGGIN HILL","GBR","20-01-22","""2020-01-22T16:20:00.000Z""","EGKB 221620Z 05004KT 0400 R21/0500 FG VV/// 06/06 Q1036 20-01-22",0,0,0,0,0,0,51.33083333333334,0.0325
"EGKA","SHOREHAM","GBR","20-01-22","""2020-01-22T16:20:00.000Z""","EGKA 221620Z 01006KT 2500 BR SCT008 BKN014 06/05 Q1036 20-01-22",0,0,0,0,0,1,50.83555555555556,-0.2972222222222222
"EGJJ","JERSEY","GBR","20-01-22","""2020-01-22T16:20:00.000Z""","EGJJ 221620Z 07010KT 9999 FEW013 06/03 Q1033 20-01-22",0,0,0,0,0,0,49.207952777777784,-2.195525
"EGJB","GUERNSEY","GBR","20-01-22","""2020-01-22T16:20:00.000Z""","EGJB 221620Z 06008KT 9999 FEW017 06/03 Q1033 20-01-22",0,0,0,0,0,0,49.43493055555555,-2.6028000000000002
"EGJA","ALDERNEY","GBR","20-01-22","""2020-01-22T16:20:00.000Z""","EGJA 221620Z 07013KT 9999 BKN015 06/04 Q1034 20-01-22",0,0,0,0,0,0,49.70675833333333,-2.214480555555556
"EGHI","SOUTHAMPTON","GBR","20-01-22","""2020-01-22T16:20:00.000Z""","EGHI 221620Z 03003KT 6000 FEW005 BKN016 07/06 Q1036 20-01-22",0,0,0,0,0,0,50.95027777777778,-1.3566666666666667
"EGHH","BOURNEMOUTH","GBR","20-01-22","""2020-01-22T16:20:00.000Z""","EGHH 221620Z VRB01KT 4000 BR BKN006 OVC009 07/07 Q1036 20-01-22",0,0,0,0,0,1,50.78,-1.8425000000000002
"EGGW","LONDON LUTON","GBR","20-01-22","""2020-01-22T16:20:00.000Z""","EGGW 221620Z AUTO VRB03KT 3300 BR SCT003 OVC007 06/06 Q1036 20-01-22",0,0,0,0,0,1,51.874722222222225,-0.3683333333333333
"EGKK","LONDON GATWICK","GBR","20-01-22","""2020-01-22T16:20:00.000Z""","EGKK 221620Z 07004KT 2700 BR SCT004 BKN008 BKN013 06/06 Q1036 20-01-22",0,0,0,0,0,1,51.14805555555556,-0.19027777777777777
"EGLC","LONDON/CITY","GBR","20-01-22","""2020-01-22T16:20:00.000Z""","EGLC 221620Z AUTO 07004KT 3100 HZ BKN006 OVC011 08/07 Q1036 20-01-22",0,0,0,0,0,1,51.50527777777778,0.05527777777777778
"EGNR","HAWARDEN","GBR","20-01-22","""2020-01-22T16:20:00.000Z""","EGNR 221620Z 33005KT 0550 FG OVC001 08/08 Q1037 20-01-22",4,0,0,0,0,1,53.17805555555555,-2.977777777777778
"EGNM","LEEDS BRADFORD","GBR","20-01-22","""2020-01-22T16:20:00.000Z""","EGNM 221620Z 28007KT CAVOK 08/07 Q1036 20-01-22",0,0,0,0,0,0,53.866025,-1.6607694444444443
"EGNJ","HUMBERSIDE","GBR","20-01-22","""2020-01-22T16:20:00.000Z""","EGNJ 221620Z 20006KT 0900 R20/1100 FG SCT015 BKN035 07/07 Q1036 20-01-22",0,0,0,0,0,0,53.57343055555556,-0.3514583333333333
"EGNH","BLACKPOOL","GBR","20-01-22","""2020-01-22T16:20:00.000Z""","EGNH 221620Z 32006KT 0300 FG BKN002 OVC004 07/07 Q1037 20-01-22",10,0,0,0,0,1,53.77166666666667,-3.028611111111111
"EGMD","LYDD","GBR","20-01-22","""2020-01-22T16:20:00.000Z""","EGMD 221620Z 05008KT 9999 BKN011 07/07 Q1036 20-01-22",0,0,0,0,0,0,50.95611111111111,0.9391666666666667
"EGMC","SOUTHEND","GBR","20-01-22","""2020-01-22T16:20:00.000Z""","EGMC 221620Z VRB02KT 3000 BR FEW005 BKN007 06/06 Q1036 20-01-22",0,0,0,0,0,1,51.57027777777778,0.6933333333333334
"EGLL","LONDON HEATHROW","GBR","20-01-22","""2020-01-22T16:20:00.000Z""","EGLL 221620Z AUTO VRB03KT 3700 BR SCT005 OVC009 08/08 Q1036 TEMPO BKN004 20-01-22",0,0,0,0,0,1,51.4775,-0.4613888888888889
"EGLF","FARNBOROUGH","GBR","20-01-22","""2020-01-22T16:20:00.000Z""","EGLF 221620Z 34003KT 2000 -DZ BR BKN003 BKN012 07/06 Q1036 20-01-22",0,0,0,0,0,1,51.275277777777774,-0.7775000000000001
"EGNS","ISLE OF MAN","GBR","20-01-22","""2020-01-22T16:20:00.000Z""","EGNS 221620Z 21006KT 9999 FEW002 09/08 Q1037 NOSIG 20-01-22",0,0,0,0,0,0,54.083333333333336,-4.623333333333334
"EGOV","VALLEY","GBR","20-01-22","""2020-01-22T16:24:00.000Z""","EGOV 221624Z 06004KT 9999 SCT003 BKN110 08/08 Q1037 TEMPO FEW002 RMK YLO2 TEMPO BLU 20-01-22",0,0,0,0,0,0,53.24816666666667,-4.535333333333333
"EGNT","NEWCASTLE","GBR","20-01-22","""2020-01-22T16:20:00.000Z""","EGNT 221620Z 25005KT 220V280 CAVOK 08/07 Q1035 20-01-22",0,0,0,0,0,0,55.03792222222222,-1.6898027777777778
"EGNV","DURHAM TEES VALLEY","GBR","20-01-22","""2020-01-22T16:20:00.000Z""","EGNV 221620Z 29005KT 9999 FEW040 08/06 Q1036 20-01-22",0,0,0,0,0,0,54.509166666666665,-1.4294444444444445
"EGNX","EAST MIDLANDS","GBR","20-01-22","""2020-01-22T16:20:00.000Z""","EGNX 221620Z VRB03KT 9000 NSC 09/08 Q1036 20-01-22",0,0,0,0,0,0,52.83111111111111,-1.3277777777777777
"EGOS","SHAWBURY","GBR","20-01-22","""2020-01-22T16:20:00.000Z""","EGOS 221620Z 35006KT 5000 BR FEW001 BKN004 08/08 Q1036 BECMG 4000 BR BKN002 YLO2 BECMG AMB 20-01-22",0,0,0,0,0,0,52.793625,-2.6679388888888886
"EGPA","KIRKWALL","GBR","20-01-22","""2020-01-22T16:20:00.000Z""","EGPA 221620Z 25011KT 9999 VCSH FEW029 BKN035 BKN042 09/08 Q1031 20-01-22",0,0,0,0,0,0,58.95805555555556,-2.9005555555555556
"EGPB","SUMBURGH","GBR","20-01-22","""2020-01-22T16:20:00.000Z""","EGPB 221620Z 24009KT 1200 R27/P1300 BR BKN002 08/08 Q1029 20-01-22",0,0,0,0,0,1,59.88138888888889,-1.2938888888888889
"EGPC","WICK","GBR","20-01-22","""2020-01-22T16:20:00.000Z""","EGPC 221620Z AUTO 28005KT 9999 FEW022/// BKN036/// 09/09 Q1032 20-01-22",0,0,0,0,0,0,58.45888888888889,-3.093055555555556
"EGPD","ABERDEEN/DYCE","GBR","20-01-22","""2020-01-22T16:20:00.000Z""","EGPD 221620Z AUTO VRB01KT 9999 SCT041 BKN048 11/09 Q1033 NOSIG 20-01-22",0,0,0,0,0,0,57.2025,-2.1980555555555554
"EGPN","DUNDEE","GBR","20-01-22","""2020-01-22T16:20:00.000Z""","EGPN 221620Z 28007KT CAVOK 08/07 Q1034 20-01-22",0,0,0,0,0,0,56.4525,-3.0258333333333334
"EGPM","SCATSTA","GBR","20-01-22","""2020-01-22T16:20:00.000Z""","EGPM 221620Z 23010KT 8000 -DZ BR FEW005 SCT007 BKN010 08/08 Q1028 20-01-22",0,0,0,0,0,0,60.43277777777777,-1.296111111111111
"EGPL","BENBECULA","GBR","20-01-22","""2020-01-22T16:20:00.000Z""","EGPL 221620Z 23011KT 9000 FEW006 SCT015 BKN045 09/08 Q1034 20-01-22",0,0,0,0,0,0,57.480555555555554,-7.363888888888889
"EGPK","PRESTWICK","GBR","20-01-22","""2020-01-22T16:20:00.000Z""","EGPK 221620Z 22008KT 6000 -DZ FEW003 SCT006 BKN010 09/08 Q1037 20-01-22",0,0,0,0,0,0,55.50944444444445,-4.594444444444444
"EGPI","ISLAY","GBR","20-01-22","""2020-01-22T16:20:00.000Z""","EGPI 221620Z 27004KT 0100 FG OVC001 09/09 Q1037 20-01-22",10,0,0,0,0,1,55.68333333333333,-6.259722222222222
"EGPH","EDINBURGH","GBR","20-01-22","""2020-01-22T16:20:00.000Z""","EGPH 221620Z 24008KT 9999 SCT010 BKN021 10/09 Q1035 20-01-22",0,0,0,0,0,0,55.95,-3.3725
"EGPF","GLASGOW","GBR","20-01-22","""2020-01-22T16:20:00.000Z""","EGPF 221620Z AUTO 23007KT 9999 FEW009 BKN015 OVC028 10/09 Q1036 20-01-22",0,0,0,0,0,0,55.871944444444445,-4.433055555555556
"EGPE","INVERNESS","GBR","20-01-22","""2020-01-22T16:20:00.000Z""","EGPE 221620Z 22007KT 9999 FEW012 SCT023 11/09 Q1034 20-01-22",0,0,0,0,0,0,57.5425,-4.0475
"EGPO","STORNOWAY","GBR","20-01-22","""2020-01-22T16:20:00.000Z""","EGPO 221620Z 24012KT 220V290 9999 FEW008 BKN044 09/08 Q1033 20-01-22",0,0,0,0,0,0,58.21555555555556,-6.3311111111111105
"EGPU","TIREE","GBR","20-01-22","""2020-01-22T16:20:00.000Z""","EGPU 221620Z 27007KT 4800 BR SCT004 SCT032 BKN045 10/09 Q1036 20-01-22",0,0,0,0,0,1,56.49916666666667,-6.8691666666666675
"EGQS","LOSSIEMOUTH","GBR","20-01-22","""2020-01-22T16:20:00.000Z""","EGQS 221620Z 27011KT 9999 5000SW -DZ SCT015 SCT040 BKN050 10/09 Q1034 TEMPO 9999 NSW FEW015 RMK WHT TEMPO BLU 20-01-22",0,0,0,0,0,0,57.705025000000006,-3.3391361111111113
"EGSC","CAMBRIDGE","GBR","20-01-22","""2020-01-22T16:20:00.000Z""","EGSC 221620Z VRB01KT 1500 BR BKN002 07/07 Q1037 20-01-22",0,0,0,0,0,1,52.205000000000005,0.175
"EGSH","NORWICH","GBR","20-01-22","""2020-01-22T16:20:00.000Z""","EGSH 221620Z 28001KT 1500 BR OVC009 08/07 Q1036 NOSIG 20-01-22",0,0,0,0,0,1,52.67583333333333,1.2827777777777778
"EGSS","LONDON STANSTED","GBR","20-01-22","""2020-01-22T16:20:00.000Z""","EGSS 221620Z 01002KT 1100 R04/P1500 BR BKN002 OVC007 07/07 Q1036 20-01-22",0,0,0,0,0,1,51.885,0.23500000000000001
"EGTC","CRANFIELD","GBR","20-01-22","""2020-01-22T16:20:00.000Z""","EGTC 221620Z 00000KT 0450 FG OVC002 08/08 Q1036 20-01-22",0,0,0,0,0,1,52.07222222222222,-0.6166666666666667
"EGQK","KINLOSS","GBR","20-01-22","""2020-01-22T15:50:00.000Z""","EGQK 221550Z AUTO 25007KT 9999 SCT026/// SCT038/// BKN050/// 11/09 Q1034 RERA 20-01-22",0,0,0,0,0,0,57.6494444,-3.5605556
"EGQL","LEUCHARS","GBR","20-01-22","""2020-01-22T15:50:00.000Z""","EGQL 221550Z 26010KT CAVOK 10/09 Q1034 RMK BLU 20-01-22",0,0,0,0,0,0,56.37266666666667,-2.8685
"EGQM","BOULMER  (MOD)","GBR","20-01-22","""2020-01-22T15:50:00.000Z""","EGQM 221550Z AUTO 18003KT 9999 BKN050/// 10/07 Q1035 20-01-22",0,0,0,0,0,0,55.42,-1.6008333
"EGUB","BENSON","GBR","20-01-22","""2020-01-22T16:21:00.000Z""","EGUB 221621Z 04003KT 2500 -DZ BKN004 OVC008 07/07 Q1036 TEMPO 1500 RMK YLO2 TEMPO AMB 20-01-22",0,0,0,0,0,1,51.61503888888889,-1.0958472222222222
"EGTE","EXETER","GBR","20-01-22","""2020-01-22T16:20:00.000Z""","EGTE 221620Z 06009KT 9999 FEW004 BKN012 08/07 Q1036 20-01-22",0,0,0,0,0,0,50.73429166666667,-3.413811111111111
"EGUW","WATTISHAM","GBR","20-01-22","""2020-01-22T16:20:00.000Z""","EGUW 221620Z 35002KT 1000 DZ BKN002 BKN011 06/06 Q1036 NOSIG RMK AMB AMB 20-01-22",0,0,3.3,0,0,1,52.127027777777776,0.9554138888888889
"EGVN","BRIZE NORTON","GBR","20-01-22","""2020-01-22T16:19:00.000Z""","EGVN 221619Z 04004KT 3500 BR SCT006 BKN009 08/07 Q1036 NOSIG RMK YLO1 YLO1 20-01-22",0,0,0,0,0,1,51.74998611111111,-1.5829472222222223
"EGUL","LAKENHEATH","GBR","20-01-22","""2020-01-22T16:16:00.000Z""","EGUL 221616Z 00000KT 1200 R24/P1500 BR VV003 06/06 A3060 RMK AO2A SLP366 T00640064 $ 20-01-22",0,0,0,0,0,0,52.40940277777778,0.5610111111111111
"EGVO","ODIHAM","GBR","20-01-22","""2020-01-22T15:50:00.000Z""","EGVO 221550Z 36004KT 1800 0600NE BR BKN002 06/06 Q1035 RMK RED 20-01-22",0,0,0,0,0,1,51.23419166666667,-0.9428083333333334
"EGVP","MIDDLE WALLOP","GBR","20-01-22","""2020-01-22T15:50:00.000Z""","EGVP 221550Z AUTO 07004KT 6000 // FEW003/// BKN011/// 07/07 Q1036 20-01-22",0,0,0,0,0,0,51.14935833333333,-1.57025
"EGWU","NORTHOLT","GBR","20-01-22","""2020-01-22T16:23:00.000Z""","EGWU 221623Z 05004KT 3400 -DZ FEW003 BKN006 OVC009 08/07 Q1036 TEMPO BKN003 RMK YLO1 TEMPO YLO2 20-01-22",0,0,0,0,0,1,51.55271388888889,-0.41959722222222223
"EGXW","WADDINGTON","GBR","20-01-22","""2020-01-22T16:22:00.000Z""","EGXW 221622Z 24003KT 2200 MIFG FEW038 BKN060 07/06 Q1036 TEMPO 0500 RED RMK YLO2 TEMPO RED 20-01-22",0,0,0,0,0,0,53.16616111111111,-0.523838888888889
"EGXC","CONINGSBY","GBR","20-01-22","""2020-01-22T16:20:00.000Z""","EGXC 221620Z 27001KT 6000 BR BKN048 08/07 Q1036 BECMG 3000 BR RMK WHT BECMG YLO1 20-01-22",0,0,0,0,0,0,53.09316666666667,-0.16611666666666666
"EGXE","LEEMING","GBR","20-01-22","""2020-01-22T15:50:00.000Z""","EGXE 221550Z 28007KT 9999 FEW018 10/07 Q1036 BECMG 4000 BR RMK BLU BECMG GRN 20-01-22",0,0,0,0,0,0,54.29252777777778,-1.5353944444444443
"EGXP","SCAMPTON","GBR","20-01-22","""2020-01-22T15:50:00.000Z""","EGXP 221550Z AUTO 23004KT 2900 // FEW042/// BKN060/// BKN090/// 06/06 Q1036 20-01-22",0,0,0,0,0,0,53.307944444444445,-0.5508194444444445
"EGXS","DONNA NOOK (MOD)","GBR","20-01-22","""2020-01-22T15:50:00.000Z""","EGXS 221550Z AUTO 19002KT 9999 // OVC045/// 09/08 Q1036 20-01-22",0,0,0,0,0,0,53.1486111,-0.6844444
"EGXT","WITTERING","GBR","20-01-22","""2020-01-22T15:50:00.000Z""","EGXT 221550Z AUTO 30002KT 4700 BR FEW010/// OVC045/// 08/07 Q1036 20-01-22",0,0,0,0,0,1,52.613055555555555,-0.4759055555555556
"EGXU","LINTON-ON-OUSE","GBR","20-01-22","""2020-01-22T15:50:00.000Z""","EGXU 221550Z AUTO 00000KT 9999 BKN080/// 13/08 Q1036 20-01-22",0,0,0,0,0,0,54.049391666666665,-1.2530972222222223
"EGXV","LECONFIELD","GBR","20-01-22","""2020-01-22T15:50:00.000Z""","EGXV 221550Z AUTO 24003KT 9999 FEW034/// BKN041/// 11/09 Q1035 20-01-22",0,0,0,0,0,0,53.8772222,-0.4355556
"EHKD","DEN HELDER/DE KOOY","NLD","20-01-22","""2020-01-22T16:43:00.000Z""","EHKD 221643Z AUTO 32003KT 290V360 6000 BR SCT007 BKN008 OVC009 08/07 Q1035 GRN 20-01-22",0,0,0,0,0,0,52.92361111111111,4.780555555555556
"EHGR","BREDA/GILZE-RIJEN","NLD","20-01-22","""2020-01-22T16:31:00.000Z""","EHGR 221631Z AUTO 23001KT 0900 FG OVC001 05/05 Q1036 RED 20-01-22",0,0,0,0,0,1,51.56737777777778,4.931836111111111
"EHEH","EINDHOVEN/EINDHOVEN","NLD","20-01-22","""2020-01-22T16:29:00.000Z""","EHEH 221629Z AUTO 25002KT 0700 R21/0450N FG OVC001 04/03 Q1036 RED 23003KT 0700 FG OVC001 TEMPO 1000 BR FEW001 BKN002 OVC004 RMK LVP CHARLIE 20-01-22",4,0,0,0,0,1,51.45,5.374444444444444
"EHGG","GRONINGEN/EELDE","NLD","20-01-22","""2020-01-22T16:25:00.000Z""","EHGG 221625Z AUTO 31002KT 9999 BKN031 06/05 Q1035 TEMPO BKN009 20-01-22",0,0,0,0,0,0,53.125,6.583333333333333
"EHDL","ARNHEM/DEELEN","NLD","20-01-22","""2020-01-22T16:25:00.000Z""","EHDL 221625Z AUTO 22005KT 170V250 0800 FG VV000 05/05 Q1035 REDZ AMB 20-01-22",0,0,0,0,0,0,52.05972777777777,5.871936111111111
"EHBK","MAASTRICHT/MAASTRICHT AACHEN","NLD","20-01-22","""2020-01-22T16:25:00.000Z""","EHBK 221625Z AUTO VRB02KT 1800 BR BKN002 BKN004 BKN009 02/02 Q1035 TEMPO 1200 BKN006 20-01-22",0,0,0,7.5,0,1,50.91583333333333,5.776944444444444
"EHAM","AMSTERDAM/SCHIPHOL","NLD","20-01-22","""2020-01-22T16:25:00.000Z""","EHAM 221625Z 19004KT 6000 BKN009 07/07 Q1036 NOSIG 20-01-22",0,0,0,0,0,0,52.308055555555555,4.764166666666667
"EGYM","MARHAM","GBR","20-01-22","""2020-01-22T16:21:00.000Z""","EGYM 221621Z 33001KT 1000 BR BKN002 07/07 Q1036 NOSIG RMK AMB AMB 20-01-22",0,0,0,0,0,1,52.648405555555556,0.5506722222222222
"EGYD","CRANWELL","GBR","20-01-22","""2020-01-22T15:50:00.000Z""","EGYD 221550Z 27003KT 5000 BR BKN048 08/07 Q1036 BECMG 3000 RMK WHT BECMG YLO1 20-01-22",0,0,0,0,0,0,53.02973333333333,-0.49275277777777776
"EGXZ","TOPCLIFFE","GBR","20-01-22","""2020-01-22T15:50:00.000Z""","EGXZ 221550Z AUTO 30005KT 9999 SCT080/// 12/08 Q1036 20-01-22",0,0,0,0,0,0,54.20562777777778,-1.381625
"EHVL","VLIEHORS","NLD","20-01-22","""2020-01-22T16:43:00.000Z""","EHVL 221643Z AUTO 26002KT 2000 -UP SCT001 OVC002 07/07 Q1035 RED 20-01-22",0,0,0,0,0,1,53.25,4.9166667
"EHLW","LEEUWARDEN/LEEUWARDEN","NLD","20-01-22","""2020-01-22T16:42:00.000Z""","EHLW 221642Z AUTO 30002KT 2200 -RA BKN001 BKN002 OVC006 07/07 Q1035 RED 20-01-22",0,0,0,0,0,1,53.22527222222222,5.752533333333333
"EHWO","BERGEN OP ZOOM/WOENSDRECHT","NLD","20-01-22","""2020-01-22T16:35:00.000Z""","EHWO 221635Z AUTO 28002KT 1200 BR SCT001 OVC002 04/04 Q1036 RED 20-01-22",0,0,0,0,0,1,51.449,4.342141666666667
"EHFS","VLISSINGEN","NLD","20-01-22","""2020-01-22T16:25:00.000Z""","EHFS 221625Z AUTO 27004KT 1000 BR OVC002/// 05/05 Q1036 20-01-22",0,0,0,0,0,1,51.4486111,3.6022222
"EHRD","ROTTERDAM/ROTTERDAM","NLD","20-01-22","""2020-01-22T16:25:00.000Z""","EHRD 221625Z AUTO VRB02KT 1600 BR OVC001 06/06 Q1036 NOSIG 20-01-22",0,0,0,0,0,1,51.956944444444446,4.437222222222222
"EHVK","UDEN/VOLKEL","NLD","20-01-22","""2020-01-22T16:25:00.000Z""","EHVK 221625Z AUTO 22001KT 0800 FG SCT000 OVC001 04/04 Q1036 RED 20-01-22",0,0,0,0,0,1,51.65720833333333,5.707825000000001
"EICK","CORK","IRL","20-01-22","""2020-01-22T16:30:00.000Z""","EICK 221630Z 32004KT 9999 BKN012 BKN016 10/08 Q1037 NOSIG 20-01-22",0,0,0,0,0,0,51.84138888888889,-8.49111111111111
"EIDL","DONEGAL","IRL","20-01-22","""2020-01-22T16:30:00.000Z""","EIDL 221630Z 22007KT 0600 FG VV002 09/09 Q1038 20-01-22",4,0,0,0,0,0,55.04416666666666,-8.341111111111111
"EIDW","DUBLIN","IRL","20-01-22","""2020-01-22T16:30:00.000Z""","EIDW 221630Z 00000KT 9999 FEW004 BKN060 10/08 Q1037 NOSIG 20-01-22",0,0,0,0,0,0,53.421388888888885,-6.27
"EIKN","IRELAND WEST","IRL","20-01-22","""2020-01-22T16:30:00.000Z""","EIKN 221630Z 30003KT 9000 FEW003 BKN043 09/09 Q1038 NOSIG 20-01-22",0,0,0,0,0,0,53.91027777777778,-8.81861111111111
"EIKY","KERRY","IRL","20-01-22","""2020-01-22T16:30:00.000Z""","EIKY 221630Z 34004KT 310V010 9999 BKN017 BKN020 10/08 Q1038 20-01-22",0,0,0,0,0,0,52.18083333333333,-9.523888888888889
"EIME","CASEMENT","IRL","20-01-22","""2020-01-22T16:30:00.000Z""","EIME 221630Z VRB02KT 9999 FEW005 BKN060 09/09 Q1037 20-01-22",0,0,0,0,0,0,53.30305555555555,-6.455277777777778
"EINN","SHANNON","IRL","20-01-22","""2020-01-22T16:30:00.000Z""","EINN 221630Z 32003KT 5000 BR FEW001 BKN060 09/08 Q1038 TEMPO 3000 20-01-22",0,0,0,0,0,0,52.70197777777778,-8.924816666666667
"EIWF","WATERFORD","IRL","20-01-22","""2020-01-22T16:30:00.000Z""","EIWF 221630Z 36003KT 9999 SCT008 10/09 Q1037 R03/1///// 20-01-22",0,0,0,0,0,0,52.18722222222222,-7.086944444444444
"EKAH","AARHUS","DNK","20-01-22","""2020-01-22T16:20:00.000Z""","EKAH 221620Z AUTO 25003KT 9999NDV NCD 03/01 Q1031 20-01-22",0,0,0,0,0,0,56.300016666666664,10.619008333333333
"EISG","SLIGO","IRL","20-01-22","""2020-01-22T16:00:00.000Z""","EISG 221600Z VRB01KT 8000 OVC049 09/09 Q1038 20-01-22",0,0,0,0,0,0,54.280277777777776,-8.599166666666667
"EKBI","BILLUND","DNK","20-01-22","""2020-01-22T16:20:00.000Z""","EKBI 221620Z AUTO 31005KT 9999 NCD 04/03 Q1032 20-01-22",0,0,0,0,0,0,55.740322222222225,9.151777777777777
"EKCH","KOBENHAVN/KASTRUP","DNK","20-01-22","""2020-01-22T16:20:00.000Z""","EKCH 221620Z AUTO 33007KT 9999 NCD 06/02 Q1030 NOSIG 20-01-22",0,0,0,0,0,0,55.617916666666666,12.655972222222223
"EKEB","ESBJERG","DNK","20-01-22","""2020-01-22T16:20:00.000Z""","EKEB 221620Z AUTO 30003KT 9999 NCD 05/04 Q1032 20-01-22",0,0,0,0,0,0,55.52594166666667,8.553402777777778
"EKKA","KARUP (MIL)","DNK","20-01-22","""2020-01-22T16:20:00.000Z""","EKKA 221620Z AUTO 27005KT 9999 NCD 04/03 Q1031 20-01-22",0,0,0,0,0,0,56.29745833333333,9.124627777777778
"EKSB","SONDERBORG","DNK","20-01-22","""2020-01-22T16:21:00.000Z""","EKSB 221621Z 29006KT CAVOK 06/04 Q1032 20-01-22",0,0,0,0,0,0,54.96436666666667,9.791730555555555
"EKRK","KOBENHAVN/ROSKILDE","DNK","20-01-22","""2020-01-22T16:20:00.000Z""","EKRK 221620Z AUTO 31006KT 9999 NCD 04/02 Q1030 20-01-22",0,0,0,0,0,0,55.58556666666667,12.131427777777779
"EKRN","BORNHOLM/RONNE","DNK","20-01-22","""2020-01-22T16:20:00.000Z""","EKRN 221620Z AUTO 33005KT 9999 // NCD 05/00 Q1028 20-01-22",0,0,0,0,0,0,55.063266666666664,14.759558333333333
"EKSP","VOJENS/SKRYDSTRUP (MIL)","DNK","20-01-22","""2020-01-22T16:20:00.000Z""","EKSP 221620Z 29005KT 9999 FEW021 SCT230 05/03 Q1032 NOSIG 20-01-22",0,0,0,0,0,0,55.22555277777778,9.263930555555556
"EKVD","KOLDING/VAMDRUP","DNK","20-01-22","""2020-01-22T16:20:00.000Z""","EKVD 221620Z AUTO 30005KT //// ///////// 05/04 Q1032 20-01-22",0,0,0,0,0,0,55.43628333333333,9.330925
"EKVG","VAGAR","DNK","20-01-22","""2020-01-22T16:20:00.000Z""","EKVG 221620Z AUTO 22018KT 9999 BKN010/// OVC020/// 08/07 Q1021 20-01-22",0,2,0,0,0,0,62.063627777777775,-7.2772194444444445
"EKYT","AALBORG (CIV/MIL)","DNK","20-01-22","""2020-01-22T16:20:00.000Z""","EKYT 221620Z AUTO 26002KT 9999 NCD 03/02 Q1030 20-01-22",0,0,0,0,0,0,57.09278888888889,9.849163888888889
"ELLX","LUXEMBOURG/LUXEMBOURG","LUX","20-01-22","""2020-01-22T16:20:00.000Z""","ELLX 221620Z 05009KT CAVOK 03/M04 Q1033 R99/19//95 NOSIG 20-01-22",0,0,0,0,0,0,49.623333333333335,6.204444444444444
"EKOD","ODENSE","DNK","20-01-22","""2020-01-22T15:50:00.000Z""","EKOD 221550Z 29006KT CAVOK 04/03 Q1031 20-01-22",0,0,0,0,0,0,55.47666388888889,10.330933333333332
"ENAL","ALESUND/VIGRA","NOR","20-01-22","""2020-01-22T16:20:00.000Z""","ENAL 221620Z 20010KT 9999 FEW033 SCT080 04/M01 Q1028 20-01-22",0,0,0,0,0,0,62.5625,6.119722222222221
"ENAN","ANDOYA/ANDENES","NOR","20-01-22","""2020-01-22T16:20:00.000Z""","ENAN 221620Z 34020KT 9999 VCSH FEW026 BKN042 01/M02 Q1013 20-01-22",0,2,0,0,0,0,69.2925,16.144166666666667
"ENBN","BRONNOYSUND/BRONNOY","NOR","20-01-22","""2020-01-22T16:20:00.000Z""","ENBN 221620Z 33008KT 9999 FEW015CB SCT028 03/M00 Q1021 20-01-22",0,0,0,0,1.3,0,65.46111111111111,12.2175
"ENBO","BODO","NOR","20-01-22","""2020-01-22T16:20:00.000Z""","ENBO 221620Z 29020G30KT 6000 -SHSN FEW006 SCT012CB BKN035 01/M00 Q1018 RESHSNGS TEMPO 32012KT NSW FEW015 BKN050 20-01-22",0,4,10,10,3.3,0,67.26916666666666,14.365277777777777
"ENBR","BERGEN/FLESLAND","NOR","20-01-22","""2020-01-22T16:20:00.000Z""","ENBR 221620Z 12003KT CAVOK 02/02 Q1032 NOSIG RMK WIND 1200FT 16010KT 20-01-22",0,0,0,2.5,0,0,60.29361111111111,5.218055555555556
"ENBS","BATSFJORD","NOR","20-01-22","""2020-01-22T16:20:00.000Z""","ENBS 221620Z 33043G54KT 7000 -SN -BLSN VV016 M07/M08 Q0996 RESN 20-01-22",0,10,10,7.5,0,0,70.60027777777778,29.6925
"ENCN","KRISTIANSAND/KJEVIK","NOR","20-01-22","""2020-01-22T16:20:00.000Z""","ENCN 221620Z 03003KT 330V050 CAVOK 01/M04 Q1030 20-01-22",0,0,0,0,0,0,58.20388888888889,8.085
"ENAT","ALTA","NOR","20-01-22","""2020-01-22T15:50:00.000Z""","ENAT 221550Z 34027KT 3500 SHSN VV020 M02/M06 Q1007 RMK WIND 700FT 35031G41KT 20-01-22",0,4,10,10,0,0,69.97611111111111,23.371666666666666
"ENBL","FORDE/BRINGELAND","NOR","20-01-22","""2020-01-22T15:50:00.000Z""","ENBL 221550Z VRB02KT 9999 FEW015 M00/M02 Q1030 20-01-22",0,0,0,2.5,0,0,61.39111111111111,5.756944444444445
"ENDU","BARDUFOSS","NOR","20-01-22","""2020-01-22T16:30:00.000Z""","ENDU 221630Z 29013KT 0600 R10/1400D R28/1500D SHSN VV004 M01/M02 Q1012 TEMPO 29015G25KT 9999 NSW BKN025 RMK WIND 1100FT SPECI 29014KT WIND 2200FT 30022KT 20-01-22",4,0,10,10,0,0,69.05583333333333,18.540277777777778
"ENEV","HARSTAD/NARVIK/EVENES","NOR","20-01-22","""2020-01-22T16:20:00.000Z""","ENEV 221620Z 04005KT 8000 -SN BKN028 M02/M03 Q1014 RMK WIND 1400FT 28015KT 20-01-22",0,0,6.7,7.5,0,0,68.4888888888889,16.678333333333335
"ENFB","STATFJORD B","NOR","20-01-22","""2020-01-22T16:20:00.000Z""","ENFB 221620Z AUTO 20026KT 9999NDV SCT018/// BKN038/// BKN076/// 07/04 Q1028 W///S5 20-01-22",0,4,0,0,0,0,59.8955553333333,10.6172226666667
"ENFL","FLORO","NOR","20-01-22","""2020-01-22T16:20:00.000Z""","ENFL 221620Z 10009KT 9999 FEW030 BKN080 03/01 Q1031 20-01-22",0,0,0,0,0,0,61.58361111111111,5.0247222222222225
"ENGM","OSLO/GARDERMOEN","NOR","20-01-22","""2020-01-22T16:20:00.000Z""","ENGM 221620Z 34003KT CAVOK 01/M08 Q1027 NOSIG 20-01-22",0,0,0,0,0,0,60.20277777777778,11.08388888888889
"ENHD","HAUGESUND/KARMOY","NOR","20-01-22","""2020-01-22T16:20:00.000Z""","ENHD 221620Z 18002KT CAVOK 02/01 Q1032 20-01-22",0,0,0,2.5,0,0,59.343333333333334,5.2125
"ENHE","HEIDRUN TLP","NOR","20-01-22","""2020-01-22T16:20:00.000Z""","ENHE 221620Z 26017KT 9999 FEW015 BKN025 03/M02 Q1022 W///S6 20-01-22",0,2,0,0,0,0,65.325,2.3266667
"ENLK","LEKNES","NOR","20-01-22","""2020-01-22T16:20:00.000Z""","ENLK 221620Z 29015G31KT 250V330 8000 -SHSN FEW008 SCT015CB BKN025 01/M01 Q1016 20-01-22",0,2,10,10,3.3,0,68.1525,13.609444444444444
"ENLA","ULA","NOR","20-01-22","""2020-01-22T16:20:00.000Z""","ENLA 221620Z AUTO 24011KT 180V260 0800NDV FG NCD 07/07 Q1032 W///S4 20-01-22",0,0,0,0,0,0,59.1108333,2.8458333
"ENKR","KIRKENES/HOYBUKTMOEN","NOR","20-01-22","""2020-01-22T16:20:00.000Z""","ENKR 221620Z 33025KT 3000 -SN BLSN FEW010 BKN020 M05/M07 Q0999 RMK WIND 731FT 31031KT 20-01-22",0,4,10,10,0,1,69.72500000000001,29.887777777777778
"ENKB","KRISTIANSUND/KVERNBERGET","NOR","20-01-22","""2020-01-22T16:20:00.000Z""","ENKB 221620Z 23008KT 190V260 9999 SCT032 BKN044 04/M02 Q1027 RMK WIND 745FT 23015KT 20-01-22",0,0,0,0,0,0,63.11194444444445,7.826111111111111
"ENHK","HASVIK","NOR","20-01-22","""2020-01-22T16:20:00.000Z""","ENHK 221620Z 35013KT 8000 -SHSN DRSN FEW021 BKN033 M02/M07 Q1009 20-01-22",0,0,10,10,0,0,70.48666666666666,22.139722222222222
"ENHF","HAMMERFEST","NOR","20-01-22","""2020-01-22T16:20:00.000Z""","ENHF 221620Z 33023KT 9999 -SHSN DRSN FEW008 SCT022 BKN042 M05/M08 Q1007 RESHSN RMK WIND 1254FT 32036KT 20-01-22",0,4,10,10,0,0,70.67972222222222,23.66861111111111
"ENMH","MEHAMN","NOR","20-01-22","""2020-01-22T16:20:00.000Z""","ENMH 221620Z 32027G38KT 7000 -SHSN SCT018 BKN037 M04/M08 Q1002 20-01-22",0,6,10,10,0,0,71.02972222222222,27.826666666666668
"ENHV","HONNINGSVAG/VALAN","NOR","20-01-22","""2020-01-22T15:50:00.000Z""","ENHV 221550Z 32024KT 5000 BLSN FEW015 SCT032 BKN050 M04/M08 Q1004 20-01-22",0,4,10,10,0,0,71.00972222222222,25.983611111111113
"ENML","MOLDE/ARO","NOR","20-01-22","""2020-01-22T16:20:00.000Z""","ENML 221620Z 23014KT 9999 FEW020 BKN045 04/M01 Q1028 20-01-22",0,0,0,0,0,0,62.74472222222222,7.2625
"ENMS","MOSJOEN/KJAERSTAD","NOR","20-01-22","""2020-01-22T16:20:00.000Z""","ENMS 221620Z 03003KT 350V090 9000 -SHSN FEW012 SCT024 BKN045 01/M01 Q1020 RMK WIND 412FT VRB03KT 20-01-22",0,0,10,10,0,0,65.78361111111111,13.215277777777777
"ENNA","LAKSELV/BANAK","NOR","20-01-22","""2020-01-22T16:20:00.000Z""","ENNA 221620Z 32018KT 9999 SCT043 M05/M09 Q1006 RMK WIND 1800FT 32031KT 20-01-22",0,2,0,0,0,0,70.06666666666666,24.973888888888887
"ENNM","NAMSOS","NOR","20-01-22","""2020-01-22T16:20:00.000Z""","ENNM 221620Z 25011KT 9999 FEW021 BKN032 02/01 Q1023 20-01-22",0,0,0,2.5,0,0,64.47222222222223,11.57861111111111
"ENOA","OSEBERG A","NOR","20-01-22","""2020-01-22T16:20:00.000Z""","ENOA 221620Z 21020KT 9999 FEW018 SCT055 BKN080 07/04 Q1030 W///S4 20-01-22",0,2,0,0,0,0,60.4916667,2.8252778
"ENOL","ORLAND","NOR","20-01-22","""2020-01-22T16:20:00.000Z""","ENOL 221620Z 28018KT 9999 BKN030 04/M02 Q1026 NOSIG 20-01-22",0,2,0,0,0,0,63.69916666666666,9.60388888888889
"ENOV","ORSTA-VOLDA/HOVDEN","NOR","20-01-22","""2020-01-22T16:20:00.000Z""","ENOV 221620Z VRB03KT CAVOK 04/M04 Q1029 RMK WIND 2175FT 15018KT 20-01-22",0,0,0,0,0,0,62.18,6.074166666666667
"ENQA","TROLL A","NOR","20-01-22","""2020-01-22T16:20:00.000Z""","ENQA 221620Z AUTO 20017KT 9999NDV BKN023/// BKN086/// 07/03 Q1030 W06/S5 20-01-22",0,2,0,0,0,0,60.645,3.7247222
"ENSB","SVALBARD/LONGYEAR","NOR","20-01-22","""2020-01-22T16:20:00.000Z""","ENSB 221620Z 12007KT CAVOK M18/M22 Q1013 RMK WIND 1400FT 05003KT 20-01-22",0,0,0,0,0,0,78.2461111111111,15.465555555555556
"ENRY","MOSS/RYGGE","NOR","20-01-22","""2020-01-22T16:20:00.000Z""","ENRY 221620Z 29004KT CAVOK 04/M06 Q1029 20-01-22",0,0,0,0,0,0,59.37888888888889,10.785555555555556
"ENRO","ROROS","NOR","20-01-22","""2020-01-22T16:20:00.000Z""","ENRO 221620Z 20007KT 150V250 9000 -SHSN FEW003 BKN014 M03/M03 Q1024 20-01-22",0,0,10,10,0,0,62.57888888888889,11.345
"ENRM","RORVIK/RYUM","NOR","20-01-22","""2020-01-22T16:20:00.000Z""","ENRM 221620Z VRB03KT 9999 VCSH FEW012TCU SCT019 BKN048 02/01 Q1023 20-01-22",0,0,0,2.5,2,0,64.83833333333332,11.14611111111111
"ENQC","TROLL C","NOR","20-01-22","""2020-01-22T16:20:00.000Z""","ENQC 221620Z AUTO 19017KT 9999NDV BKN020/// 08/03 Q1029 W///S5 20-01-22",0,2,0,0,0,0,60.8858333,3.6097222
"ENRA","MO I RANA/ROSSVOLL","NOR","20-01-22","""2020-01-22T15:50:00.000Z""","ENRA 221550Z 28007KT 9999 -SHSN SCT027 01/M03 Q1018 20-01-22",0,0,10,10,0,0,66.36388888888888,14.301388888888889
"ENRS","ROST","NOR","20-01-22","""2020-01-22T15:50:00.000Z""","ENRS 221550Z 27024KT 9999 6000S VCSH FEW016CB SCT033 BKN044 03/MM Q1018 20-01-22",0,4,0,0,4,0,67.52777777777777,12.103333333333333
"ENSD","SANDANE/ANDA","NOR","20-01-22","""2020-01-22T15:50:00.000Z""","ENSD 221550Z 15005KT 9999 FEW046 02/M01 Q1031 RMK WIND 1138FT 10002KT 20-01-22",0,0,0,0,0,0,61.830000000000005,6.105833333333333
"ENSF","STATFJORD A","NOR","20-01-22","""2020-01-22T16:20:00.000Z""","ENSF 221620Z AUTO 21026KT 9999NDV SCT017/// BKN042/// ///// Q//// W///S5 20-01-22",0,4,0,0,0,0,61.2166667,1.8333333
"ENSG","SOGNDAL/HAUKASEN","NOR","20-01-22","""2020-01-22T16:20:00.000Z""","ENSG 221620Z 24006KT 9999 FEW035 M02/M05 Q1029 RMK WIND 3806FT 25018KT 20-01-22",0,0,0,0,0,0,61.15611111111111,7.137777777777778
"ENSH","SVOLVAER/HELLE","NOR","20-01-22","""2020-01-22T16:20:00.000Z""","ENSH 221620Z 26008KT 220V310 9000 3000N -SHSN VV009 01/M02 Q1016 RMK WIND 150FT 28013G26KT 260V310 20-01-22",0,0,10,10,0,0,68.24333333333334,14.669166666666666
"ENSK","STOKMARKNES/SKAGEN","NOR","20-01-22","""2020-01-22T16:20:00.000Z""","ENSK 221620Z 27010KT 9999 -SHSN FEW009 SCT020 BKN050 M01/M01 Q1015 20-01-22",0,0,10,10,0,0,68.58083333333333,15.026111111111112
"ENSL","SLEIPNER A","NOR","20-01-22","""2020-01-22T16:20:00.000Z""","ENSL 221620Z AUTO 20015KT 0450NDV -SHRA FG NCD 08/07 Q1032 W06/S4 20-01-22",0,0,3.3,0,0,0,58.3666667,1.9069444
"ENSO","STORD/SORSTOKKEN","NOR","20-01-22","""2020-01-22T16:20:00.000Z""","ENSO 221620Z 14005KT 9999 FEW028 04/02 Q1033 20-01-22",0,0,0,0,0,0,59.79277777777778,5.339722222222222
"ENSR","SORKJOSEN","NOR","20-01-22","""2020-01-22T16:20:00.000Z""","ENSR 221620Z 35014KT 1500 SHSN VV007 M02/M03 Q1010 RMK WIND 1119FT 33016KT 20-01-22",0,0,10,10,0,0,69.78666666666666,20.959722222222222
"ENSS","VARDO/SVARTNES","NOR","20-01-22","""2020-01-22T16:20:00.000Z""","ENSS 221620Z 32031G43KT 7000 -BLSN VCSH FEW009 SCT032 BKN042 M04/M06 Q0996 RMK WIND 500FT 32044G54KT RESHSN 20-01-22",0,10,10,0,0,0,70.35527777777777,31.045
"EPBY","BYDGOSZCZ/SZWEDEROWO","POL","20-01-22","""2020-01-22T16:30:00.000Z""","EPBY 221630Z 31008KT 9999 FEW025 04/01 Q1026 20-01-22",0,0,0,0,0,0,53.09666666666667,17.977777777777778
"EPGD","GDANSK IM LECHA WALESY","POL","20-01-22","""2020-01-22T16:30:00.000Z""","EPGD 221630Z 31012KT CAVOK 03/M02 Q1024 20-01-22",0,0,0,0,0,0,54.3775,18.46611111111111
"EPKK","KRAKOW/BALICE","POL","20-01-22","""2020-01-22T16:30:00.000Z""","EPKK 221630Z 24011KT 3500 -SN BR BKN006 00/M01 Q1027 20-01-22",0,0,6.7,7.5,0,1,50.07777777777778,19.784722222222225
"ENST","SANDNESSJOEN/STOKKA","NOR","20-01-22","""2020-01-22T16:20:00.000Z""","ENST 221620Z VRB02KT 9999 VCSH FEW012CB FEW020 SCT035 02/M01 Q1021 RMK WIND 300FT 09004KT 20-01-22",0,0,0,0,4,0,65.95971388888888,12.472216666666666
"ENTC","TROMSO/LANGNES","NOR","20-01-22","""2020-01-22T16:20:00.000Z""","ENTC 221620Z 20008KT 3000 SHSN BKN006 OVC011 M02/M02 Q1011 TEMPO 1000 BKN020 RMK WIND 2600FT /////KT 20-01-22",0,0,10,10,0,1,69.68138888888889,18.91777777777778
"ENTO","SANDEFJORD/TORP","NOR","20-01-22","""2020-01-22T16:20:00.000Z""","ENTO 221620Z 26003KT CAVOK 02/M05 Q1028 NOSIG 20-01-22",0,0,0,0,0,0,59.18666666666666,10.258611111111112
"ENVA","TRONDHEIM/VAERNES","NOR","20-01-22","""2020-01-22T16:20:00.000Z""","ENVA 221620Z 28020KT 9999 VCSH SCT029 BKN046 03/M02 Q1026 NOSIG RMK WIND 670FT 27014KT 20-01-22",0,2,0,0,0,0,63.4575,10.924166666666666
"ENVD","VADSO","NOR","20-01-22","""2020-01-22T16:20:00.000Z""","ENVD 221620Z 31022KT 1000 SHSN DRSN VV010 M06/M07 Q0999 20-01-22",0,4,10,10,0,0,70.06527777777778,29.84472222222222
"ENZV","STAVANGER/SOLA","NOR","20-01-22","""2020-01-22T16:20:00.000Z""","ENZV 221620Z VRB03KT CAVOK 04/02 Q1032 NOSIG 20-01-22",0,0,0,0,0,0,58.876666666666665,5.637777777777777
"EPKT","KATOWICE/PYRZOWICE","POL","20-01-22","""2020-01-22T16:30:00.000Z""","EPKT 221630Z 28011KT 6000 OVC003 01/00 Q1026 20-01-22",0,0,0,2.5,0,0,50.47416666666667,19.08
"EPWR","WROCLAW/STRACHOWICE","POL","20-01-22","""2020-01-22T16:30:00.000Z""","EPWR 221630Z 29013KT 7000 -DZ BKN005 02/01 Q1030 20-01-22",0,0,0,2.5,0,0,51.10277777777778,16.885833333333334
"EPWA","CHOPINA W WARSZAWIE","POL","20-01-22","""2020-01-22T16:30:00.000Z""","EPWA 221630Z 31019G29KT 9999 -SHRA FEW005 FEW015CB BKN040 04/01 Q1023 RETS NOSIG 20-01-22",0,4,3.3,0,2.7,0,52.16583333333333,20.96722222222222
"EPSC","SZCZECIN/GOLENIOW","POL","20-01-22","""2020-01-22T16:30:00.000Z""","EPSC 221630Z 30007KT 9999 OVC012 05/03 Q1029 20-01-22",0,0,0,0,0,0,53.584722222222226,14.902222222222223
"EPRZ","RZESZOW/JASIONKA","POL","20-01-22","""2020-01-22T16:30:00.000Z""","EPRZ 221630Z 27015KT 7000 -RASN BKN007 01/M00 Q1023 20-01-22",0,0,10,7.5,0,0,50.11,22.01888888888889
"EPPO","POZNAN/LAWICA","POL","20-01-22","""2020-01-22T16:30:00.000Z""","EPPO 221630Z 29010KT 9999 FEW032 03/02 Q1028 20-01-22",0,0,0,0,0,0,52.42111111111111,16.82638888888889
"EPMO","WARSZAWA/MODLIN","POL","20-01-22","""2020-01-22T16:30:00.000Z""","EPMO 221630Z 31007KT CAVOK 02/01 Q1023 20-01-22",0,0,0,2.5,0,0,52.45111111111111,20.651944444444442
"EPLL","LODZ/LUBLINEK","POL","20-01-22","""2020-01-22T16:30:00.000Z""","EPLL 221630Z 28011KT 9999 BKN011 03/02 Q1025 20-01-22",0,0,0,0,0,0,51.721944444444446,19.398055555555555
"EPLB","LUBLIN","POL","20-01-22","""2020-01-22T16:30:00.000Z""","EPLB 221630Z 28015KT 9999 -SHRA FEW016 BKN021CB 03/03 Q1020 20-01-22",0,0,3.3,2.5,4,0,51.24027777777778,22.71361111111111
"EPZG","ZIELONA GORA/BABIMOST","POL","20-01-22","""2020-01-22T16:30:00.000Z""","EPZG 221630Z 24006KT 4700 BR BKN032 04/03 Q1030 20-01-22",0,0,0,0,0,0,52.13861111111111,15.79861111111111
"ESCF","LINKOPING/MALMEN","SWE","20-01-22","""2020-01-22T16:20:00.000Z""","ESCF 221620Z 31009KT CAVOK 02/M04 Q1026 20-01-22",0,0,0,0,0,0,58.397777777777776,15.522777777777778
"ESDF","RONNEBY","SWE","20-01-22","""2020-01-22T16:20:00.000Z""","ESDF 221620Z 33004KT CAVOK 04/M04 Q1027 20-01-22",0,0,0,0,0,0,56.266666666666666,15.265
"ESGG","GOTEBORG/LANDVETTER","SWE","20-01-22","""2020-01-22T16:20:00.000Z""","ESGG 221620Z VRB02KT CAVOK 01/M05 Q1029 R03/19//95 20-01-22",0,0,0,0,0,0,57.66,12.29111111111111
"ESGJ","JONKOPING","SWE","20-01-22","""2020-01-22T16:20:00.000Z""","ESGJ 221620Z 31005KT CAVOK 01/M05 Q1027 20-01-22",0,0,0,0,0,0,57.75833333333333,14.069166666666666
"ESGR","SKOVDE","SWE","20-01-22","""2020-01-22T16:20:00.000Z""","ESGR 221620Z AUTO 31004KT 9999 NCD 03/M05 Q1027 20-01-22",0,0,0,0,0,0,58.45611111111111,13.972777777777777
"ESGT","TROLLHATTAN-VANERSBORG","SWE","20-01-22","""2020-01-22T16:20:00.000Z""","ESGT 221620Z 28003KT CAVOK 02/M04 Q1029 20-01-22",0,0,0,0,0,0,58.31805555555556,12.345
"ESIB","SATENAS","SWE","20-01-22","""2020-01-22T16:20:00.000Z""","ESIB 221620Z AUTO 31004KT 9999 NCD 02/M03 Q1028 20-01-22",0,0,0,0,0,0,58.428469444444445,12.711236111111111
"ESKN","STOCKHOLM/SKAVSTA","SWE","20-01-22","""2020-01-22T16:20:00.000Z""","ESKN 221620Z 30010KT CAVOK 02/M04 Q1024 R26/19//95 20-01-22",0,0,0,0,0,0,58.78861111111111,16.90361111111111
"ESTA","ANGELHOLM","SWE","20-01-22","""2020-01-22T16:20:00.000Z""","ESTA 221620Z 33007KT CAVOK 02/M01 Q1029 20-01-22",0,0,0,0,0,0,56.29111111111111,12.855
"ESMK","KRISTIANSTAD","SWE","20-01-22","""2020-01-22T16:20:00.000Z""","ESMK 221620Z 30007KT CAVOK 05/M04 Q1028 20-01-22",0,0,0,0,0,0,55.92055555555555,14.085277777777778
"ESNN","SUNDSVALL-TIMRA","SWE","20-01-22","""2020-01-22T16:20:00.000Z""","ESNN 221620Z 31011KT CAVOK 03/M03 Q1019 R16/09//74 20-01-22",0,0,0,0,0,0,62.529444444444444,17.442777777777778
"ESNL","LYCKSELE","SWE","20-01-22","""2020-01-22T16:20:00.000Z""","ESNL 221620Z AUTO 30008KT 9999 -SN FEW022/// BKN039/// 00/M04 Q1015 REUP 20-01-22",0,0,6.7,7.5,0,0,64.5475,18.717777777777776
"ESNK","KRAMFORS-SOLLEFTEA","SWE","20-01-22","""2020-01-22T16:20:00.000Z""","ESNK 221620Z AUTO 33005KT 9999 NCD 02/M04 Q1018 20-01-22",0,0,0,0,0,0,63.04861111111111,17.76888888888889
"ESNG","GALLIVARE","SWE","20-01-22","""2020-01-22T16:20:00.000Z""","ESNG 221620Z 27006KT CAVOK M08/M12 Q1010 20-01-22",0,0,0,0,0,0,67.13305555555554,20.81222222222222
"ESMX","VAXJO/KRONOBERG","SWE","20-01-22","""2020-01-22T16:20:00.000Z""","ESMX 221620Z 31006KT CAVOK 02/M05 Q1027 20-01-22",0,0,0,0,0,0,56.930277777777775,14.72888888888889
"ESMT","HALMSTAD","SWE","20-01-22","""2020-01-22T16:20:00.000Z""","ESMT 221620Z 29004KT CAVOK 04/M05 Q1029 20-01-22",0,0,0,0,0,0,56.69083333333333,12.82
"ESMS","MALMO","SWE","20-01-22","""2020-01-22T16:20:00.000Z""","ESMS 221620Z 30006KT CAVOK 03/01 Q1029 R17/19//95 20-01-22",0,0,0,0,0,0,55.54833333333333,13.353333333333333
"ESMQ","KALMAR","SWE","20-01-22","""2020-01-22T16:20:00.000Z""","ESMQ 221620Z 33008KT CAVOK 02/M04 Q1026 20-01-22",0,0,0,0,0,0,56.68555555555555,16.2875
"ESNO","ORNSKOLDSVIK","SWE","20-01-22","""2020-01-22T16:20:00.000Z""","ESNO 221620Z 31011KT 9999 SCT047 01/M05 Q1016 20-01-22",0,0,0,0,0,0,63.407777777777774,18.9925
"ESNQ","KIRUNA","SWE","20-01-22","""2020-01-22T16:20:00.000Z""","ESNQ 221620Z 28014KT CAVOK M04/M09 Q1007 20-01-22",0,0,0,0,0,0,67.82126111111111,20.335591666666666
"ESPA","LULEA/KALLAX","SWE","20-01-22","""2020-01-22T16:20:00.000Z""","ESPA 221620Z 32008KT CAVOK M03/M08 Q1013 20-01-22",0,0,0,0,0,0,65.54333333333334,22.12361111111111
"ESOW","STOCKHOLM/VASTERAS","SWE","20-01-22","""2020-01-22T16:20:00.000Z""","ESOW 221620Z AUTO 29008KT 260V320 9999 NCD 03/M05 Q1024 20-01-22",0,0,0,0,0,0,59.589444444444446,16.63361111111111
"ESOK","KARLSTAD","SWE","20-01-22","""2020-01-22T16:20:00.000Z""","ESOK 221620Z 26004KT CAVOK 02/M06 Q1027 20-01-22",0,0,0,0,0,0,59.44472222222222,13.3375
"ESOE","OREBRO","SWE","20-01-22","""2020-01-22T16:20:00.000Z""","ESOE 221620Z 26008KT CAVOK 03/M05 Q1026 20-01-22",0,0,0,0,0,0,59.22805555555556,15.04
"ESNZ","ARE OSTERSUND","SWE","20-01-22","""2020-01-22T16:20:00.000Z""","ESNZ 221620Z 30019KT 9999 FEW023 BKN031 01/M02 Q1020 20-01-22",0,2,0,0,0,0,63.19444444444444,14.500277777777777
"ESNX","ARVIDSJAUR","SWE","20-01-22","""2020-01-22T16:20:00.000Z""","ESNX 221620Z 30010KT CAVOK M05/M09 Q1013 20-01-22",0,0,0,0,0,0,65.59027777777777,19.281944444444445
"ESNU","UMEA","SWE","20-01-22","""2020-01-22T16:20:00.000Z""","ESNU 221620Z 32008KT CAVOK 01/M04 Q1015 R14/71//65 20-01-22",0,0,0,0,0,0,63.793055555555554,20.279999999999998
"ESNS","SKELLEFTEA","SWE","20-01-22","""2020-01-22T16:20:00.000Z""","ESNS 221620Z 27004KT 9999 FEW038 M01/M06 Q1015 20-01-22",0,0,0,0,0,0,64.62472222222222,21.076944444444443
"ESPE","VIDSEL","SWE","20-01-22","""2020-01-22T16:20:00.000Z""","ESPE 221620Z AUTO 27005KT 9999 NCD M05/M10 Q1013 20-01-22",0,0,0,0,0,0,65.87527777777777,20.15
"ESSA","STOCKHOLM/ARLANDA","SWE","20-01-22","""2020-01-22T16:20:00.000Z""","ESSA 221620Z 30009KT CAVOK 01/M05 Q1022 R01L/19//95 R08/19//95 R01R/19//95 NOSIG 20-01-22",0,0,0,0,0,0,59.651944444444446,17.91861111111111
"ESSB","STOCKHOLM/BROMMA","SWE","20-01-22","""2020-01-22T16:20:00.000Z""","ESSB 221620Z 29007KT 9999 FEW042 03/M03 Q1023 R12/09//89 20-01-22",0,0,0,0,0,0,59.35444444444445,17.942222222222224
"ESSD","BORLANGE","SWE","20-01-22","""2020-01-22T16:20:00.000Z""","ESSD 221620Z 28011KT CAVOK 01/M05 Q1024 20-01-22",0,0,0,0,0,0,60.42222222222222,15.515
"ESSL","LINKOPING/SAAB","SWE","20-01-22","""2020-01-22T16:20:00.000Z""","ESSL 221620Z 32006KT CAVOK 02/M04 Q1026 R29/09//95 20-01-22",0,0,0,0,0,0,58.406388888888884,15.679722222222221
"ESSP","NORRKOPING/KUNGSANGEN","SWE","20-01-22","""2020-01-22T16:20:00.000Z""","ESSP 221620Z 29011KT CAVOK 02/M05 Q1025 R27/09//95 20-01-22",0,0,0,0,0,0,58.586111111111116,16.24638888888889
"ESSV","VISBY","SWE","20-01-22","""2020-01-22T16:20:00.000Z""","ESSV 221620Z 33016KT CAVOK 04/M02 Q1023 R03/09//95 20-01-22",0,2,0,0,0,0,57.66277777777778,18.34611111111111
"ESTL","LJUNGBYHED","SWE","20-01-22","""2020-01-22T16:20:00.000Z""","ESTL 221620Z AUTO 30005KT 9999 NCD 01/M01 Q1029 20-01-22",0,0,0,2.5,0,0,56.08527777777778,13.206944444444444
"ESUT","HEMAVAN TARNABY","SWE","20-01-22","""2020-01-22T16:20:00.000Z""","ESUT 221620Z AUTO 28012KT 8000 -SN FEW021/// SCT036/// BKN047/// M01/M04 Q1016 20-01-22",0,0,6.7,7.5,0,0,65.80611111111111,15.082777777777778
"EYKA","KAUNAS INTL","LTU","20-01-22","""2020-01-22T16:20:00.000Z""","EYKA 221620Z 31009KT 250V350 9999 FEW040 BKN053 OVC067 03/M04 Q1015 R08/290095 20-01-22",0,0,0,0,0,0,54.96388888888889,24.084722222222222
"LBGO","GORNA ORYAHOVITSA","BGR","20-01-22","""2020-01-22T16:30:00.000Z""","LBGO 221630Z AUTO 00000KT 9999 NCD M01/M05 Q1022 NOSIG 20-01-22",0,0,0,0,0,0,43.151666666666664,25.711944444444445
"LBWN","VARNA","BGR","20-01-22","""2020-01-22T16:30:00.000Z""","LBWN 221630Z 32009KT CAVOK 05/M07 Q1021 NOSIG 20-01-22",0,0,0,0,0,0,43.231944444444444,27.825277777777778
"LBSF","SOFIA","BGR","20-01-22","""2020-01-22T16:30:00.000Z""","LBSF 221630Z 29004KT 8000 NSC 02/M09 Q1025 NOSIG 20-01-22",0,0,0,0,0,0,42.69499999999999,23.40833333333333
"LBPD","PLOVDIV","BGR","20-01-22","""2020-01-22T16:30:00.000Z""","LBPD 221630Z AUTO 32004KT 9999 NCD 08/M09 Q1023 NOSIG 20-01-22",0,0,0,0,0,0,42.06777777777778,24.850833333333334
"LBBG","BURGAS","BGR","20-01-22","""2020-01-22T16:30:00.000Z""","LBBG 221630Z 25014KT CAVOK 06/M05 Q1022 NOSIG 20-01-22",0,0,0,0,0,0,42.57027777777778,27.51527777777778
"EYPA","PALANGA/INTERNATIONAL","LTU","20-01-22","""2020-01-22T16:20:00.000Z""","EYPA 221620Z 34010G23KT 290V040 9999 BKN039 05/M02 Q1020 R01/0///95 20-01-22",0,2,0,0,0,0,55.973333333333336,21.093888888888888
"LATI","TIRANA","ALB","20-01-22","""2020-01-22T16:20:00.000Z""","LATI 221620Z 31003KT CAVOK 08/04 Q1030 NOSIG 20-01-22",0,0,0,0,0,0,41.414722222222224,19.720555555555553
"EYVI","VILNIUS/INTERNATIONAL","LTU","20-01-22","""2020-01-22T16:20:00.000Z""","EYVI 221620Z 31009KT 9999 SCT045CB BKN057 01/M02 Q1013 R01/2///95 NOSIG 20-01-22",0,0,0,0,2,0,54.636944444444445,25.28777777777778
"EYSA","SIAULIAI/INTERNATIONAL","LTU","20-01-22","""2020-01-22T16:20:00.000Z""","EYSA 221620Z 32019G33KT 8000 -SHRASN FEW013 BKN026CB OVC035 03/M01 Q1016 R32R/29//95 R32L/29//95 BLU TEMPO SCT023 BKN031 WHT 20-01-22",0,4,10,7.5,4,0,55.89388888888889,23.395
"LCLK","LARNAKA/INTL","CYP","20-01-22","""2020-01-22T16:30:00.000Z""","LCLK 221630Z 32004KT 9999 FEW030 09/02 Q1022 NOSIG 20-01-22",0,0,0,0,0,0,34.87888888888889,33.63027777777778
"LCPH","PAFOS/INTL","CYP","20-01-22","""2020-01-22T16:30:00.000Z""","LCPH 221630Z 35005KT 9999 FEW025 09/01 Q1022 20-01-22",0,0,0,0,0,0,34.718333333333334,32.485
"LDDU","DUBROVNIK/CILIPI","HRV","20-01-22","""2020-01-22T16:30:00.000Z""","LDDU 221630Z 30003KT CAVOK 08/01 Q1029 NOSIG 20-01-22",0,0,0,0,0,0,42.56135277777778,18.268244444444445
"LDOS","OSIJEK/KLISA","HRV","20-01-22","""2020-01-22T16:30:00.000Z""","LDOS 221630Z 29007KT 7000 NSC M01/M02 Q1029 20-01-22",0,0,0,2.5,0,0,45.46266666666667,18.810155555555557
"LDPL","PULA","HRV","20-01-22","""2020-01-22T16:30:00.000Z""","LDPL 221630Z 30002KT CAVOK 04/00 Q1031 NOSIG 20-01-22",0,0,0,0,0,0,44.89353333333333,13.922191666666667
"LDRI","RIJEKA/KRK I","HRV","20-01-22","""2020-01-22T16:30:00.000Z""","LDRI 221630Z 35003KT CAVOK 07/00 Q1030 20-01-22",0,0,0,0,0,0,45.21688888888889,14.570266666666667
"LDSP","SPLIT/KASTELA","HRV","20-01-22","""2020-01-22T16:30:00.000Z""","LDSP 221630Z 31012KT CAVOK 09/03 Q1029 NOSIG 20-01-22",0,0,0,0,0,0,43.53894444444444,16.29796388888889
"LCRA","AKROTIRI MIL","CYP","20-01-22","""2020-01-22T16:21:00.000Z""","LCRA 221621Z 25005KT 9999 FEW040 12/03 Q1021 NOSIG 20-01-22",0,0,0,0,0,0,34.59037222222222,32.98778055555556
"LDZA","ZAGREB/PLESO","HRV","20-01-22","""2020-01-22T16:30:00.000Z""","LDZA 221630Z 07003KT 360V080 CAVOK 01/M02 Q1029 NOSIG 20-01-22",0,0,0,0,0,0,45.74293055555555,16.06877777777778
"LEBB","BILBAO","ESP","20-01-22","""2020-01-22T16:30:00.000Z""","LEBB 221630Z 00000KT 9999 BKN018 09/07 Q1022 NOSIG 20-01-22",0,0,0,0,0,0,43.301111111111105,-2.9105555555555553
"LEBA","CORDOBA","ESP","20-01-22","""2020-01-22T16:30:00.000Z""","LEBA 221630Z 12003KT 090V160 9999 FEW040 14/05 Q1015 20-01-22",0,0,0,0,0,0,37.841944444444444,-4.848888888888888
"LEAS","ASTURIAS","ESP","20-01-22","""2020-01-22T16:30:00.000Z""","LEAS 221630Z VRB01KT 5000 -RA BKN027 BKN040 09/08 Q1021 TEMPO 3000 RA 20-01-22",0,0,0,0,0,0,43.56361111111111,-6.034722222222222
"LEBG","BURGOS","ESP","20-01-22","""2020-01-22T16:30:00.000Z""","LEBG 221630Z 05009KT 9999 FEW008 BKN015 03/02 Q1018 20-01-22",0,0,0,0,0,0,42.3575,-3.613611111111111
"LEAM","ALMERIA","ESP","20-01-22","""2020-01-22T16:30:00.000Z""","LEAM 221630Z 06010KT CAVOK 15/07 Q1015 20-01-22",0,0,0,0,0,0,36.84388888888889,-2.37
"LEAL","ALICANTE-ELCHE","ESP","20-01-22","""2020-01-22T16:30:00.000Z""","LEAL 221630Z 04003KT 360V070 7000 FEW025 14/10 Q1015 NOSIG 20-01-22",0,0,0,0,0,0,38.282222222222224,-0.5580555555555556
"LDZD","ZADAR/ZEMUNIK","HRV","20-01-22","""2020-01-22T16:30:00.000Z""","LDZD 221630Z 30002KT 9999 FEW025 04/03 Q1030 NOSIG 20-01-22",0,0,0,0,0,0,44.108269444444446,15.346697222222224
"LEAB","ALBACETE","ESP","20-01-22","""2020-01-22T16:00:00.000Z""","LEAB 221600Z 11007KT 9999 FEW031 10/04 Q1016 NOSIG 20-01-22",0,0,0,0,0,0,38.948611111111106,-1.8633333333333335
"LEAO","CIUDAD REAL/ALMAGRO (HEL MILITAR)","ESP","20-01-22","""2020-01-22T16:00:00.000Z""","LEAO 221600Z 08005KT 030V110 9999 FEW035 11/05 Q1015 20-01-22",0,0,0,0,0,0,38.9533333,-3.7413889
"LEBL","BARCELONA/EL PRAT","ESP","20-01-22","""2020-01-22T16:30:00.000Z""","LEBL 221630Z 08017KT 5000 BR FEW010 BKN015 14/13 Q1018 NOSIG 20-01-22",0,2,0,0,0,0,41.29694444444444,2.0783333333333336
"LEHC","HUESCA/PIRINEOS","ESP","20-01-22","""2020-01-22T16:30:00.000Z""","LEHC 221630Z AUTO 04005KT 010V080 9999 -RA OVC038 06/06 Q1019 20-01-22",0,0,0,0,0,0,42.08083333333334,-0.3233333333333333
"LEGR","GRANADA/FEDERICO GARCIA LORCA GRANADA-JAEN","ESP","20-01-22","""2020-01-22T16:30:00.000Z""","LEGR 221630Z 16004KT 120V190 8000 RA FEW025TCU SCT030 BKN045 07/06 Q1015 20-01-22",0,0,3.3,0,1,0,37.18861111111111,-3.777222222222222
"LEGE","GIRONA","ESP","20-01-22","""2020-01-22T16:30:00.000Z""","LEGE 221630Z 11010KT 070V140 9000 OVC020 14/12 Q1021 20-01-22",0,0,0,0,0,0,41.90083333333333,2.7605555555555554
"LECO","A CORUNA","ESP","20-01-22","""2020-01-22T16:30:00.000Z""","LECO 221630Z 05011KT 360V080 9999 BKN035 12/08 Q1020 NOSIG 20-01-22",0,0,0,0,0,0,43.301944444444445,-8.377222222222223
"LEIB","IBIZA","ESP","20-01-22","""2020-01-22T16:30:00.000Z""","LEIB 221630Z 04004KT 7000 FEW015 BKN025 14/12 Q1015 NOSIG 20-01-22",0,0,0,0,0,0,38.87277777777778,1.3730555555555557
"LEGA","GRANADA/ARMILLA (MILITAR)","ESP","20-01-22","""2020-01-22T16:00:00.000Z""","LEGA 221600Z 21006KT 180V270 7000 RA BKN029 OVC036 07/05 Q1015 20-01-22",0,0,3.3,0,0,0,37.13333333333333,-3.6358333333333333
"LECV","MADRID-COLMENAR VIEJO (HEL MILITAR)","ESP","20-01-22","""2020-01-22T16:00:00.000Z""","LECV 221600Z 03003KT 9999 BKN025 07/03 Q1016 20-01-22",0,0,0,0,0,0,40.697222222222216,-3.763333333333333
"LEGT","MADRID/GETAFE","ESP","20-01-22","""2020-01-22T16:00:00.000Z""","LEGT 221600Z 07005KT 040V110 9999 VCSH SCT035TCU 11/05 Q1016 20-01-22",0,0,0,0,4,0,40.29416666666666,-3.7236111111111114
"LEBZ","BADAJOZ","ESP","20-01-22","""2020-01-22T16:00:00.000Z""","LEBZ 221600Z 08006KT 060V120 9000 DZ SCT034 BKN044 10/08 Q1014 20-01-22",0,0,3.3,0,0,0,38.89138888888889,-6.8213888888888885
"LEMO","SEVILLA/MORON (MILITAR)","ESP","20-01-22","""2020-01-22T16:39:00.000Z""","LEMO 221639Z 00000KT 7000 RA FEW035 BKN040 12/09 Q1014 NOSIG 20-01-22",0,0,3.3,0,0,0,37.175,-5.616111111111111
"LEJR","JEREZ","ESP","20-01-22","""2020-01-22T16:30:00.000Z""","LEJR 221630Z 11007KT 080V150 9999 FEW012 SCT026 BKN050 11/10 Q1014 20-01-22",0,0,0,0,0,0,36.74472222222222,-6.06
"LEMH","MENORCA","ESP","20-01-22","""2020-01-22T16:30:00.000Z""","LEMH 221630Z 12017G27KT 6000 FEW012 14/12 Q1018 20-01-22",0,4,0,0,0,0,39.862500000000004,4.2186111111111115
"LEMG","MALAGA/COSTA DEL SOL","ESP","20-01-22","""2020-01-22T16:30:00.000Z""","LEMG 221630Z 08004KT 9999 FEW025 BKN045 13/09 Q1015 NOSIG 20-01-22",0,0,0,0,0,0,36.675,-4.4991666666666665
"LEMD","MADRID/ADOLFO SUAREZ MADRID-BARAJAS","ESP","20-01-22","""2020-01-22T16:30:00.000Z""","LEMD 221630Z VRB02KT 9999 FEW038 BKN060 10/05 Q1016 NOSIG 20-01-22",0,0,0,0,0,0,40.47222222222222,-3.560833333333333
"LELO","LOGRONO/AGONCILLO (MILITAR)","ESP","20-01-22","""2020-01-22T16:30:00.000Z""","LELO 221630Z 24002KT 9999 BKN036 BKN050 08/05 Q1020 20-01-22",0,0,0,0,0,0,42.45416666666667,-2.3208333333333333
"LELN","LEON","ESP","20-01-22","""2020-01-22T16:30:00.000Z""","LELN 221630Z 07004KT 9999 BKN042 07/02 Q1017 20-01-22",0,0,0,0,0,0,42.58861111111111,-5.6561111111111115
"LELL","SABADELL","ESP","20-01-22","""2020-01-22T16:30:00.000Z""","LELL 221630Z 08010G21KT 050V120 4500 BR BKN013 BKN020 OVC028 14/12 Q1019 20-01-22",0,2,0,0,0,1,41.520833333333336,2.105
"LELC","MURCIA/SAN JAVIER","ESP","20-01-22","""2020-01-22T16:30:00.000Z""","LELC 221630Z 04006KT 010V070 6000 FEW020 14/13 Q1016 NOSIG 20-01-22",0,0,0,0,0,0,37.775,-0.8125
"LEPA","PALMA DE MALLORCA","ESP","20-01-22","""2020-01-22T16:30:00.000Z""","LEPA 221630Z 11005KT 070V150 4500 BR FEW015 16/13 Q1016 NOSIG 20-01-22",0,0,0,0,0,0,39.55166666666666,2.738888888888889
"LEPP","PAMPLONA","ESP","20-01-22","""2020-01-22T16:30:00.000Z""","LEPP 221630Z 01004KT 9999 FEW025 SCT040 09/05 Q1019 20-01-22",0,0,0,0,0,0,42.769999999999996,-1.646388888888889
"LETL","TERUEL","ESP","20-01-22","""2020-01-22T16:30:00.000Z""","LETL 221630Z AUTO 33004KT 290V360 9999 FEW010 BKN038 BKN046 02/01 Q1017 20-01-22",0,0,0,2.5,0,0,40.411944444444444,-1.2175
"LEST","SANTIAGO","ESP","20-01-22","""2020-01-22T16:30:00.000Z""","LEST 221630Z 05014KT 020V080 9999 SCT025 SCT035 10/07 Q1019 NOSIG 20-01-22",0,0,0,0,0,0,42.896388888888886,-8.415277777777778
"LESO","SAN SEBASTIAN","ESP","20-01-22","""2020-01-22T16:30:00.000Z""","LESO 221630Z VRB01KT 9999 SCT023 10/06 Q1022 20-01-22",0,0,0,0,0,0,43.35638888888889,-1.7905555555555555
"LESA","SALAMANCA","ESP","20-01-22","""2020-01-22T16:30:00.000Z""","LESA 221630Z 11010KT 080V140 9999 FEW025 08/02 Q1016 20-01-22",0,0,0,0,0,0,40.95194444444445,-5.501944444444445
"LERS","REUS","ESP","20-01-22","""2020-01-22T16:30:00.000Z""","LERS 221630Z 07012KT 040V110 4300 BR BKN008 BKN012 14/14 Q1017 20-01-22",0,0,0,0,0,1,41.1475,1.1672222222222224
"LEVC","VALENCIA","ESP","20-01-22","""2020-01-22T16:30:00.000Z""","LEVC 221630Z 04008KT 350V060 8000 SHRA VCTS SCT020 FEW025CB BKN040 10/08 Q1018 RERA TEMPO 2000 20-01-22",0,0,3.3,0,8,0,39.489444444444445,-0.4816666666666667
"LERT","CADIZ/ROTA (BASE AERO-NAVAL)","ESP","20-01-22","""2020-01-22T16:00:00.000Z""","LERT 221600Z 17008KT 130V220 8000 RA FEW020 SCT030 BKN045 12/10 Q1013 NOSIG 20-01-22",0,0,3.3,0,0,0,36.64527777777778,-6.349444444444444
"LERI","MURCIA/ALCANTARILLA (MILITAR)","ESP","20-01-22","""2020-01-22T16:00:00.000Z""","LERI 221600Z 05004KT 9999 FEW033 15/08 Q1016 NOSIG 20-01-22",0,0,0,0,0,0,37.952222222222225,-1.2308333333333334
"LETO","MADRID/TORREJON","ESP","20-01-22","""2020-01-22T16:00:00.000Z""","LETO 221600Z 04006KT 9999 SCT045 BKN050 10/04 Q1016 NOSIG 20-01-22",0,0,0,0,0,0,40.49666666666667,-3.4458333333333337
"GCFV","FUERTEVENTURA","ESP","20-01-22","""2020-01-22T16:30:00.000Z""","GCFV 221630Z 29007KT 240V330 9999 BKN044 19/08 Q1016 20-01-22",0,0,0,0,0,0,28.452777777777776,-13.863888888888889
"LEZG","ZARAGOZA","ESP","20-01-22","""2020-01-22T16:30:00.000Z""","LEZG 221630Z 28007KT 9999 BKN030 09/07 Q1019 20-01-22",0,0,0,0,0,0,41.66611111111111,-1.0416666666666667
"LEXJ","SANTANDER/SEVE BALLESTEROS-SANTANDER","ESP","20-01-22","""2020-01-22T16:30:00.000Z""","LEXJ 221630Z 12003KT 080V150 9999 BKN042 09/08 Q1021 20-01-22",0,0,0,0,0,0,43.426944444444445,-3.82
"LEVX","VIGO","ESP","20-01-22","""2020-01-22T16:30:00.000Z""","LEVX 221630Z 08006KT 030V130 9999 FEW050 14/05 Q1017 NOSIG 20-01-22",0,0,0,0,0,0,42.22916666666667,-8.627500000000001
"LEVT","VITORIA","ESP","20-01-22","""2020-01-22T16:30:00.000Z""","LEVT 221630Z 03008KT 9999 FEW020 SCT038 BKN044 08/05 Q1020 20-01-22",0,0,0,0,0,0,42.882777777777775,-2.7244444444444444
"LEVS","MADRID/CUATRO VIENTOS (MIL)","ESP","20-01-22","""2020-01-22T16:30:00.000Z""","LEVS 221630Z 07006KT 020V110 9999 SCT033 09/04 Q1016 20-01-22",0,0,0,0,0,0,40.3705556,-3.7852778
"LEVD","VALLADOLID","ESP","20-01-22","""2020-01-22T16:30:00.000Z""","LEVD 221630Z 06010KT 9999 SCT036 08/03 Q1017 20-01-22",0,0,0,0,0,0,41.70611111111111,-4.851944444444444
"GCHI","HIERRO","ESP","20-01-22","""2020-01-22T16:30:00.000Z""","GCHI 221630Z VRB02KT 9999 FEW035 19/11 Q1017 20-01-22",0,0,0,0,0,0,27.814722222222223,-17.886944444444445
"GCGM","LA GOMERA","ESP","20-01-22","""2020-01-22T16:30:00.000Z""","GCGM 221630Z 23011KT 200V260 9999 SCT060 19/08 Q1017 RMK R09/23007KT 170V280 ARP/23008KT 140V290 20-01-22",0,0,0,0,0,0,28.029722222222222,-17.21472222222222
"LEZL","SEVILLA","ESP","20-01-22","""2020-01-22T16:30:00.000Z""","LEZL 221630Z 07003KT 9999 -RA SCT045 12/11 Q1014 TEMPO 4000 SHRA SCT030TCU 20-01-22",0,0,0,0,0,0,37.418055555555554,-5.898888888888888
"GCLA","LA PALMA","ESP","20-01-22","""2020-01-22T16:30:00.000Z""","GCLA 221630Z VRB02KT 9999 BKN055 19/08 Q1018 20-01-22",0,0,0,0,0,0,28.62638888888889,-17.755555555555556
"LFBA","AGEN-LA GARENNE","FRA","20-01-22","""2020-01-22T16:30:00.000Z""","LFBA 221630Z AUTO VRB02KT 7000 -RA SCT043/// BKN056/// OVC066/// ///TCU 10/09 Q1022 TEMPO 09015G25KT 4000 RA BECMG BKN035 20-01-22",0,0,0,0,0,0,44.17472222222222,0.5905555555555556
"LFAT","LE TOUQUET-COTE D'OPALE","FRA","20-01-22","""2020-01-22T16:30:00.000Z""","LFAT 221630Z AUTO 08007KT 9000 OVC010 05/04 Q1036 BECMG 3000 BR BKN004 OVC013 20-01-22",0,0,0,0,0,0,50.514722222222225,1.6275
"LFAQ","ALBERT-BRAY","FRA","20-01-22","""2020-01-22T16:30:00.000Z""","LFAQ 221630Z AUTO 04008KT 3900 BR FEW007 01/01 Q1035 BECMG 2000 BR OVC004 20-01-22",0,0,0,7.5,0,1,49.97,2.6925000000000003
"GEML","MELILLA","ESP","20-01-22","""2020-01-22T16:30:00.000Z""","GEML 221630Z 27005KT 240V300 CAVOK 16/05 Q1015 20-01-22",0,0,0,0,0,0,35.27972222222222,-2.956388888888889
"GCXO","TENERIFE NORTE","ESP","20-01-22","""2020-01-22T16:30:00.000Z""","GCXO 221630Z 29011KT 260V320 9999 BKN022 14/07 Q1018 NOSIG 20-01-22",0,0,0,0,0,0,28.482777777777777,-16.341666666666665
"GCTS","TENERIFE SUR/REINA SOFIA","ESP","20-01-22","""2020-01-22T16:30:00.000Z""","GCTS 221630Z 23010KT 9999 FEW035 19/10 Q1017 NOSIG 20-01-22",0,0,0,0,0,0,28.044444444444448,-16.572499999999998
"GCRR","LANZAROTE","ESP","20-01-22","""2020-01-22T16:30:00.000Z""","GCRR 221630Z 24010KT 210V270 9999 FEW040 20/07 Q1016 20-01-22",0,0,0,0,0,0,28.945555555555554,-13.605277777777777
"GCLP","GRAN CANARIA","ESP","20-01-22","""2020-01-22T16:30:00.000Z""","GCLP 221630Z 15005KT 9999 FEW030 SCT045 BKN050 18/08 Q1017 NOSIG 20-01-22",0,0,0,0,0,0,27.931944444444447,-15.386666666666667
"LFBC","CAZAUX; CAZAUX CCER","FRA","20-01-22","""2020-01-22T16:30:00.000Z""","LFBC 221630Z AUTO 02005KT 9999 // BKN034/// OVC040/// ///TCU 11/08 Q1022 20-01-22",0,0,0,0,0,0,44.535,-1.131388888888889
"LFBD","BORDEAUX-MERIGNAC","FRA","20-01-22","""2020-01-22T16:30:00.000Z""","LFBD 221630Z AUTO 09005KT 9999 -RA BKN027/// BKN033/// BKN043/// ///TCU 11/08 Q1023 TEMPO 4000 -RA BKN030 20-01-22",0,0,0,0,0,0,44.828611111111115,-0.7152777777777777
"LFBP","PAU-PYRENEES","FRA","20-01-22","""2020-01-22T16:30:00.000Z""","LFBP 221630Z AUTO 35003KT 9999 OVC022 09/06 Q1021 TEMPO 3000 RA BKN010 20-01-22",0,0,0,0,0,0,43.38,-0.41861111111111116
"LFBO","TOULOUSE-BLAGNAC ; TOULOUSE/CCER","FRA","20-01-22","""2020-01-22T16:30:00.000Z""","LFBO 221630Z AUTO VRB03KT 3000 RA BR FEW003/// BKN024/// OVC033/// ///CB 09/08 Q1022 BECMG 8000 -RA FEW010 BKN020 OVC050 20-01-22",0,0,3.3,0,0,1,43.635,1.3677777777777778
"LFBM","MONT-DE-MARSAN","FRA","20-01-22","""2020-01-22T16:30:00.000Z""","LFBM 221630Z AUTO 02003KT 9999 FEW027 OVC034 11/08 Q1021 BECMG 09010KT 4000 RA BKN008 OVC015 20-01-22",0,0,0,0,0,0,43.91138888888889,-0.5094444444444445
"LFBL","LIMOGES-BELLEGARDE","FRA","20-01-22","""2020-01-22T16:30:00.000Z""","LFBL 221630Z AUTO 05010KT CAVOK 12/04 Q1025 NOSIG 20-01-22",0,0,0,0,0,0,45.86083333333333,1.1802777777777778
"LFBI","POITIERS-BIARD","FRA","20-01-22","""2020-01-22T16:30:00.000Z""","LFBI 221630Z AUTO 04006KT 9999 NCD 06/00 Q1028 NOSIG 20-01-22",0,0,0,0,0,0,46.587500000000006,0.30666666666666664
"LFBH","LA ROCHELLE-ILE DE RE","FRA","20-01-22","""2020-01-22T16:30:00.000Z""","LFBH 221630Z AUTO 06017KT CAVOK 07/01 Q1026 TEMPO 07015G25KT 20-01-22",0,2,0,0,0,0,46.17916666666667,-1.1952777777777779
"LFBG","COGNAC-CHATEAUBERNARD","FRA","20-01-22","""2020-01-22T16:30:00.000Z""","LFBG 221630Z AUTO 04010KT CAVOK 09/02 Q1025 NOSIG 20-01-22",0,0,0,0,0,0,45.65833333333333,-0.3175
"LFBE","BERGERAC-ROUMANIERE","FRA","20-01-22","""2020-01-22T16:30:00.000Z""","LFBE 221630Z AUTO 07008KT 9999 ///CB 13/06 Q1023 TEMPO 4000 -RA BECMG NSC 20-01-22",0,0,0,0,0,0,44.824444444444445,0.5205555555555557
"LFBT","TARBES LOURDES PYRENEES","FRA","20-01-22","""2020-01-22T16:30:00.000Z""","LFBT 221630Z AUTO 23002KT 9999 -RA BKN068 OVC080 08/05 Q1021 TEMPO 3000 RA BKN007 20-01-22",0,0,0,0,0,0,43.18555555555555,-0.002777777777777778
"LFBU","ANGOULEME-BRIE-CHAMPNIERS","FRA","20-01-22","""2020-01-22T16:30:00.000Z""","LFBU 221630Z AUTO 03010KT 9999 ///TCU 09/02 Q1025 TEMPO 4000 -RA BECMG NSC 20-01-22",0,0,0,0,0,0,45.72944444444445,0.21916666666666668
"LFKB","BASTIA-PORETTA","FRA","20-01-22","""2020-01-22T16:30:00.000Z""","LFKB 221630Z AUTO 14014KT 9999 SCT014 BKN190 BKN210 14/12 Q1028 TEMPO 14020G30KT 20-01-22",0,0,0,0,0,0,42.55,9.48472222222222
"LFJR","ANGERS MARCE","FRA","20-01-22","""2020-01-22T16:30:00.000Z""","LFJR 221630Z AUTO 06007KT CAVOK 06/M01 Q1030 20-01-22",0,0,0,0,0,0,47.56027777777778,-0.31222222222222223
"LFJL","METZ NANCY-LORRAINE","FRA","20-01-22","""2020-01-22T16:30:00.000Z""","LFJL 221630Z AUTO 14007KT 5000 BR NSC M00/M01 Q1033 TEMPO OVC003 20-01-22",0,0,0,7.5,0,0,48.97833333333333,6.246666666666667
"LFGJ","DOLE-TAVAUX","FRA","20-01-22","""2020-01-22T16:30:00.000Z""","LFGJ 221630Z AUTO 31003KT 6000 NSC 03/M01 Q1031 BECMG 4500 BR 20-01-22",0,0,0,0,0,0,47.04277777777778,5.4350000000000005
"LFCR","RODEZ-AVEYRON","FRA","20-01-22","""2020-01-22T16:30:00.000Z""","LFCR 221630Z AUTO 09016KT CAVOK 09/04 Q1024 BECMG 09018G28KT 20-01-22",0,2,0,0,0,0,44.4075,2.4833333333333334
"LFCK","CASTRES MAZAMET","FRA","20-01-22","""2020-01-22T16:30:00.000Z""","LFCK 221630Z AUTO 10022G34KT 9999 -DZ SCT027 BKN032 BKN039 11/08 Q1022 NOSIG 20-01-22",0,6,0,0,0,0,43.555,2.2905555555555552
"LFBZ","BIARRITZ-PAYS BASQUE","FRA","20-01-22","""2020-01-22T16:30:00.000Z""","LFBZ 221630Z AUTO 07004KT 9999 BKN068 BKN210 09/07 Q1021 NOSIG 20-01-22",0,0,0,0,0,0,43.468333333333334,-1.531111111111111
"LFBY","DAX-SEYRESSE","FRA","20-01-22","""2020-01-22T16:30:00.000Z""","LFBY 221630Z AUTO 00000KT 9999 // ////// 10/07 Q1021 20-01-22",0,0,0,0,0,0,43.689166666666665,-1.0688888888888888
"LFKC","CALVI-SAINTE-CATHERINE","FRA","20-01-22","""2020-01-22T16:30:00.000Z""","LFKC 221630Z AUTO 18004KT CAVOK 12/07 Q1026 NOSIG 20-01-22",0,0,0,0,0,0,42.52444444444444,8.793055555555556
"LFKF","FIGARI-SUD-CORSE","FRA","20-01-22","""2020-01-22T16:30:00.000Z""","LFKF 221630Z AUTO 06016KT 030V090 9999 BKN018 OVC023 14/11 Q1028 TEMPO 07020G35KT 20-01-22",0,2,0,0,0,0,41.50222222222222,9.096666666666668
"LFLS","GRENOBLE-ISERE","FRA","20-01-22","""2020-01-22T16:30:00.000Z""","LFLS 221630Z AUTO 03005KT 7000 NSC 03/00 Q1029 NOSIG 20-01-22",0,0,0,0,0,0,45.363055555555555,5.332777777777777
"LFLP","ANNECY-MEYTHET","FRA","20-01-22","""2020-01-22T16:30:00.000Z""","LFLP 221630Z AUTO 33004KT 9000 NSC 04/M01 Q1029 NOSIG 20-01-22",0,0,0,0,0,0,45.93083333333333,6.106388888888889
"LFLN","SAINT-YAN","FRA","20-01-22","""2020-01-22T16:30:00.000Z""","LFLN 221630Z AUTO 00000KT 8000 NSC 03/M01 Q1030 NOSIG 20-01-22",0,0,0,0,0,0,46.406388888888884,4.021111111111111
"LFLL","LYON SAINT-EXUPERY","FRA","20-01-22","""2020-01-22T16:30:00.000Z""","LFLL 221630Z 24002KT 7000 NSC 03/M00 Q1030 NOSIG 20-01-22",0,0,0,0,0,0,45.72555555555556,5.0811111111111105
"LFLC","CLERMONT-FERRAND-AUVERGNE CLERMONT CCER","FRA","20-01-22","""2020-01-22T16:30:00.000Z""","LFLC 221630Z AUTO 01003KT 9000 NSC 03/M00 Q1029 NOSIG 20-01-22",0,0,0,0,0,0,45.78611111111111,3.1625
"LFLB","CHAMBERY-AIX-LES-BAINS","FRA","20-01-22","""2020-01-22T16:30:00.000Z""","LFLB 221630Z AUTO 17003KT 6000 NSC 03/M01 Q1030 NOSIG 20-01-22",0,0,0,0,0,0,45.63916666666667,5.880000000000001
"LFKS","SOLENZARA","FRA","20-01-22","""2020-01-22T16:30:00.000Z""","LFKS 221630Z AUTO 20003KT 180V240 9999 -RA SCT041 SCT048 BKN200 13/12 Q1029 20-01-22",0,0,0,0,0,0,41.92638888888889,9.405277777777778
"LFKJ","AJACCIO-NAPOLEON-BONAPARTE","FRA","20-01-22","""2020-01-22T16:30:00.000Z""","LFKJ 221630Z AUTO VRB03KT CAVOK 15/07 Q1026 NOSIG 20-01-22",0,0,0,0,0,0,41.92388888888889,8.8025
"LFLW","AURILLAC","FRA","20-01-22","""2020-01-22T16:30:00.000Z""","LFLW 221630Z AUTO 10012KT 9999 ////// 10/04 Q1025 20-01-22",0,0,0,0,0,0,44.8975,2.4166666666666665
"LFLX","CHATEAUROUX-DEOLS","FRA","20-01-22","""2020-01-22T16:30:00.000Z""","LFLX 221630Z AUTO 07007KT CAVOK 05/01 Q1029 NOSIG 20-01-22",0,0,0,0,0,0,46.86027777777778,1.7211111111111113
"LFMN","NICE-COTE D'AZUR","FRA","20-01-22","""2020-01-22T16:30:00.000Z""","LFMN 221630Z 07020KT CAVOK 14/09 Q1028 NOSIG 20-01-22",0,2,0,0,0,0,43.665277777777774,7.215
"LFML","MARSEILLE-PROVENCE","FRA","20-01-22","""2020-01-22T16:30:00.000Z""","LFML 221630Z AUTO 10008KT 070V130 CAVOK 15/06 Q1026 BECMG 08015G25KT 20-01-22",0,0,0,0,0,0,43.43666666666666,5.215
"LFMK","CARCASSONNE-SALVAZA","FRA","20-01-22","""2020-01-22T16:30:00.000Z""","LFMK 221630Z AUTO 09020G34KT 9999 -RADZ OVC010/// ///CB 09/09 Q1022 TEMPO RA BKN010 20-01-22",0,4,3.3,0,0,0,43.215833333333336,2.308611111111111
"LFMI","ISTRES-LE TUBE; ISTRES CCER","FRA","20-01-22","""2020-01-22T16:30:00.000Z""","LFMI 221630Z AUTO 09011KT CAVOK 14/06 Q1026 NOSIG 20-01-22",0,0,0,0,0,0,43.5225,4.924166666666667
"LFMH","SAINT-ETIENNE-LOIRE","FRA","20-01-22","""2020-01-22T16:30:00.000Z""","LFMH 221630Z AUTO 00000KT 8000 NSC 03/00 Q1029 NOSIG 20-01-22",0,0,0,0,0,0,45.534166666666664,4.2972222222222225
"LFMD","CANNES-MANDELIEU","FRA","20-01-22","""2020-01-22T16:30:00.000Z""","LFMD 221630Z AUTO 05006KT 340V130 CAVOK 14/08 Q1028 TEMPO 08015G25KT 20-01-22",0,0,0,0,0,0,43.546388888888885,6.954166666666667
"LFMC","LE LUC-LE CANNET","FRA","20-01-22","""2020-01-22T16:30:00.000Z""","LFMC 221630Z AUTO 08008KT 060V120 9999 ////// 13/07 Q1027 20-01-22",0,0,0,0,0,0,43.38472222222222,6.3869444444444445
"LFLY","LYON-BRON","FRA","20-01-22","""2020-01-22T16:30:00.000Z""","LFLY 221630Z AUTO 00000KT 8000 NSC 03/M01 Q1030 NOSIG 20-01-22",0,0,0,0,0,0,45.72944444444445,4.938888888888889
"LFMO","ORANGE-CARITAT","FRA","20-01-22","""2020-01-22T16:30:00.000Z""","LFMO 221630Z AUTO 31005KT 9999 ////// 07/02 Q1027 20-01-22",0,0,0,0,0,0,44.14,4.868611111111112
"LFMP","PERPIGNAN RIVESALTES","FRA","20-01-22","""2020-01-22T16:30:00.000Z""","LFMP 221630Z AUTO 09020KT 4600 -RA BR BKN012/// BKN018/// BKN023/// ///TCU 13/11 Q1022 TEMPO 10025G35KT RA 20-01-22",0,2,0,0,0,1,42.740833333333335,2.8697222222222223
"LFOE","EVREUX-FAUVILLE","FRA","20-01-22","""2020-01-22T16:30:00.000Z""","LFOE 221630Z AUTO 03004KT CAVOK 02/M01 Q1033 NOSIG 20-01-22",0,0,0,0,0,0,49.02861111111111,1.2200000000000002
"LFOC","CHATEAUDUN","FRA","20-01-22","""2020-01-22T16:30:00.000Z""","LFOC 221630Z AUTO 03009KT 8000 ////// 03/00 Q1032 20-01-22",0,0,0,0,0,0,48.05777777777777,1.3794444444444445
"LFOB","BEAUVAIS-TILLE","FRA","20-01-22","""2020-01-22T16:30:00.000Z""","LFOB 221630Z AUTO 03007KT 5000 BR BKN007 OVC230 01/M00 Q1034 BECMG 2000 BR OVC002 20-01-22",0,0,0,7.5,0,0,49.45444444444445,2.112777777777778
"LFOA","AVORD","FRA","20-01-22","""2020-01-22T16:30:00.000Z""","LFOA 221630Z AUTO 06008KT 9999 FEW009 04/00 Q1030 NOSIG 20-01-22",0,0,0,0,0,0,47.05694444444444,2.638888888888889
"LFMY","SALON DE PROVENCE","FRA","20-01-22","""2020-01-22T16:30:00.000Z""","LFMY 221630Z AUTO 08008KT 9999 FEW016 OVC140 15/05 Q1026 NOSIG 20-01-22",0,0,0,0,0,0,43.60290833333333,5.1081666666666665
"LFMV","AVIGNON-CAUMONT","FRA","20-01-22","""2020-01-22T16:30:00.000Z""","LFMV 221630Z AUTO 36004KT CAVOK 07/02 Q1027 NOSIG 20-01-22",0,0,0,0,0,0,43.906666666666666,4.901944444444445
"LFMU","BEZIERS-VIAS","FRA","20-01-22","""2020-01-22T16:30:00.000Z""","LFMU 221630Z AUTO 07013KT 9999 BKN044 OVC052 10/06 Q1025 TEMPO 06015G25KT RA SCT025TCU 20-01-22",0,0,0,0,0,0,43.32333333333334,3.3533333333333335
"LFMT","MONTPELLIER MEDITERRANEE","FRA","20-01-22","""2020-01-22T16:30:00.000Z""","LFMT 221630Z AUTO 03008KT CAVOK 10/04 Q1026 NOSIG 20-01-22",0,0,0,0,0,0,43.583333333333336,3.961388888888889
"LFOH","LE HAVRE-OCTEVILLE","FRA","20-01-22","""2020-01-22T16:30:00.000Z""","LFOH 221630Z AUTO 08007KT 7000 NSC 03/00 Q1034 NOSIG 20-01-22",0,0,0,0,0,0,49.53388888888889,0.08805555555555555
"LFOJ","ORLEANS-BRICY","FRA","20-01-22","""2020-01-22T16:30:00.000Z""","LFOJ 221630Z AUTO 05007KT CAVOK 03/M00 Q1031 NOSIG 20-01-22",0,0,0,0,0,0,47.98777777777778,1.7605555555555557
"LFOK","CHALONS-VATRY","FRA","20-01-22","""2020-01-22T16:30:00.000Z""","LFOK 221630Z AUTO 03006KT CAVOK 01/M00 Q1033 NOSIG 20-01-22",0,0,0,2.5,0,0,48.77333333333333,4.206111111111111
"LFOP","ROUEN-VALLEE DE SEINE","FRA","20-01-22","""2020-01-22T16:30:00.000Z""","LFOP 221630Z AUTO 05004KT 7000 NSC 02/M00 Q1033 BECMG 2000 BR OVC002 20-01-22",0,0,0,2.5,0,0,49.39083333333333,1.183888888888889
"LFOT","TOURS VAL DE LOIRE","FRA","20-01-22","""2020-01-22T16:30:00.000Z""","LFOT 221630Z AUTO 05009KT CAVOK 04/00 Q1030 NOSIG 20-01-22",0,0,0,0,0,0,47.43194444444444,0.7230555555555556
"LFOV","LAVAL-ENTRAMMES","FRA","20-01-22","""2020-01-22T16:30:00.000Z""","LFOV 221630Z AUTO 03010KT CAVOK 05/M00 Q1031 20-01-22",0,0,0,0,0,0,48.032222222222224,-0.7427777777777778
"LFPB","PARIS-LE BOURGET","FRA","20-01-22","""2020-01-22T16:30:00.000Z""","LFPB 221630Z AUTO 02005KT 340V040 CAVOK 01/M02 Q1034 NOSIG 20-01-22",0,0,0,0,0,0,48.96944444444445,2.441388888888889
"LFPG","PARIS-CHARLES DE GAULLE","FRA","20-01-22","""2020-01-22T16:30:00.000Z""","LFPG 221630Z 02010KT 8000 NSC 01/M02 Q1033 NOSIG 20-01-22",0,0,0,0,0,0,49.00972222222222,2.5477777777777777
"LFPM","MELUN-VILLAROCHE","FRA","20-01-22","""2020-01-22T16:30:00.000Z""","LFPM 221630Z AUTO 04003KT 330V100 9000 ////// 02/M01 Q1033 20-01-22",0,0,0,0,0,0,48.60527777777778,2.6708333333333334
"LFPN","TOUSSUS-LE-NOBLE","FRA","20-01-22","""2020-01-22T16:30:00.000Z""","LFPN 221630Z AUTO 07004KT 030V110 CAVOK 01/M03 Q1033 NOSIG 20-01-22",0,0,0,0,0,0,48.749722222222225,2.111111111111111
"LFPO","PARIS-ORLY","FRA","20-01-22","""2020-01-22T16:30:00.000Z""","LFPO 221630Z 03006KT CAVOK 02/M02 Q1033 NOSIG 20-01-22",0,0,0,0,0,0,48.723333333333336,2.3794444444444447
"LFRC","CHERBOURG-MAUPERTUS","FRA","20-01-22","""2020-01-22T16:30:00.000Z""","LFRC 221630Z AUTO 08008KT 9999 OVC014 05/03 Q1034 NOSIG 20-01-22",0,0,0,0,0,0,49.65083333333333,-1.475277777777778
"LFRB","BREST-BRETAGNE","FRA","20-01-22","""2020-01-22T16:30:00.000Z""","LFRB 221630Z AUTO 04011KT CAVOK 06/03 Q1031 TEMPO 04015G25KT 20-01-22",0,0,0,0,0,0,48.447222222222216,-4.421666666666667
"LFQQ","LILLE-LESQUIN","FRA","20-01-22","""2020-01-22T16:30:00.000Z""","LFQQ 221630Z AUTO 05008KT 6000 OVC008 03/02 Q1036 BECMG 0500 FG VV/// 20-01-22",0,0,0,0,0,0,50.56333333333333,3.0869444444444447
"LFQG","NEVERS-FOURCHAMBAULT","FRA","20-01-22","""2020-01-22T16:30:00.000Z""","LFQG 221630Z AUTO 06005KT CAVOK 04/M01 Q1030 20-01-22",0,0,0,0,0,0,47.00361111111111,3.1108333333333333
"LFQB","TROYES-BARBEREY","FRA","20-01-22","""2020-01-22T16:30:00.000Z""","LFQB 221630Z AUTO 03002KT CAVOK 03/M00 Q1033 20-01-22",0,0,0,0,0,0,48.32166666666667,4.016666666666667
"LFQA","REIMS-PRUNAY","FRA","20-01-22","""2020-01-22T16:30:00.000Z""","LFQA 221630Z AUTO VRB01KT CAVOK 01/M02 Q1033 20-01-22",0,0,0,0,0,0,49.20861111111111,4.156666666666667
"LFPV","VILLACOUBLAY-VELIZY","FRA","20-01-22","""2020-01-22T16:30:00.000Z""","LFPV 221630Z AUTO 03006KT CAVOK 02/M02 Q1033 NOSIG 20-01-22",0,0,0,0,0,0,48.774166666666666,2.1913888888888886
"LFPT","PONTOISE-CORMEILLES-EN-VEXIN","FRA","20-01-22","""2020-01-22T16:30:00.000Z""","LFPT 221630Z AUTO VRB02KT 6000 NSC 01/M02 Q1034 20-01-22",0,0,0,0,0,0,49.09666666666667,2.040833333333333
"LFRD","DINARD PLEURTUIT SAINT MALO","FRA","20-01-22","""2020-01-22T16:30:00.000Z""","LFRD 221630Z AUTO 06008KT CAVOK 06/01 Q1032 NOSIG 20-01-22",0,0,0,0,0,0,48.58777777777778,-2.08
"LFRG","DEAUVILLE-NORMANDIE","FRA","20-01-22","""2020-01-22T16:30:00.000Z""","LFRG 221630Z AUTO 04004KT CAVOK 02/M00 Q1034 NOSIG 20-01-22",0,0,0,2.5,0,0,49.36333333333334,0.16
"LFRO","LANNION","FRA","20-01-22","""2020-01-22T16:30:00.000Z""","LFRO 221630Z AUTO 04007KT 310V090 9999 BKN015 06/03 Q1032 20-01-22",0,0,0,0,0,0,48.754444444444445,-3.4719444444444445
"LFRN","RENNES SAINT JACQUES","FRA","20-01-22","""2020-01-22T16:30:00.000Z""","LFRN 221630Z AUTO 02008KT CAVOK 06/M02 Q1031 NOSIG 20-01-22",0,0,0,0,0,0,48.07194444444445,-1.7322222222222223
"LFRM","LE MANS-ARNAGE","FRA","20-01-22","""2020-01-22T16:30:00.000Z""","LFRM 221630Z AUTO 05009KT CAVOK 05/M01 Q1031 NOSIG 20-01-22",0,0,0,0,0,0,47.948611111111106,0.2016666666666667
"LFRL","LANVEOC-POULMIC","FRA","20-01-22","""2020-01-22T16:30:00.000Z""","LFRL 221630Z AUTO 03010KT 360V060 CAVOK 07/02 Q1030 TEMPO 05015G25KT 20-01-22",0,0,0,0,0,0,48.2825,-4.443611111111111
"LFRK","CAEN-CARPIQUET","FRA","20-01-22","""2020-01-22T16:30:00.000Z""","LFRK 221630Z AUTO 05005KT CAVOK 04/00 Q1034 NOSIG 20-01-22",0,0,0,0,0,0,49.17333333333333,-0.45
"LFRJ","LANDIVISIAU","FRA","20-01-22","""2020-01-22T16:30:00.000Z""","LFRJ 221630Z AUTO 06011KT CAVOK 05/03 Q1031 NOSIG 20-01-22",0,0,0,0,0,0,48.530277777777776,-4.151666666666667
"LFRI","LA ROCHE SUR YON LES AJONCS","FRA","20-01-22","""2020-01-22T16:30:00.000Z""","LFRI 221630Z AUTO 04012KT CAVOK 06/M00 Q1027 NOSIG 20-01-22",0,0,0,0,0,0,46.7025,-1.3816666666666666
"LFRH","LORIENT-LANN-BIHOUE","FRA","20-01-22","""2020-01-22T16:30:00.000Z""","LFRH 221630Z AUTO 05010KT CAVOK 07/M01 Q1029 NOSIG 20-01-22",0,0,0,0,0,0,47.760555555555555,-3.4400000000000004
"LFRQ","QUIMPER-PLUGUFFAN","FRA","20-01-22","""2020-01-22T16:30:00.000Z""","LFRQ 221630Z AUTO 05013KT CAVOK 07/01 Q1030 TEMPO 06015G25KT 20-01-22",0,0,0,0,0,0,47.975,-4.167777777777778
"LFRS","NANTES ATLANTIQUE","FRA","20-01-22","""2020-01-22T16:30:00.000Z""","LFRS 221630Z AUTO 04011KT 010V070 CAVOK 06/00 Q1028 NOSIG 20-01-22",0,0,0,0,0,0,47.15694444444444,-1.607777777777778
"LFSN","NANCY-ESSEY","FRA","20-01-22","""2020-01-22T16:30:00.000Z""","LFSN 221630Z AUTO 19004KT 4800 BR NSC M00/M02 Q1033 20-01-22",0,0,0,7.5,0,0,48.69222222222222,6.226111111111111
"LFSL","BRIVE SOUILLAC","FRA","20-01-22","""2020-01-22T16:30:00.000Z""","LFSL 221630Z AUTO 07007KT CAVOK 13/05 Q1024 NOSIG 20-01-22",0,0,0,0,0,0,45.03972222222222,1.4855555555555555
"LFSI","SAINT-DIZIER-ROBINSON","FRA","20-01-22","""2020-01-22T16:30:00.000Z""","LFSI 221630Z AUTO 09006KT CAVOK 03/M02 Q1033 20-01-22",0,0,0,0,0,0,48.63361111111111,4.908055555555556
"LFSD","DIJON-LONGVIC","FRA","20-01-22","""2020-01-22T16:30:00.000Z""","LFSD 221630Z AUTO 06002KT CAVOK 03/M01 Q1031 20-01-22",0,0,0,0,0,0,47.26583333333333,5.095
"LFSB","BALE-MULHOUSE","FRA","20-01-22","""2020-01-22T16:30:00.000Z""","LFSB 221630Z 35007KT 2500 BR BKN002 OVC003 M02/M02 Q1034 TEMPO FM1700 0800 FZFG VV/// 20-01-22",0,0,0,7.5,0,1,47.59,7.529166666666667
"LFRZ","SAINT-NAZAIRE-MONTOIR","FRA","20-01-22","""2020-01-22T16:30:00.000Z""","LFRZ 221630Z AUTO 04011KT CAVOK 06/01 Q1029 NOSIG 20-01-22",0,0,0,0,0,0,47.31055555555555,-2.1566666666666667
"LFRV","VANNES-MEUCON","FRA","20-01-22","""2020-01-22T16:30:00.000Z""","LFRV 221630Z AUTO 04016KT CAVOK 05/M02 Q1029 20-01-22",0,2,0,0,0,0,47.719166666666666,-2.7233333333333336
"LFRT","SAINT BRIEUC ARMOR","FRA","20-01-22","""2020-01-22T16:30:00.000Z""","LFRT 221630Z AUTO 06009KT CAVOK 05/02 Q1031 20-01-22",0,0,0,0,0,0,48.5375,-2.856666666666667
"LFSO","NANCY-OCHEY","FRA","20-01-22","""2020-01-22T16:30:00.000Z""","LFSO 221630Z AUTO 14004KT 3200 BR NSC M02/M03 Q1032 20-01-22",0,0,0,7.5,0,0,48.58305555555556,5.954444444444444
"LFST","STRASBOURG-ENTZHEIM","FRA","20-01-22","""2020-01-22T16:30:00.000Z""","LFST 221630Z AUTO VRB03KT 5000 BR OVC010 M01/M03 Q1034 BECMG OVC003 20-01-22",0,0,0,7.5,0,0,48.54194444444444,7.634444444444444
"LFSX","LUXEUIL SAINT SAUVEUR","FRA","20-01-22","""2020-01-22T16:30:00.000Z""","LFSX 221630Z AUTO VRB02KT 8000 NSC 01/M03 Q1032 20-01-22",0,0,0,0,0,0,47.78722222222222,6.364999999999999
"LFTH","HYERES-LE PALYVESTRE","FRA","20-01-22","""2020-01-22T16:30:00.000Z""","LFTH 221630Z AUTO 08015KT CAVOK 14/10 Q1027 BECMG 08015G25KT 20-01-22",0,0,0,0,0,0,43.09722222222222,6.146111111111112
"LFTW","NIMES-GARONS","FRA","20-01-22","""2020-01-22T16:30:00.000Z""","LFTW 221630Z AUTO 04009KT CAVOK 09/01 Q1026 NOSIG 20-01-22",0,0,0,0,0,0,43.7575,4.416388888888889
"LFYR","ROMORANTIN-PRUNIERS","FRA","20-01-22","""2020-01-22T16:30:00.000Z""","LFYR 221630Z AUTO 05006KT 020V080 CAVOK 06/M01 Q1030 20-01-22",0,0,0,0,0,0,47.32083333333334,1.6888888888888889
"LGBL","ALMIROS/NEA ANCHIALOS","GRC","20-01-22","""2020-01-22T16:20:00.000Z""","LGBL 221620Z 00000KT CAVOK 06/M01 Q1026 20-01-22",0,0,0,0,0,0,39.21944444444445,22.794444444444448
"LGAV","ATHINAI/ELEFTHERIOS VENIZELOS","GRC","20-01-22","""2020-01-22T16:20:00.000Z""","LGAV 221620Z 26001KT CAVOK 08/02 Q1027 NOSIG 20-01-22",0,0,0,0,0,0,37.936699999999995,23.9445
"LGAL","ALEXANDROUPOLIS/DIMOKRITOS","GRC","20-01-22","""2020-01-22T16:20:00.000Z""","LGAL 221620Z 26005KT CAVOK 06/04 Q1025 20-01-22",0,0,0,0,0,0,40.85583333333334,25.95611111111111
"LGAD","ANDRAVIDA","GRC","20-01-22","""2020-01-22T16:20:00.000Z""","LGAD 221620Z 00000KT CAVOK 08/05 Q1028 20-01-22",0,0,0,0,0,0,37.92527777777777,21.29138888888889
"LGEL","ELEFSIS","GRC","20-01-22","""2020-01-22T16:20:00.000Z""","LGEL 221620Z VRB03KT CAVOK 09/03 Q1025 20-01-22",0,0,0,0,0,0,38.069500000000005,23.554166666666667
"LGIR","IRAKLION/NIKOS KAZANTZAKIS","GRC","20-01-22","""2020-01-22T16:20:00.000Z""","LGIR 221620Z 34008KT 9999 FEW020 SCT030 12/06 Q1027 NOSIG 20-01-22",0,0,0,0,0,0,35.33972222222222,25.18027777777778
"LGKL","KALAMATA","GRC","20-01-22","""2020-01-22T16:20:00.000Z""","LGKL 221620Z 00000KT CAVOK 08/M00 Q1027 20-01-22",0,0,0,0,0,0,37.068333333333335,22.025277777777777
"LGKO","KOS/IPPOKRATIS","GRC","20-01-22","""2020-01-22T16:20:00.000Z""","LGKO 221620Z 35012G22KT CAVOK 11/04 Q1023 20-01-22",0,2,0,0,0,0,36.79472222222222,27.09111111111111
"LGKP","KARPATHOS","GRC","20-01-22","""2020-01-22T16:20:00.000Z""","LGKP 221620Z 31020KT 9999 FEW020 13/06 Q1023 20-01-22",0,2,0,0,0,0,35.42111111111111,27.145833333333332
"LGKR","KERKIRA/IOANNIS KAPODISTRIAS","GRC","20-01-22","""2020-01-22T16:20:00.000Z""","LGKR 221620Z 00000KT 9999 FEW020 11/08 Q1027 NOSIG 20-01-22",0,0,0,0,0,0,39.60194444444445,19.91222222222222
"LGKV","KAVALA/MEGAS ALEXANDROS","GRC","20-01-22","""2020-01-22T16:20:00.000Z""","LGKV 221620Z 00000KT CAVOK 07/01 Q1025 20-01-22",0,0,0,0,0,0,40.913888888888884,24.619722222222222
"LGHI","CHIOS/OMIROS","GRC","20-01-22","""2020-01-22T15:50:00.000Z""","LGHI 221550Z VRB03KT CAVOK 08/04 Q1025 20-01-22",0,0,0,0,0,0,38.343333333333334,26.140555555555554
"LGKC","KITHIRA/ALEXANDROS ARISTOTELOUS ONASSIS","GRC","20-01-22","""2020-01-22T15:50:00.000Z""","LGKC 221550Z VRB03KT CAVOK 11/07 Q1027 20-01-22",0,0,0,0,0,0,36.274166666666666,23.016666666666666
"LGKZ","KOZANI/FILIPPOS","GRC","20-01-22","""2020-01-22T15:50:00.000Z""","LGKZ 221550Z 30004KT CAVOK 09/M13 Q1026 20-01-22",0,0,0,0,0,0,40.28583333333333,21.841666666666665
"LGLM","LIMNOS/IFAISTOS","GRC","20-01-22","""2020-01-22T16:20:00.000Z""","LGLM 221620Z 00000KT CAVOK 07/03 Q1025 20-01-22",0,0,0,0,0,0,39.91722222222222,25.23638888888889
"LGMT","MITILINI/ODYSSEAS ELYTIS","GRC","20-01-22","""2020-01-22T16:20:00.000Z""","LGMT 221620Z VRB03KT CAVOK 06/01 Q1027 20-01-22",0,0,0,0,0,0,39.05777777777777,26.59861111111111
"LGPA","PAROS","GRC","20-01-22","""2020-01-22T16:20:00.000Z""","LGPA 221620Z AUTO 02006KT //// // ////// 10/05 Q1026 RE// 20-01-22",0,0,0,0,0,0,37.01027777777778,25.128055555555555
"LGPZ","PREVEZA/AKTION","GRC","20-01-22","""2020-01-22T16:20:00.000Z""","LGPZ 221620Z 28023KT CAVOK 09/07 Q1028 20-01-22",0,4,0,0,0,0,38.925555555555555,20.765
"LGRP","RODOS/DIAGORAS","GRC","20-01-22","""2020-01-22T16:20:00.000Z""","LGRP 221620Z VRB04KT CAVOK 12/03 Q1022 NOSIG 20-01-22",0,0,0,0,0,0,36.405277777777776,28.08611111111111
"LGRX","ARAXOS","GRC","20-01-22","""2020-01-22T16:20:00.000Z""","LGRX 221620Z 00000KT CAVOK 09/06 Q1028 20-01-22",0,0,0,0,0,0,38.151111111111106,21.425555555555558
"LGSA","CHANIA/IOANNIS DASKALOGIANNIS","GRC","20-01-22","""2020-01-22T16:20:00.000Z""","LGSA 221620Z 28005KT CAVOK 09/07 Q1027 20-01-22",0,0,0,0,0,0,35.53138888888889,24.15111111111111
"LGMK","MIKONOS","GRC","20-01-22","""2020-01-22T15:50:00.000Z""","LGMK 221550Z 36015KT CAVOK 10/00 Q1026 20-01-22",0,0,0,0,0,0,37.43722222222222,25.34722222222222
"LHBP","BUDAPEST LISZT FERENC INTERNATIONAL AIRPORT","HUN","20-01-22","""2020-01-22T16:30:00.000Z""","LHBP 221630Z 29010KT 8000 SCT011 M01/M03 Q1027 NOSIG 20-01-22",0,0,0,2.5,0,0,47.43944444444444,19.261944444444445
"LGIO","IOANNINA/KING PYRROS","GRC","20-01-22","""2020-01-22T16:20:00.000Z""","LGIO 221620Z VRB02KT CAVOK 07/M04 Q1027 20-01-22",0,0,0,0,0,0,39.697222222222216,20.821944444444444
"LGSM","SAMOS/ARISTARCHOS OF SAMOS","GRC","20-01-22","""2020-01-22T16:20:00.000Z""","LGSM 221620Z 03012KT CAVOK 08/M03 Q1025 20-01-22",0,0,0,0,0,0,37.689166666666665,26.91222222222222
"LGSO","SYROS/DIMITRIOS VIKELAS","GRC","20-01-22","""2020-01-22T16:20:00.000Z""","LGSO 221620Z AUTO 36010KT 330V040 //// -RA ////// 11/05 Q1026 RE// 20-01-22",0,0,0,0,0,0,37.42305555555555,24.95
"LGSR","SANTORINI","GRC","20-01-22","""2020-01-22T16:20:00.000Z""","LGSR 221620Z 36017KT CAVOK 12/05 Q1026 20-01-22",0,2,0,0,0,0,36.399166666666666,25.479166666666664
"LGTS","THESSALONIKI/MAKEDONIA","GRC","20-01-22","""2020-01-22T16:20:00.000Z""","LGTS 221620Z VRB02KT CAVOK 07/M02 Q1025 NOSIG 20-01-22",0,0,0,0,0,0,40.51972222222222,22.970916666666664
"LHDC","DEBRECEN","HUN","20-01-22","""2020-01-22T16:15:00.000Z""","LHDC 221615Z AUTO 20006KT 170V230 5000 BR OVC017 M01/M02 Q1028 NOSIG 20-01-22",0,0,0,7.5,0,0,47.48888888888889,21.61527777777778
"LHKE","KECSKEMET","HUN","20-01-22","""2020-01-22T16:15:00.000Z""","LHKE 221615Z 28008KT 4000 BR OVC008 M01/M03 Q1028 R12/01//95 NOSIG RMK GRN 20-01-22",0,0,0,7.5,0,1,46.9175,19.749166666666667
"LGZA","ZAKINTHOS/DIONISIOS SOLOMOS","GRC","20-01-22","""2020-01-22T15:50:00.000Z""","LGZA 221550Z VRB02KT 9999 FEW020 12/08 Q1028 20-01-22",0,0,0,0,0,0,37.75111111111111,20.884166666666665
"LHPA","PAPA","HUN","20-01-22","""2020-01-22T16:36:00.000Z""","LHPA 221636Z 00000KT 3000 BR SCT200 M04/M04 Q1030 RMK YLO 20-01-22",0,0,0,7.5,0,0,47.36388888888889,17.500555555555554
"LIBD","BARI/PALESE","ITA","20-01-22","""2020-01-22T16:20:00.000Z""","LIBD 221620Z 30003KT CAVOK 09/05 Q1031 20-01-22",0,0,0,0,0,0,41.13805555555555,16.765
"LHPP","PECS/POGANY","HUN","20-01-22","""2020-01-22T16:15:00.000Z""","LHPP 221615Z 33006KT 7000 NSC M01/M03 Q1028 20-01-22",0,0,0,2.5,0,0,45.98916666666667,18.242222222222225
"LHPR","GYOR/PER","HUN","20-01-22","""2020-01-22T16:15:00.000Z""","LHPR 221615Z AUTO 28003KT 6000 NCD M03/M03 Q1030 20-01-22",0,0,0,2.5,0,0,47.62722222222222,17.808333333333334
"LHSM","HEVIZ/BALATON","HUN","20-01-22","""2020-01-22T16:15:00.000Z""","LHSM 221615Z AUTO 32005KT 5000 BR BKN009 M00/M02 Q1030 20-01-22",0,0,0,7.5,0,0,46.686388888888885,17.159166666666664
"LHSN","SZOLNOK","HUN","20-01-22","""2020-01-22T16:15:00.000Z""","LHSN 221615Z 28010KT 230V310 6000 OVC011 M01/M03 Q1028 TEMPO 5000 BR RMK GRN 20-01-22",0,0,0,2.5,0,0,47.12277777777778,20.235555555555557
"LIBC","CROTONE","ITA","20-01-22","""2020-01-22T15:50:00.000Z""","LIBC 221550Z 01003KT 330V030 CAVOK 10/06 Q1031 20-01-22",0,0,0,0,0,0,38.99666666666667,17.079166666666666
"LIBG","TARANTO/GROTTAGLIE","ITA","20-01-22","""2020-01-22T15:50:00.000Z""","LIBG 221550Z 03005KT CAVOK 11/07 Q1030 20-01-22",0,0,0,0,0,0,40.51722222222222,17.399722222222223
"LICC","CATANIA/FONTANAROSSA","ITA","20-01-22","""2020-01-22T16:20:00.000Z""","LICC 221620Z 20002KT 9999 FEW020 SCT050 13/10 Q1031 20-01-22",0,0,0,0,0,0,37.46666666666667,15.06388888888889
"LIBR","BRINDISI/CASALE","ITA","20-01-22","""2020-01-22T16:20:00.000Z""","LIBR 221620Z 32009KT 9999 SCT020 11/07 Q1030 20-01-22",0,0,0,0,0,0,40.660555555555554,17.948055555555555
"LIBN","LECCE/GALATINA (MIL)","ITA","20-01-22","""2020-01-22T15:55:00.000Z""","LIBN 221555Z 34008KT 9999 FEW025 11/08 Q1030 RMK SCT SCT200 VIS MIN 9999 WIND THR14 35008KT WIND THR32 34008KT BLU 20-01-22",0,0,0,0,0,0,40.23922777777778,18.133325
"LIBY","SANTA MARIA DI LEUCA","ITA","20-01-22","""2020-01-22T15:55:00.000Z""","LIBY 221555Z 35007KT CAVOK 10/06 Q1030 RMK FEW FEW200 QUK 3 QUL 1 N VIS MAR 15 KM VIS MIN 9999 20-01-22",0,0,0,0,0,0,39.8166667,18.35
"LIBV","GIOIA DEL COLLE (MIL)","ITA","20-01-22","""2020-01-22T15:55:00.000Z""","LIBV 221555Z 02006KT CAVOK 08/04 Q1029 RMK SCT SCT200 VIS MIN 9999 WIND THR32 03007KT WIND THR14 02005KT BLU 20-01-22",0,0,0,0,0,0,40.7697,16.933016666666667
"LICA","LAMEZIA TERME","ITA","20-01-22","""2020-01-22T15:50:00.000Z""","LICA 221550Z 26005KT CAVOK 13/08 Q1031 20-01-22",0,0,0,0,0,0,38.90833333333333,16.241666666666667
"LICB","COMISO","ITA","20-01-22","""2020-01-22T15:50:00.000Z""","LICB 221550Z 11005KT 060V130 9999 SCT020 12/09 Q1030 20-01-22",0,0,0,0,0,0,36.99583333333334,14.608888888888888
"LIBP","PESCARA","ITA","20-01-22","""2020-01-22T15:50:00.000Z""","LIBP 221550Z 04004KT CAVOK 08/04 Q1031 20-01-22",0,0,0,0,0,0,42.43722222222222,14.187222222222223
"LICD","LAMPEDUSA","ITA","20-01-22","""2020-01-22T15:50:00.000Z""","LICD 221550Z 14017KT 9999 SCT040 16/12 Q1028 20-01-22",0,2,0,0,0,0,35.49805555555556,12.618333333333334
"LIEE","CAGLIARI/ELMAS","ITA","20-01-22","""2020-01-22T16:20:00.000Z""","LIEE 221620Z 12017KT 9999 SCT012 15/12 Q1027 20-01-22",0,2,0,0,0,0,39.24722222222222,9.056111111111111
"LICJ","PALERMO/PUNTA RAISI","ITA","20-01-22","""2020-01-22T16:20:00.000Z""","LICJ 221620Z VRB02KT 9999 BKN045 15/10 Q1030 20-01-22",0,0,0,0,0,0,38.18194444444444,13.099444444444446
"LIEA","ALGHERO/FERTILIA","ITA","20-01-22","""2020-01-22T16:20:00.000Z""","LIEA 221620Z VRB02KT CAVOK 16/11 Q1024 20-01-22",0,0,0,0,0,0,40.63111111111111,8.288611111111111
"LIED","DECIMOMANNU (MIL)","ITA","20-01-22","""2020-01-22T15:55:00.000Z""","LIED 221555Z 12012KT 9999 SCT040 15/12 Q1026 RMK BKN BKN200 VIS MIN 9999 WIND THR35 12015KT WIND THR17 /////KT BLU 20-01-22",0,0,0,0,0,0,39.35385,8.971725
"LIEB","CAPO BELLAVISTA","ITA","20-01-22","""2020-01-22T15:55:00.000Z""","LIEB 221555Z 19012KT 5000 BR SCT008 SCT020 14/13 Q1028 RMK BKN QUK 2 QUL 0 VIS MAR 5 KM MON INVIS VIS MIN 5000 20-01-22",0,0,0,0,0,0,39.9333333,9.7166667
"LICZ","CATANIA/SIGONELLA (MIL)","ITA","20-01-22","""2020-01-22T15:55:00.000Z""","LICZ 221555Z /////KT 9999 SCT020 BKN070 11/11 Q1031 RMK BKN VIS MIN 9999 WIND THR28 /////KT WIND THR10 /////KT A3047 BLU 20-01-22",0,0,0,0,0,0,37.40588888888889,14.923908333333333
"LICT","TRAPANI/BIRGI (MIL)","ITA","20-01-22","""2020-01-22T15:55:00.000Z""","LICT 221555Z 13010KT 9999 FEW020 14/10 Q1030 RMK BKN SCT056 BKN200 VIS MIN 9999 WIND THR13 11008KT BLU 20-01-22",0,0,0,0,0,0,37.912058333333334,12.493438888888887
"LICR","REGGIO CALABRIA","ITA","20-01-22","""2020-01-22T15:50:00.000Z""","LICR 221550Z 18003KT 9999 FEW030 13/09 Q1031 20-01-22",0,0,0,0,0,0,38.07194444444445,15.653611111111111
"LICG","PANTELLERIA (MIL)","ITA","20-01-22","""2020-01-22T15:50:00.000Z""","LICG 221550Z 10009G20KT 9999 FEW020 14/09 Q1029 20-01-22",0,2,0,0,0,0,36.81305555555555,11.960833333333333
"LIEO","OLBIA/COSTA SMERALDA","ITA","20-01-22","""2020-01-22T16:20:00.000Z""","LIEO 221620Z 11010KT 080V140 9999 FEW012 15/10 Q1027 20-01-22",0,0,0,0,0,0,40.89861111111111,9.517777777777779
"LIMJ","GENOVA/SESTRI","ITA","20-01-22","""2020-01-22T16:20:00.000Z""","LIMJ 221620Z VRB01KT CAVOK 13/03 Q1030 20-01-22",0,0,0,0,0,0,44.413333333333334,8.8375
"LIML","MILANO/LINATE","ITA","20-01-22","""2020-01-22T16:20:00.000Z""","LIML 221620Z 24004KT CAVOK 07/M02 Q1030 NOSIG 20-01-22",0,0,0,0,0,0,45.44944444444444,9.278333333333334
"LIMF","TORINO/CASELLE","ITA","20-01-22","""2020-01-22T16:20:00.000Z""","LIMF 221620Z 22004KT CAVOK 08/M04 Q1030 20-01-22",0,0,0,0,0,0,45.2025,7.649444444444444
"LIME","BERGAMO/ORIO AL SERIO","ITA","20-01-22","""2020-01-22T16:20:00.000Z""","LIME 221620Z 26004KT CAVOK 07/M04 Q1030 NOSIG 20-01-22",0,0,0,0,0,0,45.66888888888889,9.700277777777776
"LIMC","MILANO/MALPENSA","ITA","20-01-22","""2020-01-22T16:20:00.000Z""","LIMC 221620Z 24005KT CAVOK 07/M03 Q1030 NOSIG 20-01-22",0,0,0,0,0,0,45.63,8.723055555555556
"LIMH","PIAN ROSA'","ITA","20-01-22","""2020-01-22T15:55:00.000Z""","LIMH 221555Z VRB06KT CAVOK M06/M10 Q1030 RMK FEW FEW100 MON LIB VAL NIL VIS MIN 9999 20-01-22",0,0,0,0,0,0,45.9333333,7.7
"LIMK","TORINO/BRIC DELLA CROCE","ITA","20-01-22","""2020-01-22T15:55:00.000Z""","LIMK 221555Z 00000KT CAVOK 08/M15 Q1029 RMK SCT SCT200 VAL FOSCHIA VIS MIN 9999 20-01-22",0,0,0,0,0,0,45.0333333,7.7333333
"LIMA","TORINO/AERITALIA","ITA","20-01-22","""2020-01-22T15:50:00.000Z""","LIMA 221550Z 20003KT CAVOK 08/M01 Q1030 20-01-22",0,0,0,0,0,0,45.08444444444444,7.603055555555555
"LIMG","ALBENGA","ITA","20-01-22","""2020-01-22T15:50:00.000Z""","LIMG 221550Z 08004KT CAVOK 13/07 Q1031 20-01-22",0,0,0,0,0,0,44.045833333333334,8.125555555555556
"LIPE","BOLOGNA/BORGO PANIGALE","ITA","20-01-22","""2020-01-22T16:20:00.000Z""","LIPE 221620Z 28001KT CAVOK 08/M01 Q1030 20-01-22",0,0,0,0,0,0,44.530833333333334,11.296944444444444
"LIMS","PIACENZA/S.DAMIANO (MIL)","ITA","20-01-22","""2020-01-22T15:55:00.000Z""","LIMS 221555Z 27001KT CAVOK 08/03 Q1030 RMK SCT SCT200 VIS MIN 9999 WIND THR30 27001KT BLU 20-01-22",0,0,0,0,0,0,44.91386388888889,9.72058611111111
"LIMU","CAPO MELE","ITA","20-01-22","""2020-01-22T15:55:00.000Z""","LIMU 221555Z 04010KT CAVOK 14/08 Q1030 RMK FEW FEW070 QUK 3 QUL 1 E VIS MAR 35 KM VIS MIN 9999 20-01-22",0,0,0,0,0,0,43.95,8.1666667
"LIMY","MONDOVI' (MIL)","ITA","20-01-22","""2020-01-22T15:55:00.000Z""","LIMY 221555Z /////KT CAVOK 08/M03 Q1030 RMK FEW FEW070 VAL NIL VIS MIN 9999 20-01-22",0,0,0,0,0,0,44.25,7.8
"LIPC","CERVIA (MIL)","ITA","20-01-22","""2020-01-22T15:55:00.000Z""","LIPC 221555Z 12004KT CAVOK 07/03 Q1031 RMK SKC VIS MIN 9999 WIND THR11/////KT WIND THR29 13003KT BLU 20-01-22",0,0,0,0,0,0,44.22176666666667,12.317561111111111
"LIPF","FERRARA","ITA","20-01-22","""2020-01-22T15:55:00.000Z""","LIPF 221555Z ///01KT CAVOK 06/M01 Q1031 RMK FEW FEW200 VIS MIN 9999 20-01-22",0,0,0,0,0,0,44.81583333333333,11.613333333333333
"LIMP","PARMA","ITA","20-01-22","""2020-01-22T15:50:00.000Z""","LIMP 221550Z 28002KT CAVOK 08/08 Q1031 20-01-22",0,0,0,0,0,0,44.82222222222222,10.295277777777777
"LIMZ","CUNEO/LEVALDIGI","ITA","20-01-22","""2020-01-22T15:50:00.000Z""","LIMZ 221550Z 00000KT CAVOK 11/M00 Q1030 20-01-22",0,0,0,0,0,0,44.5475,7.623055555555556
"LIPB","BOLZANO","ITA","20-01-22","""2020-01-22T15:50:00.000Z""","LIPB 221550Z VRB02KT CAVOK 04/M08 Q1030 RMK MON LIB 20-01-22",0,0,0,0,0,0,46.46027777777778,11.32638888888889
"LIPH","TREVISO/S.ANGELO","ITA","20-01-22","""2020-01-22T16:20:00.000Z""","LIPH 221620Z VRB01KT CAVOK 05/M01 Q1030 20-01-22",0,0,0,0,0,0,45.65083333333333,12.197777777777778
"LIPQ","TRIESTE/RONCHI DEI LEGIONARI","ITA","20-01-22","""2020-01-22T16:20:00.000Z""","LIPQ 221620Z 30003KT CAVOK 06/02 Q1031 20-01-22",0,0,0,0,0,0,45.8275,13.472222222222223
"LIPR","RIMINI/MIRAMARE","ITA","20-01-22","""2020-01-22T16:20:00.000Z""","LIPR 221620Z 13002KT CAVOK 06/01 Q1031 20-01-22",0,0,0,0,0,0,44.019444444444446,12.609444444444444
"LIPX","VERONA/VILLAFRANCA","ITA","20-01-22","""2020-01-22T16:20:00.000Z""","LIPX 221620Z 23002KT CAVOK 06/M01 Q1030 20-01-22",0,0,0,0,0,0,45.396388888888886,10.887777777777778
"LIPZ","VENEZIA/TESSERA","ITA","20-01-22","""2020-01-22T16:20:00.000Z""","LIPZ 221620Z 20004KT 8000 NSC 04/01 Q1031 NOSIG 20-01-22",0,0,0,0,0,0,45.50527777777778,12.351944444444444
"LIPS","TREVISO/ISTRANA (MIL.)","ITA","20-01-22","""2020-01-22T15:55:00.000Z""","LIPS 221555Z /////KT CAVOK 07/02 Q1030 RMK FEW FEW200 VIS MIN 9999 WIND THR26 00000KT WIND THR08 00000KT BLU 20-01-22",0,0,0,0,0,0,45.684866666666665,12.082880555555555
"LIQC","CAPRI/ANACAPRI DAMECUTA","ITA","20-01-22","""2020-01-22T15:55:00.000Z""","LIQC 221555Z 30001KT CAVOK 13/09 Q1031 RMK SKC QUK 1 QUL 0 VIS MAR 15 KM VIS MIN 9999 20-01-22",0,0,0,0,0,0,40.5586111,14.2013889
"LIPO","BRESCIA/MONTICHIARI","ITA","20-01-22","""2020-01-22T15:50:00.000Z""","LIPO 221550Z 26006KT CAVOK 07/01 Q1030 20-01-22",0,0,0,0,0,0,45.428888888888885,10.330555555555556
"LIPY","ANCONA/FALCONARA","ITA","20-01-22","""2020-01-22T15:50:00.000Z""","LIPY 221550Z 00000KT CAVOK 08/M00 Q1031 20-01-22",0,0,0,0,0,0,43.61666666666667,13.360277777777778
"LIRA","ROMA/CIAMPINO","ITA","20-01-22","""2020-01-22T16:20:00.000Z""","LIRA 221620Z VRB01KT CAVOK 12/06 Q1030 20-01-22",0,0,0,0,0,0,41.79944444444444,12.597222222222223
"LIRF","ROMA/FIUMICINO","ITA","20-01-22","""2020-01-22T16:20:00.000Z""","LIRF 221620Z 21004KT CAVOK 13/10 Q1030 NOSIG 20-01-22",0,0,0,0,0,0,41.80027777777777,12.238888888888889
"LIQO","MONTE ARGENTARIO","ITA","20-01-22","""2020-01-22T15:55:00.000Z""","LIQO 221555Z 17006KT CAVOK 11/05 Q1029 RMK SKC VAL NIL NC VIS MIN 9999 20-01-22",0,0,0,0,0,0,42.3833333,11.1666667
"LIRE","PRATICA DI MARE (MIL)","ITA","20-01-22","""2020-01-22T15:55:00.000Z""","LIRE 221555Z 19003KT CAVOK 13/11 Q1031 RMK SKC VIS MIN 9999 WIND THR13 20003KT WIND THR31 19002KT BLU 20-01-22",0,0,0,0,0,0,41.659372222222224,12.445155555555555
"LIRH","FROSINONE (MIL)","ITA","20-01-22","""2020-01-22T15:55:00.000Z""","LIRH 221555Z 24002KT 7000 NSC 11/04 Q1029 RMK SKC MON LIB NC VIS MIN 7000 WIND THR16 /////KT WHT 20-01-22",0,0,0,0,0,0,41.644925,13.299022222222222
"LIRL","LATINA (MIL)","ITA","20-01-22","""2020-01-22T15:55:00.000Z""","LIRL 221555Z 21005KT 9999 FEW020 14/11 Q1030 RMK FEW MON LIB NC VIS MIN 9999 WIND THR12 21003KT WIND THR30 21003KT BLU 20-01-22",0,0,0,0,0,0,41.546905555555554,12.90826388888889
"LIRM","GRAZZANISE (MIL)","ITA","20-01-22","""2020-01-22T15:55:00.000Z""","LIRM 221555Z 27004KT CAVOK 13/08 Q1031 RMK SKC VIS MIN 9999 WIND THR06 26005KT BLU 20-01-22",0,0,0,0,0,0,41.06199722222222,14.082688888888889
"LIQN","RIETI","ITA","20-01-22","""2020-01-22T15:50:00.000Z""","LIQN 221550Z VRB02KT CAVOK 11/02 Q1029 20-01-22",0,0,0,0,0,0,42.42666666666666,12.85
"LIRI","SALERNO/PONTECAGNANO","ITA","20-01-22","""2020-01-22T15:50:00.000Z""","LIRI 221550Z 00000KT CAVOK 13/09 Q1030 20-01-22",0,0,0,0,0,0,40.62,14.9125
"LIRN","NAPOLI/CAPODICHINO","ITA","20-01-22","""2020-01-22T16:20:00.000Z""","LIRN 221620Z VRB02KT CAVOK 12/07 Q1030 NOSIG 20-01-22",0,0,0,0,0,0,40.88444444444444,14.290833333333333
"LIRQ","FIRENZE/PERETOLA","ITA","20-01-22","""2020-01-22T16:20:00.000Z""","LIRQ 221620Z 28002KT CAVOK 11/03 Q1030 20-01-22",0,0,0,0,0,0,43.808611111111105,11.202777777777778
"LIRP","PISA/S. GIUSTO (MIL)","ITA","20-01-22","""2020-01-22T16:15:00.000Z""","LIRP 221615Z 17002KT CAVOK 12/06 Q1031 NOSIG 20-01-22",0,0,0,0,0,0,43.68277777777777,10.395555555555555
"LIRS","GROSSETO (MIL)","ITA","20-01-22","""2020-01-22T15:55:00.000Z""","LIRS 221555Z 20005KT CAVOK 15/12 Q1031 RMK SKC VIS MIN 9999 WIND THR 03 20005KT WIND THR21 21004KT BLU 20-01-22",0,0,0,0,0,0,42.75972222222222,11.071944444444444
"LIRT","TREVICO","ITA","20-01-22","""2020-01-22T15:55:00.000Z""","LIRT 221555Z 27005KT CAVOK 06/00 Q1030 RMK SKC MON LIB VAL NIL VIS MIN 9999 20-01-22",0,0,0,0,0,0,41.05,15.2333333
"LIRV","VITERBO (MIL)","ITA","20-01-22","""2020-01-22T15:55:00.000Z""","LIRV 221555Z 22003KT CAVOK 14/05 Q1030 RMK SKC MON E SE LIB NC VIS MIN 9999 WIND THR04/////KT BLU 20-01-22",0,0,0,0,0,0,42.430277777777775,12.064166666666667
"LIRX","MONTE CALAMITA","ITA","20-01-22","""2020-01-22T15:55:00.000Z""","LIRX 221555Z 17013KT 7000 SCT004 11/10 Q1029 RMK SCT VIS MIN 7000 VIS MAR 7 KM 20-01-22",0,0,0,0,0,0,42.7308333,10.3952778
"LIRU","ROMA/URBE","ITA","20-01-22","""2020-01-22T15:50:00.000Z""","LIRU 221550Z 00000KT CAVOK 14/06 Q1031 20-01-22",0,0,0,0,0,0,41.95194444444445,12.500833333333333
"LIRZ","PERUGIA/S. FRANCESCO","ITA","20-01-22","""2020-01-22T15:50:00.000Z""","LIRZ 221550Z 15002KT CAVOK 11/04 Q1030 20-01-22",0,0,0,0,0,0,43.09722222222222,12.510277777777778
"LJCE","CERKLJE OB KRKI","SVN","20-01-22","""2020-01-22T16:30:00.000Z""","LJCE 221630Z 04004KT CAVOK 02/M02 Q1029 RMK BLU 20-01-22",0,0,0,0,0,0,45.9,15.530277777777778
"LJLJ","LJUBLJANA/BRNIK","SVN","20-01-22","""2020-01-22T16:30:00.000Z""","LJLJ 221630Z VRB01KT CAVOK 00/M03 Q1028 NOSIG 20-01-22",0,0,0,0,0,0,46.224444444444444,14.45611111111111
"LIVD","DOBBIACO (MIL)","ITA","20-01-22","""2020-01-22T15:55:00.000Z""","LIVD 221555Z /////KT CAVOK 00/M08 Q1030 RMK SKC VIS MIN 9999 20-01-22",0,0,0,0,0,0,46.7333333,12.2166667
"LIVE","S. VALENTINO ALLA MUTA (MIL)","ITA","20-01-22","""2020-01-22T15:55:00.000Z""","LIVE 221555Z 03005KT CAVOK 02/M07 Q1030 RMK SKC VIS MIN 9999 20-01-22",0,0,0,0,0,0,46.8333333,10.5
"LIVF","FRONTONE","ITA","20-01-22","""2020-01-22T15:55:00.000Z""","LIVF 221555Z 09004KT CAVOK 06/00 Q1028 RMK SKC MON LIB VAL NIL VIS MIN 9999 20-01-22",0,0,0,0,0,0,43.5166667,12.7333333
"LIVO","TARVISIO","ITA","20-01-22","""2020-01-22T15:55:00.000Z""","LIVO 221555Z 28005KT CAVOK 05/M08 Q1026 RMK SKC VIS MIN 9999 20-01-22",0,0,0,0,0,0,46.5,13.5833333
"LIVP","PAGANELLA","ITA","20-01-22","""2020-01-22T15:55:00.000Z""","LIVP 221555Z 35005KT CAVOK 03/M24 Q1029 RMK SKC MON LIB VAL NIL VIS MIN 9999 20-01-22",0,0,0,0,0,0,46.15,11.0333333
"LIVR","PASSO ROLLE","ITA","20-01-22","""2020-01-22T15:55:00.000Z""","LIVR 221555Z 33004KT CAVOK 02/M27 Q1027 RMK SKC MON LIB VIS MIN 9999 20-01-22",0,0,0,0,0,0,46.3,11.7833333
"LIVT","TRIESTE","ITA","20-01-22","""2020-01-22T15:55:00.000Z""","LIVT 221555Z /////KT CAVOK 07/00 Q1031 RMK SKC QUK 0 QUL 0 VIS MAR 15 KM VIS MIN 9999 20-01-22",0,0,0,0,0,0,45.8266666666667,13.4722226666667
"LJMB","MARIBOR/OREHOVA VAS","SVN","20-01-22","""2020-01-22T16:30:00.000Z""","LJMB 221630Z VRB02KT 1200 R32/P2000N BR OVC002 M03/M04 Q1030 20-01-22",0,0,0,7.5,0,1,46.480000000000004,15.686111111111112
"LJPZ","PORTOROZ/SECOVLJE","SVN","20-01-22","""2020-01-22T16:30:00.000Z""","LJPZ 221630Z 09004KT CAVOK 05/02 Q1031 20-01-22",0,0,0,0,0,0,45.473333333333336,13.615
"LKKV","KARLOVY VARY","CZE","20-01-22","""2020-01-22T16:30:00.000Z""","LKKV 221630Z 26004KT 210V280 9999 BKN013 01/M01 Q1030 20-01-22",0,0,0,2.5,0,0,50.20305555555556,12.915000000000001
"LKMT","OSTRAVA/MOSNOV","CZE","20-01-22","""2020-01-22T16:30:00.000Z""","LKMT 221630Z 22009KT 7000 FEW016 SCT021 OVC024 M02/M03 Q1029 NOSIG 20-01-22",0,0,0,2.5,0,0,49.69611111111111,18.110833333333336
"LKCV","CASLAV","CZE","20-01-22","""2020-01-22T16:00:00.000Z""","LKCV 221600Z 14002KT 9000 OVC013 00/M02 Q1031 NOSIG RMK GRN GRN 20-01-22",0,0,0,2.5,0,0,49.939563888888884,15.381933333333334
"LKKB","KBELY","CZE","20-01-22","""2020-01-22T16:00:00.000Z""","LKKB 221600Z VRB01KT 9999 OVC016 M00/M03 Q1031 NOSIG WHT WHT 20-01-22",0,0,0,0,0,0,50.12136666666667,14.543641666666666
"LKLN","PLZEN/LINE","CZE","20-01-22","""2020-01-22T16:00:00.000Z""","LKLN 221600Z AUTO 23005KT 9999 BKN027 OVC032 02/M02 Q1032 20-01-22",0,0,0,0,0,0,49.67527777777777,13.274444444444445
"LKNA","NAMEST","CZE","20-01-22","""2020-01-22T16:00:00.000Z""","LKNA 221600Z 32009KT 9999 BKN014 M00/M04 Q1029 NOSIG RMK GRN GRN 20-01-22",0,0,0,0,0,0,49.16620833333333,16.124383333333334
"LKPD","PARDUBICE","CZE","20-01-22","""2020-01-22T16:00:00.000Z""","LKPD 221600Z 28006KT 9999 OVC012 00/M03 Q1031 NOSIG RMK GRN GRN 20-01-22",0,0,0,0,0,0,50.01345833333333,15.73857222222222
"LZZI","ZILINA","SVK","20-01-22","""2020-01-22T16:44:00.000Z""","LZZI 221644Z 31002KT 4200 -SN BKN016 OVC025 M02/M03 Q1029 20-01-22",0,0,6.7,7.5,0,0,49.233333333333334,18.613611111111112
"LKPR","PRAHA/RUZYNE","CZE","20-01-22","""2020-01-22T16:30:00.000Z""","LKPR 221630Z 27003KT 9999 BKN018 01/M01 Q1031 NOSIG 20-01-22",0,0,0,2.5,0,0,50.100833333333334,14.26
"LKTB","BRNO/TURANY","CZE","20-01-22","""2020-01-22T16:30:00.000Z""","LKTB 221630Z 32007KT 9999 OVC017 01/M03 Q1030 R27/21//95 NOSIG 20-01-22",0,0,0,0,0,0,49.15138888888889,16.69388888888889
"LZIB","BRATISLAVA/M.R.STEFANIK","SVK","20-01-22","""2020-01-22T16:30:00.000Z""","LZIB 221630Z VRB04KT CAVOK 02/M03 Q1029 R13/CLRD// NOSIG 20-01-22",0,0,0,0,0,0,48.169999999999995,17.212777777777777
"LZKZ","KOSICE","SVK","20-01-22","""2020-01-22T16:30:00.000Z""","LZKZ 221630Z 30002KT 9999 OVC010 M02/M04 Q1027 NOSIG 20-01-22",0,0,0,2.5,0,0,48.66305555555555,21.241111111111113
"LZPP","PIESTANY","SVK","20-01-22","""2020-01-22T16:30:00.000Z""","LZPP 221630Z 33009KT 9999 SCT035 M02/M04 Q1030 20-01-22",0,0,0,2.5,0,0,48.625,17.828611111111112
"LZSL","SLIAC","SVK","20-01-22","""2020-01-22T16:30:00.000Z""","LZSL 221630Z 34002KT 9000 FEW011 M04/M05 Q1026 20-01-22",0,0,0,2.5,0,0,48.63805555555555,19.134166666666665
"LZTT","POPRAD-TATRY","SVK","20-01-22","""2020-01-22T16:30:00.000Z""","LZTT 221630Z 12005KT 9999 FEW036 M05/M05 Q1023 NOSIG 20-01-22",0,0,0,2.5,0,0,49.07361111111111,20.241111111111113
"LLBG","TEL-AVIV/BEN GURION AIRPORT","ISR","20-01-22","""2020-01-22T16:20:00.000Z""","LLBG 221620Z 14006KT 9999 SCT040 11/09 Q1022 NOSIG RMK BKN065 RERA 20-01-22",0,0,0,0,0,0,32.00944444444445,34.885555555555555
"LMML","LUQA AIRPORT","MLT","20-01-22","""2020-01-22T16:45:00.000Z""","LMML 221645Z 11007KT 9999 FEW012 SCT048 13/09 Q1030 NOSIG 20-01-22",0,0,0,0,0,0,35.85754166666667,14.477438888888889
"LOWG","GRAZ","AUT","20-01-22","""2020-01-22T16:20:00.000Z""","LOWG 221620Z 15005KT 7000 FEW005 M04/M05 Q1029 R17/15//95 TEMPO 4500 BR BKN004 20-01-22",0,0,0,2.5,0,0,46.99305555555556,15.439166666666667
"LOWI","INNSBRUCK","AUT","20-01-22","""2020-01-22T16:20:00.000Z""","LOWI 221620Z 14003KT CAVOK 01/M03 Q1031 NOSIG 20-01-22",0,0,0,0,0,0,47.26027777777778,11.34388888888889
"LOWK","KLAGENFURT","AUT","20-01-22","""2020-01-22T16:20:00.000Z""","LOWK 221620Z VRB02KT CAVOK 01/M04 Q1028 R10L/19//95 NOSIG 20-01-22",0,0,0,0,0,0,46.64277777777778,14.337222222222223
"LOAV","VOSLAU","AUT","20-01-22","""2020-01-22T16:00:00.000Z""","LOAV 221600Z 30010G20KT 40KM BKN300CI 05/M04 20-01-22",0,2,0,0,0,0,47.964444444444446,16.259444444444444
"LLHA","HAIFA/U. MICHAELI AIRPORT","ISR","20-01-22","""2020-01-22T15:50:00.000Z""","LLHA 221550Z 34011KT 9999 FEW025 14/03 Q1021 20-01-22",0,0,0,0,0,0,32.80833333333333,35.04277777777778
"LLIB","ROSH-PINA AIRPORT","ISR","20-01-22","""2020-01-22T15:50:00.000Z""","LLIB 221550Z 35005KT CAVOK 11/03 Q1020 20-01-22",0,0,0,0,0,0,32.9811111,35.5719444
"LPAZ","SANTA MARIA","PRT","20-01-22","""2020-01-22T16:30:00.000Z""","LPAZ 221630Z 05012KT 020V080 9999 FEW024 SCT027 15/09 Q1026 20-01-22",0,0,0,0,0,0,36.973888888888894,-25.171111111111113
"LPFL","FLORES","PRT","20-01-22","""2020-01-22T16:30:00.000Z""","LPFL 221630Z VRB01KT 9999 SCT015 BKN033 15/11 Q1030 20-01-22",0,0,0,0,0,0,39.45805555555556,-31.13222222222222
"LPFR","FARO","PRT","20-01-22","""2020-01-22T16:30:00.000Z""","LPFR 221630Z 06008KT 9999 -RA FEW014 SCT034 12/09 Q1012 20-01-22",0,0,0,0,0,0,37.01444444444444,-7.965833333333333
"LPHR","HORTA","PRT","20-01-22","""2020-01-22T16:30:00.000Z""","LPHR 221630Z 06014KT 9999 FEW020 SCT045 17/09 Q1029 20-01-22",0,0,0,0,0,0,38.519999999999996,-28.71638888888889
"LOWL","LINZ","AUT","20-01-22","""2020-01-22T16:20:00.000Z""","LOWL 221620Z 26009KT 220V290 8000 FEW009 BKN010 M02/M03 Q1033 BECMG BKN007 20-01-22",0,0,0,2.5,0,0,48.23527777777778,14.188055555555556
"LOWS","SALZBURG","AUT","20-01-22","""2020-01-22T16:20:00.000Z""","LOWS 221620Z VRB02KT 8000 FEW005 BKN006 M02/M03 Q1033 BECMG BKN005 20-01-22",0,0,0,2.5,0,0,47.794444444444444,13.003333333333334
"LOWW","WIEN-SCHWECHAT","AUT","20-01-22","""2020-01-22T16:20:00.000Z""","LOWW 221620Z 36005KT 9999 FEW038 SCT045 01/M02 Q1030 R88/19//95 NOSIG 20-01-22",0,0,0,0,0,0,48.11027777777778,16.56972222222222
"LOXZ","ZELTWEG MIL","AUT","20-01-22","""2020-01-22T16:20:00.000Z""","LOXZ 221620Z VRB02KT 40KM FEW300CI M01/M05 Q1027 NOSIG 20-01-22",0,0,0,0,0,0,47.203611111111115,14.745833333333332
"LPBJ","BEJA","PRT","20-01-22","""2020-01-22T16:00:00.000Z""","LPBJ 221600Z 09005KT 9999 -DZ SCT009 BKN015 BKN020 09/07 Q1014 20-01-22",0,0,0,0,0,0,38.07888888888889,-7.9325
"LPPD","PONTA DELGADA","PRT","20-01-22","""2020-01-22T16:30:00.000Z""","LPPD 221630Z 05014KT 020V080 9999 FEW025 SCT040 15/09 Q1027 20-01-22",0,0,0,0,0,0,37.74194444444444,-25.697777777777777
"LPMA","MADEIRA","PRT","20-01-22","""2020-01-22T16:30:00.000Z""","LPMA 221630Z 35008KT 300V030 9999 SCT015 16/07 Q1017 20-01-22",0,0,0,0,0,0,32.69416666666666,-16.778055555555554
"LPPT","LISBOA","PRT","20-01-22","""2020-01-22T16:30:00.000Z""","LPPT 221630Z 04009KT 9999 -RA SCT006 SCT015 BKN036 09/08 Q1014 20-01-22",0,0,0,0,0,0,38.774166666666666,-9.134166666666665
"LPPS","PORTO SANTO","PRT","20-01-22","""2020-01-22T16:30:00.000Z""","LPPS 221630Z 33010KT 9999 FEW015 16/08 Q1016 20-01-22",0,0,0,0,0,0,33.07083333333334,-16.349722222222223
"LPPR","PORTO","PRT","20-01-22","""2020-01-22T16:30:00.000Z""","LPPR 221630Z 06007KT 330V110 9999 FEW022 15/05 Q1016 20-01-22",0,0,0,0,0,0,41.23555555555556,-8.678055555555554
"LPLA","LAJES","PRT","20-01-22","""2020-01-22T16:00:00.000Z""","LPLA 221600Z /////KT 9999 FEW025 BKN035 16/09 Q1029 20-01-22",0,0,0,0,0,0,38.761944444444445,-27.090833333333332
"LPOV","OVAR","PRT","20-01-22","""2020-01-22T16:00:00.000Z""","LPOV 221600Z 07008KT 9999 FEW040 15/05 Q1015 20-01-22",0,0,0,0,0,0,40.92027777777778,-8.643888888888888
"LPMT","MONTIJO","PRT","20-01-22","""2020-01-22T16:00:00.000Z""","LPMT 221600Z 04009G20KT 9999 SCT035 SCT045 10/08 Q1014 20-01-22",0,2,0,0,0,0,38.705000000000005,-9.0375
"LPMR","MONTE REAL","PRT","20-01-22","""2020-01-22T16:00:00.000Z""","LPMR 221600Z 11008KT 9999 -RA FEW020 SCT035 11/06 Q1015 20-01-22",0,0,0,0,0,0,39.82833333333333,-8.8875
"LPST","SINTRA","PRT","20-01-22","""2020-01-22T16:00:00.000Z""","LPST 221600Z 05005KT 020V090 SCT025 BKN040 09/07 Q1014 20-01-22",0,0,0,0,0,0,38.83416666666667,-9.341111111111111
"BKPR","PRISTINA AIRPORT, UNMIK (ON A TEMPORARY BASIS)","UNK","20-01-22","""2020-01-22T16:30:00.000Z""","BKPR 221630Z 00000KT 8000 NSC 01/M04 Q1027 NOSIG RMK 17010095 20-01-22",0,0,0,0,0,0,42.57277777777778,21.035833333333336
"LYPG","PODGORICA","MNE","20-01-22","""2020-01-22T16:30:00.000Z""","LYPG 221630Z VRB01KT CAVOK 06/M03 Q1030 NOSIG 20-01-22",0,0,0,0,0,0,42.35939444444445,19.25187777777778
"LYNI","NIS/KONSTANTIN VELIKI","SRB","20-01-22","""2020-01-22T16:30:00.000Z""","LYNI 221630Z 08003KT 9000 NSC 01/M05 Q1027 NOSIG 20-01-22",0,0,0,0,0,0,43.33728888888889,21.853722222222224
"LYKV","KRALJEVO/LADJEVCI","SRB","20-01-22","""2020-01-22T16:30:00.000Z""","LYKV 221630Z 00000KT 6000 NSC M02/M02 Q1028 NOSIG 20-01-22",0,0,0,2.5,0,0,43.81810277777778,20.586091666666665
"LYBT","BEOGRAD/BATAJNICA","SRB","20-01-22","""2020-01-22T16:30:00.000Z""","LYBT 221630Z 24003KT 6000 NSC 01/M01 Q1027 NOSIG 20-01-22",0,0,0,2.5,0,0,44.941002777777776,20.25072777777778
"LYBE","BEOGRAD/NIKOLA TESLA","SRB","20-01-22","""2020-01-22T16:30:00.000Z""","LYBE 221630Z 25006KT 7000 NSC 02/M01 Q1028 NOSIG 20-01-22",0,0,0,0,0,0,44.819383333333334,20.307066666666667
"LQSA","SARAJEVO","BIH","20-01-22","""2020-01-22T16:30:00.000Z""","LQSA 221630Z 00000KT 3000 BR NSC M02/M05 Q1028 NOSIG 20-01-22",0,0,0,7.5,0,0,43.82447222222223,18.331766666666667
"LQBK","BANJA LUKA","BIH","20-01-22","""2020-01-22T16:30:00.000Z""","LQBK 221630Z 20003KT 6000 NSC M01/M03 Q1029 NOSIG 20-01-22",0,0,0,2.5,0,0,44.94139722222222,17.297475000000002
"LYUZ","UZICE/PONIKVE","SRB","20-01-22","""2020-01-22T16:30:00.000Z""","LYUZ 221630Z 28003KT 220V310 CAVOK 00/M11 Q1026 20-01-22",0,0,0,0,0,0,43.90085277777778,19.688813888888888
"LQTZ","TUZLA","BIH","20-01-22","""2020-01-22T16:00:00.000Z""","LQTZ 221600Z VRB01KT CAVOK 00/M03 Q1027 20-01-22",0,0,0,0,0,0,44.45865277777778,18.724780555555554
"LYVR","VRSAC","SRB","20-01-22","""2020-01-22T16:30:00.000Z""","LYVR 221630Z VRB02KT CAVOK M00/M03 Q1028 NOSIG 20-01-22",0,0,0,0,0,0,45.147708333333334,21.30973611111111
"LYTV","TIVAT","MNE","20-01-22","""2020-01-22T16:30:00.000Z""","LYTV 221630Z VRB01KT CAVOK 06/03 Q1029 NOSIG 20-01-22",0,0,0,0,0,0,42.40466388888889,18.723286111111108
"LRCV","CRAIOVA/CRAIOVA","ROU","20-01-22","""2020-01-22T16:30:00.000Z""","LRCV 221630Z 26010KT CAVOK 06/M09 Q1021 20-01-22",0,0,0,0,0,0,44.31805555555556,23.88861111111111
"LRCL","CLUJ NAPOCA/AVRAM IANCU","ROU","20-01-22","""2020-01-22T16:30:00.000Z""","LRCL 221630Z VRB02KT 9999 OVC018 M01/M04 Q1025 R07/15//95 20-01-22",0,0,0,0,0,0,46.78916666666667,23.692222222222224
"LRCK","CONSTANTA/MIHAIL KOGALNICEANU-CONSTANTA","ROU","20-01-22","""2020-01-22T16:30:00.000Z""","LRCK 221630Z 26020KT CAVOK 04/M03 Q1019 NOSIG 20-01-22",0,2,0,0,0,0,44.36222222222222,28.488333333333333
"LRBS","BUCURESTI/BANEASA-AUREL VLAICU","ROU","20-01-22","""2020-01-22T16:30:00.000Z""","LRBS 221630Z 25010KT CAVOK 05/M03 Q1020 NOSIG 20-01-22",0,0,0,0,0,0,44.50361111111111,26.103611111111114
"LRBM","BAIA MARE/BAIA MARE","ROU","20-01-22","""2020-01-22T16:30:00.000Z""","LRBM 221630Z 28004KT 5000 BR SCT014 OVC021 M02/M02 Q1027 R09/29//95 20-01-22",0,0,0,7.5,0,0,47.658249999999995,23.466219444444445
"LRBC","BACAU/BACAU","ROU","20-01-22","""2020-01-22T16:30:00.000Z""","LRBC 221630Z 26012KT CAVOK 06/M08 Q1017 20-01-22",0,0,0,0,0,0,46.52194444444444,26.910277777777775
"LRAR","ARAD/ARAD","ROU","20-01-22","""2020-01-22T16:30:00.000Z""","LRAR 221630Z 33004KT 8000 SCT018 BKN024 00/M02 Q1028 20-01-22",0,0,0,2.5,0,0,46.17666666666666,21.261944444444445
"LQMO","MOSTAR","BIH","20-01-22","""2020-01-22T16:00:00.000Z""","LQMO 221600Z 26002KT CAVOK 08/M06 Q1028 20-01-22",0,0,0,0,0,0,43.28290277777778,17.845880555555553
"LRIA","IASI/IASI","ROU","20-01-22","""2020-01-22T16:30:00.000Z""","LRIA 221630Z 32015KT CAVOK 07/M05 Q1017 20-01-22",0,0,0,0,0,0,47.180277777777775,27.620833333333334
"LRTR","TIMISOARA/TRAIAN VUIA","ROU","20-01-22","""2020-01-22T16:30:00.000Z""","LRTR 221630Z 01005KT 8000 FEW021 M02/M03 Q1028 20-01-22",0,0,0,2.5,0,0,45.80983333333333,21.33787222222222
"LRTM","TARGU MURES/TRANSILVANIA-TARGU MURES","ROU","20-01-22","""2020-01-22T16:30:00.000Z""","LRTM 221630Z 25004KT 8000 FEW015 BKN021 M01/M03 Q1026 R07/19//95 20-01-22",0,0,0,2.5,0,0,46.467777777777776,24.412499999999998
"LRTC","TULCEA/DELTA DUNARII","ROU","20-01-22","""2020-01-22T16:30:00.000Z""","LRTC 221630Z AUTO 26017KT 9999 NCD 04/M03 Q1018 20-01-22",0,2,0,0,0,0,45.062777777777775,28.714444444444442
"LRSV","SUCEAVA/STEFAN CEL MARE-SUCEAVA","ROU","20-01-22","""2020-01-22T16:30:00.000Z""","LRSV 221630Z 34014KT CAVOK 03/M04 Q1018 20-01-22",0,0,0,0,0,0,47.686388888888885,26.354444444444447
"LRSM","SATU MARE/SATU MARE","ROU","20-01-22","""2020-01-22T16:30:00.000Z""","LRSM 221630Z 25005KT 7000 SCT015 OVC021 M01/M02 Q1027 R01/19//95 20-01-22",0,0,0,2.5,0,0,47.70333333333333,22.885555555555555
"LRSB","SIBIU/SIBIU","ROU","20-01-22","""2020-01-22T16:30:00.000Z""","LRSB 221630Z 33005KT 8000 SCT019 M02/M05 Q1025 R27/19//95 20-01-22",0,0,0,0,0,0,45.78583333333333,24.085555555555555
"LROP","BUCURESTI/HENRI COANDA","ROU","20-01-22","""2020-01-22T16:30:00.000Z""","LROP 221630Z 25008KT CAVOK 03/M02 Q1020 NOSIG 20-01-22",0,0,0,0,0,0,44.571111111111115,26.084999999999997
"LROD","ORADEA/ORADEA","ROU","20-01-22","""2020-01-22T16:30:00.000Z""","LROD 221630Z 19007KT 8000 OVC019 M01/M03 Q1027 20-01-22",0,0,0,2.5,0,0,47.025277777777774,21.9025
"LSGC","LES EPLATURES","CHE","20-01-22","""2020-01-22T16:20:00.000Z""","LSGC 221620Z AUTO 00000KT CAVOK 03/M03 Q1029 20-01-22",0,0,0,0,0,0,47.08416666666667,6.793611111111111
"LSGG","GENEVA","CHE","20-01-22","""2020-01-22T16:20:00.000Z""","LSGG 221620Z 08002KT 9000 NSC 03/M01 Q1031 NOSIG 20-01-22",0,0,0,0,0,0,46.23833333333334,6.109444444444444
"LSGS","SION","CHE","20-01-22","""2020-01-22T16:20:00.000Z""","LSGS 221620Z 24004KT CAVOK 04/M01 Q1030 20-01-22",0,0,0,0,0,0,46.219166666666666,7.326944444444444
"LSMD","DUBENDORF","CHE","20-01-22","""2020-01-22T16:20:00.000Z""","LSMD 221620Z 00000KT 3700 BR OVC005 M01/M02 Q1032 RMK YLO 20-01-22",0,0,0,7.5,0,1,47.396966666666664,8.647191666666666
"LSME","EMMEN","CHE","20-01-22","""2020-01-22T16:20:00.000Z""","LSME 221620Z VRB01KT 1000 R04/2000N R22/1400N FZFG OVC002 M02/M02 Q1032 RMK AMB 20-01-22",0,0,10,10,0,1,47.09215277777778,8.304847222222223
"LSMP","PAYERNE","CHE","20-01-22","""2020-01-22T16:20:00.000Z""","LSMP 221620Z 33002KT 6000 NSC 02/M01 Q1031 RMK WHT 20-01-22",0,0,0,0,0,0,46.8425,6.913611111111112
"LSZA","LUGANO","CHE","20-01-22","""2020-01-22T16:20:00.000Z""","LSZA 221620Z 19004KT 150V210 CAVOK 09/M06 Q1030 NOSIG 20-01-22",0,0,0,0,0,0,46.00361111111111,8.910277777777779
"LSZB","BERN-BELP","CHE","20-01-22","""2020-01-22T16:20:00.000Z""","LSZB 221620Z 32005KT CAVOK 02/M02 Q1031 NOSIG 20-01-22",0,0,0,0,0,0,46.91222222222222,7.4991666666666665
"LSZC","BUOCHS","CHE","20-01-22","""2020-01-22T16:20:00.000Z""","LSZC 221620Z AUTO 15003KT 3800 BR OVC006 00/M01 Q1032 20-01-22",0,0,0,7.5,0,1,46.974444444444444,8.396944444444443
"LSZG","GRENCHEN","CHE","20-01-22","""2020-01-22T16:20:00.000Z""","LSZG 221620Z 06005KT 7000 NSC M01/M02 Q1032 NOSIG 20-01-22",0,0,0,2.5,0,0,47.18138888888889,7.416388888888889
"LSZH","ZURICH","CHE","20-01-22","""2020-01-22T16:20:00.000Z""","LSZH 221620Z 04003KT 010V140 4500 BR FEW006 BKN007 M01/M03 Q1033 NOSIG 20-01-22",0,0,0,7.5,0,1,47.45805555555556,8.548055555555555
"LSZL","LOCARNO","CHE","20-01-22","""2020-01-22T16:20:00.000Z""","LSZL 221620Z AUTO 10003KT 9999NDV NCD 04/M04 Q1031 RMK 20-01-22",0,0,0,0,0,0,46.16083333333333,8.87861111111111
"LSZR","ST. GALLEN-ALTENRHEIN","CHE","20-01-22","""2020-01-22T16:20:00.000Z""","LSZR 221620Z 11003KT 3300 BR OVC005 M01/M01 Q1033 NOSIG RMK L 20-01-22",0,0,0,7.5,0,1,47.485,9.561944444444444
"LSZS","SAMEDAN","CHE","20-01-22","""2020-01-22T16:20:00.000Z""","LSZS 221620Z VRB03KT CAVOK M05/M10 Q1030 RMK S TL170 20-01-22",0,0,0,0,0,0,46.53444444444444,9.883888888888889
"LTAC","ANKARA/ESENBOGA","TUR","20-01-22","""2020-01-22T16:20:00.000Z""","LTAC 221620Z 27003KT 9999 FEW040 M01/M06 Q1024 NOSIG RMK RWY21L 23006KT RWY03L VRB02KT RWY21R 24003KT 20-01-22",0,0,0,0,0,0,40.128055555555555,32.995
"LTAF","ADANA","TUR","20-01-22","""2020-01-22T16:20:00.000Z""","LTAF 221620Z 31003KT CAVOK 11/01 Q1020 NOSIG RMK RWY23 31004KT 20-01-22",0,0,0,0,0,0,36.98222222222223,35.280277777777776
"LTAG","ADANA/INCIRLIK (MIL)","TUR","20-01-22","""2020-01-22T16:20:00.000Z""","LTAG 221620Z 34007KT CAVOK 09/M06 Q1020 NOSIG 20-01-22",0,0,0,0,0,0,37.00205555555556,35.425975
"LTAI","ANTALYA (MIL-CIV)","TUR","20-01-22","""2020-01-22T16:20:00.000Z""","LTAI 221620Z 35010KT CAVOK 12/M11 Q1021 NOSIG RMK RWY18C 34009KT RWY36R 34011KT RWY18L 35011KT 20-01-22",0,0,0,0,0,0,36.900277777777774,30.79277777777778
"LTAJ","GAZIANTEP","TUR","20-01-22","""2020-01-22T16:20:00.000Z""","LTAJ 221620Z 02005KT CAVOK 04/M06 Q1018 NOSIG RMK RWY10 35003KT 20-01-22",0,0,0,0,0,0,36.94777777777777,37.47888888888889
"LTAP","AMASYA/MERZIFON (MIL-CIV)","TUR","20-01-22","""2020-01-22T16:20:00.000Z""","LTAP 221620Z 13003KT 9999 FEW040 BKN080 02/M04 Q1023 NOSIG RMK RWY23 15005KT 20-01-22",0,0,0,0,0,0,40.82944444444445,35.52222222222222
"LTAT","MALATYA (MIL/CIV)","TUR","20-01-22","""2020-01-22T16:20:00.000Z""","LTAT 221620Z VRB04KT CAVOK 01/M09 Q1021 NOSIG RMK RWY03 27006KT 230V300 20-01-22",0,0,0,0,0,0,38.43222222222222,38.08305555555556
"LTAU","KAYSERI (MIL-CIV)","TUR","20-01-22","""2020-01-22T16:20:00.000Z""","LTAU 221620Z 34003KT 320V020 CAVOK M02/M06 Q1024 NOSIG RMK RWY07 28004KT 20-01-22",0,0,0,0,0,0,38.77027777777778,35.49527777777778
"LTAN","KONYA (MIL-CIV)","TUR","20-01-22","""2020-01-22T15:50:00.000Z""","LTAN 221550Z 34004KT 9999 FEW040 M03/M06 Q1025 NOSIG 20-01-22",0,0,0,0,0,0,37.980555555555554,32.5625
"LTAR","SIVAS/NURI DEMIRAG ","TUR","20-01-22","""2020-01-22T15:50:00.000Z""","LTAR 221550Z 29007KT 9999 SCT010 BKN025 M06/M07 Q1021 20-01-22",0,0,0,2.5,0,0,39.814166666666665,36.902499999999996
"LTAZ","KAPADOKYA","TUR","20-01-22","""2020-01-22T16:20:00.000Z""","LTAZ 221620Z 15007KT CAVOK M01/M07 Q1025 RMK RWY29 15007KT 20-01-22",0,0,0,0,0,0,38.775277777777774,34.526666666666664
"LTBA","ISTANBUL/ATATURK","TUR","20-01-22","""2020-01-22T16:20:00.000Z""","LTBA 221620Z 22010KT CAVOK 06/02 Q1025 NOSIG RMK RWY17L 21007KT RWY05 23009KT RWY23 23007KT 20-01-22",0,0,0,0,0,0,40.976111111111116,28.81416666666667
"LTBJ","IZMIR/ADNAN MENDERES","TUR","20-01-22","""2020-01-22T16:20:00.000Z""","LTBJ 221620Z 01011KT CAVOK 07/M01 Q1025 NOSIG RMK RWY16 01010KT 20-01-22",0,0,0,0,0,0,38.28916666666667,27.154999999999998
"LTAY","DENIZLI/CARDAK (MIL-CIV)","TUR","20-01-22","""2020-01-22T15:50:00.000Z""","LTAY 221550Z 30001KT CAVOK 04/M08 Q1024 20-01-22",0,0,0,0,0,0,37.78777777777778,29.705
"LTBF","BALIKESIR/MERKEZ (MIL-CIV)","TUR","20-01-22","""2020-01-22T15:50:00.000Z""","LTBF 221550Z 00000KT CAVOK 03/M01 Q1027 NOSIG 20-01-22",0,0,0,0,0,0,39.61555555555556,27.93277777777778
"LTBH","CANAKKALE (MIL-CIV)","TUR","20-01-22","""2020-01-22T15:50:00.000Z""","LTBH 221550Z VRB02KT CAVOK 04/M01 Q1026 20-01-22",0,0,0,0,0,0,40.138333333333335,26.42777777777778
"LTBQ","KOCAELI/CENGIZ TOPEL (MIL-CIV)","TUR","20-01-22","""2020-01-22T15:50:00.000Z""","LTBQ 221550Z VRB03KT 8000 NSC 05/02 Q1026 NOSIG 20-01-22",0,0,0,0,0,0,40.735,30.083333333333332
"LTBR","BURSA/YENISEHIR (MIL-CIV)","TUR","20-01-22","""2020-01-22T16:20:00.000Z""","LTBR 221620Z 22003KT CAVOK 03/M00 Q1025 NOSIG RMK RWY07 VRB01KT 20-01-22",0,0,0,0,0,0,40.255833333333335,29.561944444444446
"LTCE","ERZURUM (MIL-CIV)","TUR","20-01-22","""2020-01-22T16:20:00.000Z""","LTCE 221620Z 00000KT CAVOK M11/M13 Q1019 NOSIG RMK RWY08R 00000KT RWY26R 00000KT RWY08L VRB02KT 20-01-22",0,0,0,2.5,0,0,39.95583333333334,41.17055555555555
"LTCC","DIYARBAKIR (MIL-CIV)","TUR","20-01-22","""2020-01-22T16:20:00.000Z""","LTCC 221620Z 32009KT CAVOK 03/M06 Q1017 NOSIG RMK RWY16 34012KT 20-01-22",0,0,0,0,0,0,37.8925,40.20111111111111
"LTBU","TEKIRDAG/CORLU (MIL-CIV)","TUR","20-01-22","""2020-01-22T16:20:00.000Z""","LTBU 221620Z 23006KT CAVOK 01/M00 Q1024 RMK RWY22 24005KT 20-01-22",0,0,0,2.5,0,0,41.129444444444445,27.906388888888888
"LTBS","MUGLA/DALAMAN (MIL.CIV.)","TUR","20-01-22","""2020-01-22T16:20:00.000Z""","LTBS 221620Z 12006KT CAVOK 11/03 Q1021 NOSIG RMK RWY19 VRB02KT 20-01-22",0,0,0,0,0,0,36.712500000000006,28.79138888888889
"LTCG","TRABZON","TUR","20-01-22","""2020-01-22T16:20:00.000Z""","LTCG 221620Z 18006KT 9999 SCT035 BKN080 08/01 Q1025 NOSIG RMK RWY29 18006KT 20-01-22",0,0,0,0,0,0,40.99583333333334,39.78527777777778
"LTBY","ESKISEHIR/HASAN POLATKAN","TUR","20-01-22","""2020-01-22T15:50:00.000Z""","LTBY 221550Z 11003KT CAVOK M01/M05 Q1024 20-01-22",0,0,0,0,0,0,39.8125,30.520555555555553
"LTCA","ELAZIG (MIL-CIV)","TUR","20-01-22","""2020-01-22T15:50:00.000Z""","LTCA 221550Z 22006KT CAVOK 00/M07 Q1019 NOSIG 20-01-22",0,0,0,0,0,0,38.59777777777778,39.28138888888889
"LTCD","ERZINCAN (MIL-CIV)","TUR","20-01-22","""2020-01-22T15:50:00.000Z""","LTCD 221550Z 32005KT 9999 FEW045 BKN120 M01/M10 Q1021 NOSIG 20-01-22",0,0,0,0,0,0,39.713055555555556,39.52055555555555
"LTCF","KARS/HARAKANI","TUR","20-01-22","""2020-01-22T15:50:00.000Z""","LTCF 221550Z VRB02KT 9999 SCT035 M10/M13 Q1017 20-01-22",0,0,0,0,0,0,40.56222222222222,43.11472222222223
"LTCJ","BATMAN (MIL-CIV)","TUR","20-01-22","""2020-01-22T16:20:00.000Z""","LTCJ 221620Z 05007KT CAVOK 01/M04 Q1016 RMK RWY20 06007KT 20-01-22",0,0,0,0,0,0,37.93222222222222,41.11638888888889
"LTCS","SANLIURFA/GAP","TUR","20-01-22","""2020-01-22T16:20:00.000Z""","LTCS 221620Z 32008KT CAVOK 03/M05 Q1018 RMK RWY22 36008KT 330V030 20-01-22",0,0,0,0,0,0,37.45666666666667,38.90833333333333
"LTCI","VAN/ FERIT MELEN","TUR","20-01-22","""2020-01-22T15:50:00.000Z""","LTCI 221550Z 14005KT 9999 BKN025 M02/M07 Q1017 NOSIG 20-01-22",0,0,0,0,0,0,38.46805555555556,43.33222222222223
"LTCM","SINOP","TUR","20-01-22","""2020-01-22T15:50:00.000Z""","LTCM 221550Z 21004KT 9999 FEW030 BKN090 08/03 Q1024 20-01-22",0,0,0,0,0,0,42.01583333333333,35.06638888888889
"LTCN","KAHRAMANMARAS","TUR","20-01-22","""2020-01-22T15:50:00.000Z""","LTCN 221550Z 08003KT 360V170 CAVOK 06/M04 Q1018 NOSIG 20-01-22",0,0,0,0,0,0,37.538333333333334,36.95194444444445
"LUKK","CHISINAU/INTERNATIONAL","MDA","20-01-22","""2020-01-22T16:30:00.000Z""","LUKK 221630Z 34012KT CAVOK 08/M05 Q1016 R26/D TEMPO 34020G30KT 20-01-22",0,0,0,0,0,0,46.927794444444444,28.93092777777778
"LTFC","ISPARTA/S.DEMIREL","TUR","20-01-22","""2020-01-22T16:20:00.000Z""","LTFC 221620Z 34008KT CAVOK 02/M12 Q1023 RMK RWY23 32006KT 20-01-22",0,0,0,0,0,0,37.85583333333334,30.366944444444446
"LTFE","MUGLA/MILAS-BODRUM","TUR","20-01-22","""2020-01-22T16:20:00.000Z""","LTFE 221620Z 04004KT 330V080 CAVOK 10/M05 Q1023 NOSIG RMK RWY10 VRB03KT 20-01-22",0,0,0,0,0,0,37.24944444444444,27.66472222222222
"LTFJ","ISTANBUL/SABIHA GOKCEN","TUR","20-01-22","""2020-01-22T16:20:00.000Z""","LTFJ 221620Z 23007KT CAVOK 05/02 Q1025 NOSIG RMK RWY24 21005KT 20-01-22",0,0,0,0,0,0,40.89833333333333,29.309166666666666
"LTDA","HATAY","TUR","20-01-22","""2020-01-22T15:50:00.000Z""","LTDA 221550Z 27010KT CAVOK 12/M06 Q1019 NOSIG 20-01-22",0,0,0,0,0,0,36.37222222222222,36.29861111111111
"LTFD","BALIKESIR/KOCA SEYIT","TUR","20-01-22","""2020-01-22T15:50:00.000Z""","LTFD 221550Z 14002KT CAVOK 06/01 Q1026 20-01-22",0,0,0,0,0,0,39.552499999999995,27.010277777777777
"LTFG","GAZIPASA - ALANYA","TUR","20-01-22","""2020-01-22T15:50:00.000Z""","LTFG 221550Z VRB02KT CAVOK 07/04 Q1021 20-01-22",0,0,0,0,0,0,36.29944444444444,32.30138888888889
"LTFH","SAMSUN/CARSAMBA","TUR","20-01-22","""2020-01-22T15:50:00.000Z""","LTFH 221550Z 16007KT CAVOK 08/M02 Q1024 NOSIG 20-01-22",0,0,0,0,0,0,41.26555555555556,36.54861111111111
"GABS","BAMAKO/SENOU","MLI","20-01-22","""2020-01-22T16:30:00.000Z""","GABS 221630Z VRB02KT 6000 NSC 33/06 Q1013 NOSIG 20-01-22",0,0,0,0,0,0,12.53786388888889,-7.94325
"LWOH","OHRID","MKD","20-01-22","""2020-01-22T16:30:00.000Z""","LWOH 221630Z 04002KT CAVOK 00/M05 Q1028 20-01-22",0,0,0,0,0,0,41.17992222222222,20.742327777777778
"LWSK","SKOPJE","MKD","20-01-22","""2020-01-22T16:30:00.000Z""","LWSK 221630Z 00000KT CAVOK 00/M04 Q1028 NOSIG 20-01-22",0,0,0,0,0,0,41.961666666666666,21.62138888888889
"LXGB","GIBRALTAR (NORTH FRONT)","GBR","20-01-22","""2020-01-22T16:22:00.000Z""","LXGB 221622Z 08009KT 9999 -SHRA FEW018 FEW025CB SCT029 BKN050 13/09 Q1015 TEMPO SCT022CB 20-01-22",0,0,3.3,0,2.7,0,36.15116666666667,-5.349666666666667
"GBYD","BANJUL INTERNATIONAL","GMB","20-01-22","""2020-01-22T16:00:00.000Z""","GBYD 221600Z 17005KT 9000 NSC 30/13 Q1010 20-01-22",0,0,0,0,0,0,13.342522222222224,-16.65781388888889
"GLRB","MONROVIA/ROBERTS INTL","LBR","20-01-22","""2020-01-22T16:30:00.000Z""","GLRB 221630Z 02005KT 9999 BKN011 FEW023CB 24/23 Q1010 RETS RMK CB-W/NW 20-01-22",0,0,0,0,1.3,0,6.240444444444445,-10.359877777777777
"GMAD","AGADIR/AL MASSIRA","MAR","20-01-22","""2020-01-22T16:30:00.000Z""","GMAD 221630Z 24009KT 210V280 9999 SCT026TCU 18/07 Q1015 NOSIG 20-01-22",0,0,0,0,1.7,0,30.322499999999998,-9.411388888888888
"GMFF","FES/SAISS","MAR","20-01-22","""2020-01-22T16:30:00.000Z""","GMFF 221630Z 11004KT 9999 BKN030 SCT040CB 10/07 Q1016 NOSIG 20-01-22",0,0,0,0,2,0,33.92722222222222,-4.977777777777778
"GMFO","OUJDA/ANGADS","MAR","20-01-22","""2020-01-22T16:30:00.000Z""","GMFO 221630Z 31007KT 9999 FEW026 13/07 Q1015 NOSIG 20-01-22",0,0,0,0,0,0,34.78611111111111,-1.9255555555555555
"GMAT","TAN-TAN/PLAGE BLANCHE","MAR","20-01-22","""2020-01-22T16:00:00.000Z""","GMAT 221600Z 30010KT 9999 SCT016 16/08 Q1016 NOSIG 20-01-22",0,0,0,0,0,0,28.448333333333334,-11.161388888888888
"GMFK","ERRACHIDIA/MOULAY ALI CHERIF","MAR","20-01-22","""2020-01-22T16:00:00.000Z""","GMFK 221600Z 25011KT 210V270 9999 SCT026 13/M03 Q1016 NOSIG 20-01-22",0,0,0,0,0,0,31.948055555555555,-4.400555555555556
"GUCY","CONAKRY/GBESSIA","GIN","20-01-22","""2020-01-22T16:00:00.000Z""","GUCY 221600Z 18010KT 3000 HZ BKN110 31/21 Q1011 NOSIG 20-01-22",0,0,0,0,0,0,9.576888888888888,-13.611916666666666
"GMME","RABAT/SALE","MAR","20-01-22","""2020-01-22T16:30:00.000Z""","GMME 221630Z 23006KT 210V270 6000 SCT016 SCT026 BKN060 14/10 Q1014 RERA NOSIG 20-01-22",0,0,0,0,0,0,34.05138888888889,-6.751666666666667
"GMMN","CASABLANCA/MOHAMMED V","MAR","20-01-22","""2020-01-22T16:30:00.000Z""","GMMN 221630Z 20013KT 130V220 9999 SCT020 SCT063 16/08 Q1015 NOSIG 20-01-22",0,0,0,0,0,0,33.36416666666667,-7.581666666666666
"GMMX","MARRAKECH/MENARA","MAR","20-01-22","""2020-01-22T16:30:00.000Z""","GMMX 221630Z 31005KT 270V340 9999 BKN023 15/06 Q1015 NOSIG 20-01-22",0,0,0,0,0,0,31.608611111111113,-8.040833333333333
"GMTT","TANGER/IBN BATOUTA","MAR","20-01-22","""2020-01-22T16:30:00.000Z""","GMTT 221630Z 12005KT 8000 SCT013 FEW040TCU BKN050 13/08 Q1014 NOSIG 20-01-22",0,0,0,0,1,0,35.73166666666667,-5.921111111111111
"GMMI","ESSAOUIRA/MOGADOR","MAR","20-01-22","""2020-01-22T16:00:00.000Z""","GMMI 221600Z 24010KT 8000 SCT020 17/09 Q1015 NOSIG 20-01-22",0,0,0,0,0,0,31.399166666666666,-9.683055555555555
"GMMW","NADOR/EL AROUI","MAR","20-01-22","""2020-01-22T16:00:00.000Z""","GMMW 221600Z 19003KT 140V220 9999 FEW020 17/04 Q1014 NOSIG 20-01-22",0,0,0,0,0,0,34.989444444444445,-3.0277777777777777
"GMMZ","OUARZAZATE","MAR","20-01-22","""2020-01-22T16:00:00.000Z""","GMMZ 221600Z 35004KT 9999 FEW030 13/M05 Q1015 NOSIG 20-01-22",0,0,0,0,0,0,30.93722222222222,-6.9061111111111115
"GMTA","AL HOCEIMA/CHERIF EL IDRISSI","MAR","20-01-22","""2020-01-22T16:00:00.000Z""","GMTA 221600Z 36006KT 9999 FEW020 SCT030 15/08 Q1014 NOSIG 20-01-22",0,0,0,0,0,0,35.17972222222222,-3.8400000000000003
"GMTN","TETOUAN/SANIAT R'MEL","MAR","20-01-22","""2020-01-22T16:00:00.000Z""","GMTN 221600Z 03005KT 350V070 9999 SCT020 BKN033 14/10 Q1014 NOSIG 20-01-22",0,0,0,0,0,0,35.59444444444445,-5.319999999999999
"GOGG","ZIGUINCHOR","SEN","20-01-22","""2020-01-22T16:00:00.000Z""","GOGG 221600Z 04004KT CAVOK 31/12 Q1011 20-01-22",0,0,0,0,0,0,12.555927777777779,-16.276869444444444
"GOGS","CAP SKIRING","SEN","20-01-22","""2020-01-22T16:00:00.000Z""","GOGS 221600Z 08006KT CAVOK 31/18 Q1010 20-01-22",0,0,0,0,0,0,12.388958333333333,-16.741583333333335
"GOOY","DAKAR/YOFF","SEN","20-01-22","""2020-01-22T16:00:00.000Z""","GOOY 221600Z 36008KT CAVOK 26/16 Q1011 20-01-22",0,0,0,0,0,0,14.743833333333333,-17.479305555555555
"GOSP","PODOR","SEN","20-01-22","""2020-01-22T16:00:00.000Z""","GOSP 221600Z 04002KT CAVOK 33/04 Q1011 20-01-22",0,0,0,0,0,0,16.683333333333334,-14.966666666666667
"GOSS","SAINT LOUIS","SEN","20-01-22","""2020-01-22T16:00:00.000Z""","GOSS 221600Z 04006KT 340V100 CAVOK 31/04 Q1011 20-01-22",0,0,0,0,0,0,16.049805555555558,-16.461055555555554
"GOTK","KEDOUGOU","SEN","20-01-22","""2020-01-22T16:00:00.000Z""","GOTK 221600Z 36004KT 6000 NSC 36/10 Q1010 20-01-22",0,0,0,0,0,0,12.5722222,-12.2202778
"GOTT","TAMBACOUNDA","SEN","20-01-22","""2020-01-22T16:00:00.000Z""","GOTT 221600Z 02006KT CAVOK 36/M04 Q1010 20-01-22",0,0,0,0,0,0,13.732691666666668,-13.658
"GQPP","NOUADHIBOU","MRT","20-01-22","""2020-01-22T16:00:00.000Z""","GQPP 221600Z 33011KT 8000 NSC 22/10 Q1015 NOSIG 20-01-22",0,0,0,0,0,0,20.928441666666668,-17.031138888888886
"GVAC","AMILCAR CABRAL/SAL ISLAND","CPV","20-01-22","""2020-01-22T16:00:00.000Z""","GVAC 221600Z 0801KT 9999 FEW014 BKN200 26/18 Q1013 NOSIG 20-01-22",0,0,0,0,0,0,16.73758888888889,-22.950016666666667
"GVBA","RABIL/ARISTIDES PEREIRA","CPV","20-01-22","""2020-01-22T16:00:00.000Z""","GVBA 221600Z 07010KT CAVOK 28/13 Q1013 NOSIG 20-01-22",0,0,0,0,0,0,16.13722222222222,-22.88861111111111
"GVNP","PRAIA/NELSON MANDELA","CPV","20-01-22","""2020-01-22T16:00:00.000Z""","GVNP 221600Z 05013KT CAVOK 27/08 Q1013 NOSIG 20-01-22",0,0,0,0,0,0,14.94111111111111,-23.484722222222224
"DAAG","ALGER/HOUARI BOUMEDIENE","DZA","20-01-22","""2020-01-22T16:30:00.000Z""","DAAG 221630Z 16004KT 130V200 6000 NSC 18/06 Q1015 20-01-22",0,0,0,0,0,0,36.69444444444444,3.2169444444444446
"DAAT","TAMANRASSET/AGUENAR-HADJ BEY AKHAMOK","DZA","20-01-22","""2020-01-22T16:30:00.000Z""","DAAT 221630Z 13007KT 9999 SCT046 SCT100 22/M11 Q1023 20-01-22",0,0,0,0,0,0,22.811111111111114,5.450833333333334
"DAAD","BOUSAADA","DZA","20-01-22","""2020-01-22T16:00:00.000Z""","DAAD 221600Z 14014KT 3000 DRSA NSC 15/04 Q1018 20-01-22",0,0,0,0,8,0,35.331388888888895,4.204444444444444
"DAAY","MECHERIA","DZA","20-01-22","""2020-01-22T16:00:00.000Z""","DAAY 221600Z 17010KT 8000 FEW023CB SCT026 10/02 Q1017 20-01-22",0,0,0,0,1.3,0,33.5358333,-0.2422222
"DAAV","JIJEL/FERHAT ABBAS","DZA","20-01-22","""2020-01-22T16:00:00.000Z""","DAAV 221600Z 32004KT CAVOK 21/11 Q1015 20-01-22",0,0,0,0,0,0,36.794444444444444,5.873611111111112
"DAAS","SETIF/8 MAI 45","DZA","20-01-22","""2020-01-22T16:00:00.000Z""","DAAS 221600Z 16015KT 8000 NSC 15/M05 Q1018 20-01-22",0,0,0,0,0,0,36.17861111111111,5.33
"DAAP","ILLIZI/TAKHAMALT","DZA","20-01-22","""2020-01-22T16:00:00.000Z""","DAAP 221600Z 11003KT CAVOK 28/M05 Q1019 20-01-22",0,0,0,0,0,0,26.723611111111108,8.617777777777778
"DAAJ","DJANET/TISKA","DZA","20-01-22","""2020-01-22T16:00:00.000Z""","DAAJ 221600Z 15007KT CAVOK 23/M08 Q1023 20-01-22",0,0,0,0,0,0,24.293055555555558,9.451944444444443
"DAAE","BEJAIA/SOUMMAM-ABANE RAMDANE","DZA","20-01-22","""2020-01-22T16:00:00.000Z""","DAAE 221600Z 12004KT 6000 NSC 17/10 Q1016 20-01-22",0,0,0,0,0,0,36.71194444444445,5.069444444444445
"GVSV","SAO PEDRO/CESARIA EVORA","CPV","20-01-22","""2020-01-22T16:00:00.000Z""","GVSV 221600Z 05013KT CAVOK 27/15 Q1013 NOSIG 20-01-22",0,0,0,0,0,0,16.83361111111111,-25.054722222222225
"DABB","ANNABA/RABAH BITAT","DZA","20-01-22","""2020-01-22T16:30:00.000Z""","DABB 221630Z 14007KT CAVOK 18/07 Q1019 20-01-22",0,0,0,0,0,0,36.82222222222222,7.809444444444444
"DABC","CONSTANTINE/MOHAMED BOUDIAF","DZA","20-01-22","""2020-01-22T16:30:00.000Z""","DABC 221630Z 12019KT CAVOK 16/02 Q1020 20-01-22",0,2,0,0,0,0,36.28527777777778,6.6191666666666675
"DABS","TEBESSA/CHEIKH LARBI TEBESSI","DZA","20-01-22","""2020-01-22T16:00:00.000Z""","DABS 221600Z 12016KT 9999 FEW040 14/02 Q1023 20-01-22",0,2,0,0,0,0,35.43263611111111,8.1256
"DABT","BATNA/MOSTAPHA BEN BOULAID","DZA","20-01-22","""2020-01-22T16:00:00.000Z""","DABT 221600Z 13010KT 7000 NSC 18/M04 Q1020 20-01-22",0,0,0,0,0,0,35.759166666666665,6.3225
"DAFH","HASSI R'MEL/TILREMPT","DZA","20-01-22","""2020-01-22T16:00:00.000Z""","DAFH 221600Z 18020KT 7000 DRSA NSC 20/00 Q1017 20-01-22",0,2,0,0,8,0,32.9305556,3.3116667
"DAOB","TIARET ABDELHAFID BOUSSOUF BOU CHEKIF","DZA","20-01-22","""2020-01-22T16:00:00.000Z""","DAOB 221600Z 21013KT 8000 SCT023 SCT026 09/04 Q1015 20-01-22",0,0,0,0,0,0,35.34138888888889,1.4669444444444446
"DAOF","TINDOUF","DZA","20-01-22","""2020-01-22T16:00:00.000Z""","DAOF 221600Z 27005KT 9999 SCT033 18/02 Q1015 20-01-22",0,0,0,0,0,0,27.7,-8.166666666666666
"DAOI","CHLEF","DZA","20-01-22","""2020-01-22T16:00:00.000Z""","DAOI 221600Z 22004KT 6000 FEW020 BKN026 14/08 Q1014 20-01-22",0,0,0,0,0,0,36.216944444444444,1.3399999999999999
"DAON","TLEMCEN/ZENATA-MESSALI EL HADJ","DZA","20-01-22","""2020-01-22T16:30:00.000Z""","DAON 221630Z 04004KT 9999 FEW026 15/06 Q1015 20-01-22",0,0,0,0,0,0,35.015277777777776,-1.4508333333333332
"DAUH","HASSI MESSAOUD/OUED IRARA-KRIM BELKACEM","DZA","20-01-22","""2020-01-22T16:30:00.000Z""","DAUH 221630Z 10008KT 8000 NSC 24/M03 Q1017 20-01-22",0,0,0,0,0,0,31.67388888888889,6.140555555555556
"DAOO","ORAN/AHMED BENBELLA","DZA","20-01-22","""2020-01-22T16:30:00.000Z""","DAOO 221630Z 00000KT 9999 SCT026 SCT100 14/08 Q1015 20-01-22",0,0,0,0,0,0,35.62722222222222,-0.6113888888888889
"DAOR","BECHAR/BOUDGHENE BEN ALI LOTFI","DZA","20-01-22","""2020-01-22T16:00:00.000Z""","DAOR 221600Z 24006KT 9999 SCT033 15/M03 Q1016 20-01-22",0,0,0,0,0,0,31.650569444444443,-2.253152777777778
"DAOV","GHRISS","DZA","20-01-22","""2020-01-22T16:00:00.000Z""","DAOV 221600Z 13003KT 8000 BKN026 11/05 Q1015 20-01-22",0,0,0,0,0,0,35.216944444444444,0.14833333333333332
"DATM","BORDJ MOKHTAR","DZA","20-01-22","""2020-01-22T16:00:00.000Z""","DATM 221600Z 20005KT 170V250 2500 SA NSC 27/// Q1016 20-01-22",0,0,0,0,8,0,21.375,0.9238888888888889
"DAUB","BISKRA/MOHAMED KHIDER","DZA","20-01-22","""2020-01-22T16:00:00.000Z""","DAUB 221600Z 12024KT 1000 BLSA NSC 20/05 Q1019 20-01-22",0,4,0,0,8,0,34.80166666666666,5.741666666666667
"DAUE","EL GOLEA","DZA","20-01-22","""2020-01-22T16:00:00.000Z""","DAUE 221600Z 26013KT 6000 NSC 23/M05 Q1016 20-01-22",0,0,0,0,0,0,30.56888888888889,2.8647222222222224
"DAUG","GHARDAIA/NOUMERAT-MOUFDI ZAKARIA","DZA","20-01-22","""2020-01-22T16:00:00.000Z""","DAUG 221600Z 16012KT 6000 NSC 23/M04 Q1017 20-01-22",0,0,0,0,0,0,32.38166666666667,3.799444444444444
"DAUA","ADRAR/TOUAT-CHEIKH SIDI MOHAMED BELKEBIR","DZA","20-01-22","""2020-01-22T16:00:00.000Z""","DAUA 221600Z 26013KT CAVOK 23/02 Q1016 20-01-22",0,0,0,0,0,0,27.839166666666664,-0.18527777777777776
"DAUI","IN SALAH","DZA","20-01-22","""2020-01-22T16:00:00.000Z""","DAUI 221600Z 24010KT 7000 NSC 27/M02 Q1016 20-01-22",0,0,0,0,0,0,27.253611111111113,2.5108333333333333
"DFFD","OUAGADOUGOU/AEROPORT","BFA","20-01-22","""2020-01-22T16:00:00.000Z""","DFFD 221600Z 05007KT 360V090 3500 DU NSC 34/04 Q1011 NOSIG 20-01-22",0,0,0,0,0,0,12.353666666666665,-1.512
"DBBB","CARDINAL BERNARDIN GANTIN AEROPORT INTERNATIONAL/CADJEHOUN ","BEN","20-01-22","""2020-01-22T16:00:00.000Z""","DBBB 221600Z 19007KT 2500 HZ FEW010 31/24 Q1007 NOSIG 20-01-22",0,0,0,0,0,1,6.356380555555555,2.38335
"DAUZ","ZARZAITINE/IN AMENAS","DZA","20-01-22","""2020-01-22T16:00:00.000Z""","DAUZ 221600Z 13016KT 4000 DRSA NSC 22/M05 Q1021 20-01-22",0,2,0,0,8,0,28.05138888888889,9.642777777777777
"DAUU","OUARGLA/AIN BEIDA","DZA","20-01-22","""2020-01-22T16:00:00.000Z""","DAUU 221600Z 14010KT 8000 NSC 25/M04 Q1016 20-01-22",0,0,0,0,0,0,31.93138888888889,5.406666666666667
"DAUT","TIMIMOUN","DZA","20-01-22","""2020-01-22T16:00:00.000Z""","DAUT 221600Z 27016KT CAVOK 20/M00 Q1015 20-01-22",0,2,0,0,0,0,29.241111111111113,0.2836111111111111
"DAUO","EL OUED/GUEMAR","DZA","20-01-22","""2020-01-22T16:00:00.000Z""","DAUO 221600Z 09014KT 4000 HZ NSC 20/04 Q1019 20-01-22",0,0,0,0,0,0,33.51305555555555,6.7825
"DAUL","LAGHOUAT/MOULAY AHMED MEDEGHRI","DZA","20-01-22","""2020-01-22T16:00:00.000Z""","DAUL 221600Z 21016KT 2500 NSC 18/00 Q1016 20-01-22",0,2,0,0,0,0,33.7644444,2.9283333
"DAUK","TOUGGOURT/SIDI MAHDI","DZA","20-01-22","""2020-01-22T16:00:00.000Z""","DAUK 221600Z 09009KT 7000 NSC 21/M00 Q1018 20-01-22",0,0,0,0,0,0,33.059999999999995,6.087222222222222
"DFOO","BOBO DIOULASSO","BFA","20-01-22","""2020-01-22T16:00:00.000Z""","DFOO 221600Z 02004KT 340V100 2500 DU NSC 34/12 Q1012 20-01-22",0,0,0,0,0,0,11.167416666666666,-4.321055555555556
"DIAP","ABIDJAN/FELIX HOUPHOUET BOIGNY","CIV","20-01-22","""2020-01-22T16:30:00.000Z""","DIAP 221630Z 21007KT 7000 FEW015 31/26 Q1008 NOSIG 20-01-22",0,0,0,0,0,0,5.254502777777778,-3.9286555555555553
"DGAA","ACCRA/KOTOKA INTERNATIONAL","GHA","20-01-22","""2020-01-22T16:00:00.000Z""","DGAA 221600Z 18009KT 2500 HZ NSC 30/25 Q1008 NOSIG 20-01-22",0,0,0,0,0,0,5.604413888888889,-0.16754444444444444
"DNMM","LAGOS/MURTALA MUHAMMED","NGA","20-01-22","""2020-01-22T16:00:00.000Z""","DNMM 221600Z 23007KT 1600 HZ NSC 33/23 Q1008 NOSIG 20-01-22",0,0,0,0,0,0,6.5786444444444445,3.3225277777777777
"DRRM","MARADI","NER","20-01-22","""2020-01-22T16:00:00.000Z""","DRRM 221600Z 11010KT 0300 DU NSC 30/M06 Q1013 20-01-22",10,0,0,0,0,0,13.501888888888889,7.119722222222221
"DRRN","NIAMEY","NER","20-01-22","""2020-01-22T16:00:00.000Z""","DRRN 221600Z 07008KT 3200 DU NSC 33/M02 Q1011 NOSIG 20-01-22",0,0,0,0,0,0,13.481666666666667,2.170361111111111
"DRRT","TAHOUA","NER","20-01-22","""2020-01-22T16:00:00.000Z""","DRRT 221600Z 12012KT 0700 DU 30/M08 Q1013 20-01-22",4,0,0,0,0,0,14.878111111111112,5.270166666666666
"DRZA","AGADES SUD","NER","20-01-22","""2020-01-22T16:00:00.000Z""","DRZA 221600Z 10017KT 8000 NSC 28/M09 Q1017 20-01-22",0,2,0,0,0,0,16.962305555555556,7.990388888888889
"DRZR","ZINDER","NER","20-01-22","""2020-01-22T16:00:00.000Z""","DRZR 221600Z 10010KT 070V130 2000 DU NSC 29/M07 Q1014 20-01-22",0,0,0,0,0,0,13.783972222222221,8.990402777777778
"DTKA","TABARKA-AIN DRAHAM INTERNATIONAL AIRPORT","TUN","20-01-22","""2020-01-22T16:00:00.000Z""","DTKA 221600Z 10019KT 9999 FEW020 18/09 Q1022 NOSIG 20-01-22",0,2,0,0,0,0,36.980000000000004,8.876944444444446
"DTMB","MONASTIR/HABIB BOURGUIBA","TUN","20-01-22","""2020-01-22T16:30:00.000Z""","DTMB 221630Z 13014KT 8000 BKN026 16/11 Q1027 20-01-22",0,0,0,0,0,0,35.75805555555556,10.754722222222222
"DTNH","ENFIDHA-HAMMAMET INTERNATIONAL AIRPORT","TUN","20-01-22","""2020-01-22T16:30:00.000Z""","DTNH 221630Z 12014KT CAVOK 15/11 Q1027 20-01-22",0,0,0,0,0,0,36.075833333333335,10.438611111111111
"DTTA","TUNIS/CARTHAGE","TUN","20-01-22","""2020-01-22T16:30:00.000Z""","DTTA 221630Z 12015KT 080V150 9999 FEW026 16/09 Q1026 20-01-22",0,0,0,0,0,0,36.85111111111111,10.226944444444445
"DTTJ","DJERBA/ZARZIS","TUN","20-01-22","""2020-01-22T16:30:00.000Z""","DTTJ 221630Z 10007KT CAVOK 16/09 Q1025 NOSIG 20-01-22",0,0,0,0,0,0,33.87555555555556,10.777222222222223
"DTTG","GABES/MATMATA","TUN","20-01-22","""2020-01-22T16:00:00.000Z""","DTTG 221600Z 08014KT 9999 FEW030 17/08 Q1024 NOSIG 20-01-22",0,0,0,0,0,0,33.7325,9.916111111111112
"DTTF","GAFSA/KSAR","TUN","20-01-22","""2020-01-22T16:00:00.000Z""","DTTF 221600Z 07016KT 8000 SCT033 17/05 Q1023 NOSIG 20-01-22",0,2,0,0,0,0,34.41555555555556,8.813611111111111
"DTTD","REMADA","TUN","20-01-22","""2020-01-22T16:00:00.000Z""","DTTD 221600Z 13006KT 060V170 CAVOK 20/00 Q1023 20-01-22",0,0,0,0,0,0,32.3061111,10.3822222
"DTTB","BIZERTE/SIDI AHMED","TUN","20-01-22","""2020-01-22T16:00:00.000Z""","DTTB 221600Z 12015KT 9999 FEW020 16/10 Q1025 20-01-22",0,0,0,0,0,0,37.2455556,9.7913889
"DTTN","JENDOUBA","TUN","20-01-22","""2020-01-22T16:00:00.000Z""","DTTN 221600Z 11007KT 070V150 9999 SCT020 19/08 Q1023 20-01-22",0,0,0,0,0,0,36.4888889,8.8002778
"DTTX","SFAX/THYNA","TUN","20-01-22","""2020-01-22T16:00:00.000Z""","DTTX 221600Z 11011KT 9999 FEW030 16/11 Q1026 NOSIG 20-01-22",0,0,0,0,0,0,34.720555555555556,10.688611111111111
"DTTZ","TOZEUR/NEFTA","TUN","20-01-22","""2020-01-22T16:00:00.000Z""","DTTZ 221600Z 09024KT 8000 NSC 19/06 Q1021 20-01-22",0,4,0,0,0,0,33.939722222222215,8.110555555555555
"DXNG","NIAMTOUGOU","TGO","20-01-22","""2020-01-22T16:00:00.000Z""","DXNG 221600Z 08006KT 010V140 4500 HZ NSC 34/03 Q1012 20-01-22",0,0,0,0,0,0,9.777583333333334,1.0956388888888888
"DXXX","LOME/GNASSINGBE EYADEMA","TGO","20-01-22","""2020-01-22T16:00:00.000Z""","DXXX 221600Z 19008KT 3500 HZ NSC 31/24 Q1008 NOSIG 20-01-22",0,0,0,0,0,0,6.1658333333333335,1.2541666666666667
"HECA","CAIRO/INTL","EGY","20-01-22","""2020-01-22T16:30:00.000Z""","HECA 221630Z 36008KT 9999 SCT025 SCT030 15/04 Q1023 NOSIG 20-01-22",0,0,0,0,0,0,30.11138888888889,31.413888888888888
"HEAT","ASYUT / INTL","EGY","20-01-22","""2020-01-22T16:00:00.000Z""","HEAT 221600Z 36008KT CAVOK 15/04 Q1025 NOSIG 20-01-22",0,0,0,0,0,0,27.04638888888889,31.011944444444445
"HEMM","MERSA MATRUH/ INTERNATIONAL","EGY","20-01-22","""2020-01-22T16:00:00.000Z""","HEMM 221600Z 33011KT 9999 BKN020 14/07 Q1025 NOSIG 20-01-22",0,0,0,0,0,0,31.325277777777778,27.221666666666664
"HEMA","MARSA ALAM / INTL","EGY","20-01-22","""2020-01-22T16:00:00.000Z""","HEMA 221600Z 31009KT 9999 FEW020 15/04 Q1021 NOSIG 20-01-22",0,0,0,0,0,0,25.558055555555555,34.58305555555556
"HELX","LUXOR / INTL","EGY","20-01-22","""2020-01-22T16:00:00.000Z""","HELX 221600Z 30010KT CAVOK 16/02 Q1021 NOSIG 20-01-22",0,0,0,0,0,0,25.670833333333334,32.70638888888889
"HEGN","HURGHADA / INTL","EGY","20-01-22","""2020-01-22T16:00:00.000Z""","HEGN 221600Z 32010KT CAVOK 16/03 Q1022 NOSIG 20-01-22",0,0,0,0,0,0,27.178611111111113,33.80083333333333
"HEBL","ABU SIMBEL","EGY","20-01-22","""2020-01-22T16:00:00.000Z""","HEBL 221600Z 35011KT CAVOK 16/01 Q1022 NOSIG 20-01-22",0,0,0,0,0,0,22.375833333333333,31.611666666666668
"HEBA","BORG EL ARAB / INTL","EGY","20-01-22","""2020-01-22T16:00:00.000Z""","HEBA 221600Z 34009KT 9999 SCT020 SCT022 13/07 Q1023 NOSIG 20-01-22",0,0,0,0,0,0,30.918055555555558,29.695833333333333
"HEAX","ALEXANDRIA / INTL","EGY","20-01-22","""2020-01-22T16:00:00.000Z""","HEAX 221600Z 34008KT 9999 SCT020 15/06 Q1023 NOSIG 20-01-22",0,0,0,0,0,0,31.18166666666667,29.94638888888889
"HEPS","PORT SAID","EGY","20-01-22","""2020-01-22T16:00:00.000Z""","HEPS 221600Z 26006KT 9999 SCT025 15/09 Q1023 NOSIG 20-01-22",0,0,0,0,0,0,31.279444444444444,32.24
"HKJK","JOMO KENYATTA INTL (TWR/APP/NOF/MET)","KEN","20-01-22","""2020-01-22T16:30:00.000Z""","HKJK 221630Z 05010KT 9999 BKN026 21/15 Q1019 NOSIG 20-01-22",0,0,0,0,0,0,-1.3192388888888888,36.927775
"HESC","ST.CATHERINE","EGY","20-01-22","""2020-01-22T16:00:00.000Z""","HESC 221600Z 31005KT 9999 BKN025 04/M04 Q1025 NOSIG 20-01-22",0,0,0,0,0,0,28.685277777777777,34.0625
"HESH","SHARM EL SHEIKH / INTL","EGY","20-01-22","""2020-01-22T16:00:00.000Z""","HESH 221600Z 36007KT 9999 FEW025 SCT030 16/06 Q1021 NOSIG 20-01-22",0,0,0,0,0,0,27.97861111111111,34.39333333333333
"HESN","ASWAN / INTL","EGY","20-01-22","""2020-01-22T16:00:00.000Z""","HESN 221600Z 34017KT CAVOK 15/00 Q1022 NOSIG 20-01-22",0,2,0,0,0,0,23.964444444444442,32.82
"HKEL","ELDORET INTL.","KEN","20-01-22","""2020-01-22T16:00:00.000Z""","HKEL 221600Z 27003KT 9999 FEW020CB BKN021 18/15 Q1022 20-01-22",0,0,0,0,1.3,0,0.40401111111111115,35.23671388888889
"HKKI","KISUMU","KEN","20-01-22","""2020-01-22T16:00:00.000Z""","HKKI 221600Z 00000KT 9999 FEW023 BKN280 26/20 Q1014 20-01-22",0,0,0,0,0,0,-0.08592777777777777,34.72888888888889
"HSSS","KHARTOUM","SDN","20-01-22","""2020-01-22T16:30:00.000Z""","HSSS 221630Z 34012KT CAVOK 23/M08 Q1017 NOSIG 20-01-22",0,0,0,0,0,0,15.590355555555556,32.553152777777775
"HKNW","NAIROBI WILSON","KEN","20-01-22","""2020-01-22T16:00:00.000Z""","HKNW 221600Z 07008KT SCT025 BKN080 22/15 Q1017 20-01-22",0,0,0,0,0,0,-1.3212694444444444,36.81496666666666
"HTAR","ARUSHA","TZA","20-01-22","""2020-01-22T16:00:00.000Z""","HTAR 221600Z 09007KT 9999 FEW026CB BKN090 23/20 Q1015 NOSIG 20-01-22",0,0,0,0,1.3,0,-3.3677944444444443,36.624455555555556
"HTBU","BUKOBA","TZA","20-01-22","""2020-01-22T16:00:00.000Z""","HTBU 221600Z 00000KT CAVOK 26/20 Q1012 20-01-22",0,0,0,0,0,0,-1.3313638888888888,31.820469444444445
"HTDA","DAR ES SALAAM/JULIUS NYERERE APP, TWR, NOF, MET, COM, CIVIL AIRLINES","TZA","20-01-22","""2020-01-22T16:00:00.000Z""","HTDA 221600Z 01011KT 9999 FEW014 BKN090 28/24 Q1007 NOSIG 20-01-22",0,0,0,0,0,0,-6.878111111111112,39.202625000000005
"HTDO","DODOMA","TZA","20-01-22","""2020-01-22T16:00:00.000Z""","HTDO 221600Z 00000KT 9999 FEW024 FEW025CB 25/20 Q1013 NOSIG 20-01-22",0,0,0,0,1.3,0,-6.170358333333334,35.749430555555556
"HTIR","IRINGA","TZA","20-01-22","""2020-01-22T16:00:00.000Z""","HTIR 221600Z 20005KT 9999 -TSRA BKN018 FEW019CB BKN080 20/17 Q106 20-01-22",0,0,3.3,0,1.3,0,-7.668394444444445,35.75214166666667
"HTKA","KIGOMA","TZA","20-01-22","""2020-01-22T16:00:00.000Z""","HTKA 221600Z 00000KT 9999 FEW021 FEW022CB SCT090 27/21 Q1014 NOSIG 20-01-22",0,0,0,0,1.3,0,-4.8843499999999995,29.66992777777778
"HTKJ","KILIMANJARO APP, TWR, AIS, MET, CIVIL AIRLINES","TZA","20-01-22","""2020-01-22T16:00:00.000Z""","HTKJ 221600Z 00000KT 9999 FEW030CB BKN032 25/21 Q1013 NOSIG 20-01-22",0,0,0,0,1.3,0,-3.4294055555555554,37.07446111111111
"HTMG","MOROGORO","TZA","20-01-22","""2020-01-22T16:00:00.000Z""","HTMG 221600Z 00000KT 9999 BKN022 FEW024CB 25/2 Q1009 RERA 20-01-22",0,0,0,0,1.3,0,-6.797461111111111,37.652875
"HTMT","MTWARA","TZA","20-01-22","""2020-01-22T16:00:00.000Z""","HTMT 221600Z 00000KT 9999 BKN020 FEW021CB BKN070 26/25 Q1007 20-01-22",0,0,0,0,1.3,0,-10.336116666666667,40.18201666666666
"HUEN","ENTEBBE (INTL)","UGA","20-01-22","""2020-01-22T16:30:00.000Z""","HUEN 221630Z 36004KT 8000 NSC 25/17 Q1013 20-01-22",0,0,0,0,0,0,0.040813888888888886,32.44054166666666
"FABL","BRAM FISCHER INTERNATIONAL AIRPORT","ZAF","20-01-22","""2020-01-22T16:00:00.000Z""","FABL 221600Z 27008KT 230V300 9999 FEW049 30/03 Q1012 NOSIG 20-01-22",0,0,0,0,0,0,-29.093788888888888,26.30396388888889
"FACT","CAPE TOWN (CAPE TOWN INTERNATIONAL AIRPORT)","ZAF","20-01-22","""2020-01-22T16:00:00.000Z""","FACT 221600Z 15020KT 9999 FEW040 23/14 Q1011 NOSIG 20-01-22",0,2,0,0,0,0,-33.97136944444445,18.60429166666667
"HTMU","MUSOMA","TZA","20-01-22","""2020-01-22T16:00:00.000Z""","HTMU 221600Z 27005KT CAVOK 25/17 Q1014 20-01-22",0,0,0,0,0,0,-1.5034444444444444,33.802166666666665
"HTMW","MWANZA","TZA","20-01-22","""2020-01-22T16:00:00.000Z""","HTMW 221600Z 36008KT 9999 FEW024 25/18 Q1012 NOSIG 20-01-22",0,0,0,0,0,0,-2.444127777777778,32.93193333333333
"HTSO","SONGEA","TZA","20-01-22","""2020-01-22T16:00:00.000Z""","HTSO 221600Z 18005KT 9999 SCT019 FEW020CB BKN080 23/21 Q1014 20-01-22",0,0,0,0,1.3,0,-10.681947222222222,35.58211666666667
"HTSU","SUMBAWANGA","TZA","20-01-22","""2020-01-22T16:00:00.000Z""","HTSU 221600Z 00000KT 9999 TS BKN018 FEW020CB 19/16 Q1017 20-01-22",0,0,0,0,8,0,-7.948566666666667,31.610755555555556
"HTTB","TABORA","TZA","20-01-22","""2020-01-22T16:00:00.000Z""","HTTB 221600Z 00000KT 9999 TS SCT016 FEW017CB BKN070 23/21 Q1013 NOSIG 20-01-22",0,0,0,0,8,0,-5.075988888888888,32.830325
"HTZA","ZANZIBAR/ABEID AMANI INTERNATIONAL AIRPORT","TZA","20-01-22","""2020-01-22T16:00:00.000Z""","HTZA 221600Z 00000KT 9999 FEW015 FEW016 SCT080 28/24 Q1007 NOSIG 20-01-22",0,0,0,0,0,0,-6.224891666666667,39.225175
"FAGG","GEORGE (GEORGE AIRPORT)","ZAF","20-01-22","""2020-01-22T16:27:00.000Z""","FAGG 221627Z 12007KT 9999 SCT002 BKN004 OVC016 16/16 Q1016 20-01-22",0,0,0,0,0,0,-34.006702777777775,22.374280555555558
"FAEL","EAST LONDON","ZAF","20-01-22","""2020-01-22T16:24:00.000Z""","FAEL 221624Z 12010KT 2100 DZ FEW002 OVC008 19/19 Q1013 20-01-22",0,0,3.3,0,0,1,-33.03511944444444,27.82135
"FAKM","KIMBERLEY (KIMBERLEY AIRPORT)","ZAF","20-01-22","""2020-01-22T16:00:00.000Z""","FAKM 221600Z 26018KT CAVOK 33/M00 Q1010 20-01-22",0,2,0,0,0,0,-28.804783333333333,24.764033333333334
"FAOR","JOHANNESBURG INTERNATIONAL AIRPORT","ZAF","20-01-22","""2020-01-22T16:30:00.000Z""","FAOR 221630Z 30006KT 260V340 CAVOK 26/13 Q1017 NOSIG 20-01-22",0,0,0,0,0,0,-26.133694444444444,28.242316666666667
"FAMM","MAFIKENG  AD","ZAF","20-01-22","""2020-01-22T16:10:00.000Z""","FAMM 221610Z 28010KT 8000 -SHRA FEW030TCU BKN030CB 23/13 Q1015 RETS TEMPO -TSRA 20-01-22",0,0,3.3,0,4,0,-25.807447222222223,25.544469444444445
"FAKN","KRUGER MPUMALANGA INTERNATIONAL AIRPORT","ZAF","20-01-22","""2020-01-22T16:00:00.000Z""","FAKN 221600Z 06006KT 9999 SCT015 BKN020 21/17 Q1014 NOSIG 20-01-22",0,0,0,0,0,0,-25.391583333333333,31.099277777777775
"FALA","LANSERIA","ZAF","20-01-22","""2020-01-22T16:00:00.000Z""","FALA 221600Z 33009KT 9999 FEW045 27/16 Q1015 NOSIG 20-01-22",0,0,0,0,0,0,-25.93969166666667,27.925575000000002
"FALE","KING SHAKA INTERNATIONAL AIRPORT","ZAF","20-01-22","""2020-01-22T16:00:00.000Z""","FALE 221600Z 03013KT 9999 FEW025 BKN046 25/18 Q1009 NOSIG 20-01-22",0,0,0,0,0,0,-29.611772222222225,31.11931388888889
"FALW","LANGEBAANWEG (SAAF)","ZAF","20-01-22","""2020-01-22T16:00:00.000Z""","FALW 221600Z AUTO 22009KT //// // ////// 25/15 Q1010 20-01-22",0,0,0,0,0,0,-32.968811111111116,18.16526111111111
"FAPE","PORT ELIZABETH (PORT ELIZABETH AIRPORT)","ZAF","20-01-22","""2020-01-22T16:00:00.000Z""","FAPE 221600Z 17006KT 130V210 9999 FEW013 19/17 Q1015 NOSIG 20-01-22",0,0,0,0,0,0,-33.99001388888889,25.610277777777778
"FAPP","POLOKWANE INTERNATIONAL AIRPORT","ZAF","20-01-22","""2020-01-22T16:00:00.000Z""","FAPP 221600Z 32005KT 8000 NSC 25/17 Q1014 NOSIG 20-01-22",0,0,0,0,0,0,-23.84964722222222,29.456488888888888
"FASI","SPRINGS","ZAF","20-01-22","""2020-01-22T16:00:00.000Z""","FASI 221600Z AUTO 28004KT //// // ////// 28/07 Q1019 20-01-22",0,0,0,0,0,0,-26.25,28.4
"FAUP","UPINGTON","ZAF","20-01-22","""2020-01-22T16:00:00.000Z""","FAUP 221600Z 22012KT 9999 FEW050 34/M00 Q1009 NOSIG 20-01-22",0,0,0,0,0,0,-28.40102222222222,21.25966111111111
"FAUT","MTHATHA","ZAF","20-01-22","""2020-01-22T16:00:00.000Z""","FAUT 221600Z 05005KT 9999 BKN015 20/18 Q1012 20-01-22",0,0,0,0,0,0,-31.546247222222224,28.675316666666667
"FAVV","VEREENIGING","ZAF","20-01-22","""2020-01-22T16:00:00.000Z""","FAVV 221600Z AUTO 22006KT //// // ////// 29/10 Q1014 20-01-22",0,0,0,0,0,0,-26.575,27.9625
"FBFT","FRANCISTOWN","BWA","20-01-22","""2020-01-22T16:00:00.000Z""","FBFT 221600Z 13008KT CAVOK 29/14 Q1013 20-01-22",0,0,0,0,0,0,-21.1575,27.46944444444444
"FBKE","KASANE","BWA","20-01-22","""2020-01-22T16:00:00.000Z""","FBKE 221600Z 34002KT CAVOK 29/20 Q1011 20-01-22",0,0,0,0,0,0,-17.83084722222222,25.162599999999998
"FBMN","MAUN","BWA","20-01-22","""2020-01-22T16:00:00.000Z""","FBMN 221600Z 11008KT 9999 FEW030 FEW035CB 35/14 Q1010 20-01-22",0,0,0,0,1.3,0,-19.972499999999997,23.428055555555556
"FBSK","GABORONE/SIR SERETSE KHAMA INT'L","BWA","20-01-22","""2020-01-22T16:00:00.000Z""","FBSK 221600Z 03006KT 010V070 9999 FEW030 31/16 Q1011 NOSIG 20-01-22",0,0,0,0,0,0,-24.555833333333332,25.91888888888889
"FBSP","SELIBE-PHIKWE","BWA","20-01-22","""2020-01-22T16:00:00.000Z""","FBSP 221600Z 18007KT CAVOK 31/17 Q1013 20-01-22",0,0,0,0,0,0,-22.0566,27.820458333333335
"FCBB","BRAZZAVILLE/MAYA-MAYA","COG","20-01-22","""2020-01-22T16:00:00.000Z""","FCBB 221600Z 22006KT 190V250 9999 FEW020 32/24 Q1008 NOSIG 20-01-22",0,0,0,0,0,0,-4.2505,15.2515
"FCPP","POINTE NOIRE","COG","20-01-22","""2020-01-22T16:00:00.000Z""","FCPP 221600Z 23007KT 9999 FEW010 31/26 Q1007 NOSIG 20-01-22",0,0,0,0,0,0,-4.814805555555555,11.886277777777778
"FEFF","BANGUI/M'POKO","CAF","20-01-22","""2020-01-22T16:00:00.000Z""","FEFF 221600Z VRB02KT 6000 NSC 34/12 Q1007 BECMG 3000 HZ 20-01-22",0,0,0,0,0,0,4.397777777777778,18.51972222222222
"FGBT","BATA","GNQ","20-01-22","""2020-01-22T16:00:00.000Z""","FGBT 221600Z 22007KT 180V250 9999 FEW010 31/26 Q1007 20-01-22",0,0,0,0,0,0,1.9022055555555555,9.802811111111112
"FGSL","MALABO","GNQ","20-01-22","""2020-01-22T16:00:00.000Z""","FGSL 221600Z 25008KT 210V280 6000 FEW012 31/26 Q1008 NOSIG 20-01-22",0,0,0,0,0,0,3.7552777777777777,8.70861111111111
"FIMP","SIR SEEWOOSAGUR RAMGOOLAM INTERNATIONAL AIRPORT","MUS","20-01-22","""2020-01-22T16:00:00.000Z""","FIMP 221600Z 00000KT 9999 VCSH BKN014 BKN050 27/25 Q1004 20-01-22",0,0,0,0,0,0,-20.43,57.683055555555555
"FZAA","KINSHASA/N'DJILI","COD","20-01-22","""2020-01-22T16:00:00.000Z""","FZAA 221600Z 30004KT 6000 FEW024 32/24 Q1008 NOSIG 20-01-22",0,0,0,0,0,0,-4.385586111111111,15.444697222222223
"FHAW","ASCENSION I.","GBR","20-01-22","""2020-01-22T15:50:00.000Z""","FHAW 221550Z 15014KT 9999 FEW012 BKN050 29/23 Q1012 NOSIG RMK BLU BLU 20-01-22",0,0,0,0,0,0,-7.969597222222222,-14.393663888888888
"FIMR","RODRIGUES/SIR GAETAN DUVAL AIRPORT","MUS","20-01-22","""2020-01-22T16:00:00.000Z""","FIMR 221600Z 34006KT 9999 SCT018 BKN250 29/26 Q1007 20-01-22",0,0,0,0,0,0,-19.757727777777777,63.36126388888889
"FKKD","DOUALA/AEROPORT","CMR","20-01-22","""2020-01-22T16:00:00.000Z""","FKKD 221600Z VRB04KT 5000 HZ SCT016 FEW020CB 32/26 Q1007 NOSIG 20-01-22",0,0,0,0,1.3,0,4.011666666666667,9.708333333333332
"FKKN","NGAOUNDERE","CMR","20-01-22","""2020-01-22T16:00:00.000Z""","FKKN 221600Z 02008KT CAVOK 30/05 Q1015 20-01-22",0,0,0,0,0,0,7.359166666666666,13.56
"FKKR","GAROUA","CMR","20-01-22","""2020-01-22T16:00:00.000Z""","FKKR 221600Z 08008KT 050V110 CAVOK 35/M01 Q1010 NOSIG 20-01-22",0,0,0,0,0,0,9.336666666666668,13.381111111111112
"FKYS","YAOUNDE/NSIMALEN","CMR","20-01-22","""2020-01-22T16:00:00.000Z""","FKYS 221600Z 10005KT 060V140 6000 NSC 32/14 Q1012 NOSIG 20-01-22",0,0,0,0,0,0,3.7173333333333334,11.552444444444445
"FLKK","KENNETH KAUNDA","ZMB","20-01-22","""2020-01-22T16:00:00.000Z""","FLKK 221600Z 11007KT 9999 FEW055CB BKN060 27/18 Q1014 20-01-22",0,0,0,0,1.3,0,-15.326666666666666,28.456666666666667
"FJDG","DIEGO GARCIA (SEE/VOIR/VES KJDG)","GBR","20-01-22","""2020-01-22T15:55:00.000Z""","FJDG 221555Z 08003KT 9999 FEW023 SCT250 28/25 A2986 RMK SLP108 T02840251 20-01-22",0,0,0,0,0,0,-7.313275,72.41105555555556
"FMCZ","DZAOUDZI","MDG","20-01-22","""2020-01-22T16:30:00.000Z""","FMCZ 221630Z AUTO 31018KT 9999 FEW023 SCT064 BKN080 26/25 Q1006 20-01-22",0,2,0,0,0,0,-12.806666666666667,45.28055555555555
"FMEE","LA REUNION-ROLAND GARROS","FRA","20-01-22","""2020-01-22T16:30:00.000Z""","FMEE 221630Z AUTO 14004KT CAVOK 26/24 Q1003 20-01-22",0,0,0,0,0,0,-20.89,55.51638888888889
"FMEP","SAINT PIERRE PIERREFONDS","FRA","20-01-22","""2020-01-22T16:30:00.000Z""","FMEP 221630Z AUTO 17012KT 6000 SCT012 BKN022 BKN035 26/25 Q1004 20-01-22",0,0,0,0,0,0,-21.321666666666665,55.425555555555555
"FMMI","ANTANANARIVO/IVATO","MDG","20-01-22","""2020-01-22T16:30:00.000Z""","FMMI 221630Z 10008KT 9999 FEW010 BKN020 19/18 Q1012 TEMPO 4000 RA 20-01-22",0,0,0,0,0,0,-18.79652777777778,47.476083333333335
"FMMT","TOAMASINA","MDG","20-01-22","""2020-01-22T16:28:00.000Z""","FMMT 221628Z 23006KT 2500 -RA FEW007 SCT016TCU BKN033 24/23 Q1007 TEMPO 4000 20-01-22",0,0,0,0,1.7,1,-18.115833333333335,49.39333333333333
"FMNM","MAHAJANGA/PH. TSIRANANA","MDG","20-01-22","""2020-01-22T16:15:00.000Z""","FMNM 221615Z 34029G42KT 6000 -RA FEW010 SCT017CB BKN033 26/24 Q1002 WS ALL RWY TEMPO 4000 TSRA 20-01-22",0,6,0,0,2,0,-15.666666666666666,46.35111111111111
"FMCH","MORONI/PRINCE SAID IBRAHIM","COM","20-01-22","""2020-01-22T16:00:00.000Z""","FMCH 221600Z 30013KT 5000 -SHRA SCT006 SCT020CB BKN023 OVC060 27/25 Q1008 TEMPO 3000 TSRA 20-01-22",0,0,3.3,0,3.3,0,-11.536519444444444,43.271325
"FMSD","TOLAGNARO","MDG","20-01-22","""2020-01-22T16:00:00.000Z""","FMSD 221600Z 06010KT 9999 SCT016 BKN033 24/20 Q1009 20-01-22",0,0,0,0,0,0,-25.03805555555556,46.95611111111111
"FNCA","CABINDA/CABINDA","AGO","20-01-22","""2020-01-22T16:00:00.000Z""","FNCA 221600Z 19006KT 9999 SCT015 BKN080 FEW090CB 30/26 Q1007 20-01-22",0,0,0,0,1.3,0,-5.586666666666666,12.188611111111111
"FNHU","HUAMBO/ALBANO MACHADO","AGO","20-01-22","""2020-01-22T16:00:00.000Z""","FNHU 221600Z 23005KT 8000 VCTS SCT018 FEW028 BKN070 19/18 Q1019 20-01-22",0,0,0,0,8,0,-12.8,15.75
"FNSA","SAURIMO/SAURIMO","AGO","20-01-22","""2020-01-22T16:00:00.000Z""","FNSA 221600Z 36005KT 9999 SCT030 29/20 Q1016 20-01-22",0,0,0,0,0,0,-9.68888888888889,20.430833333333336
"FNUB","LUBANGO/MUKANKA","AGO","20-01-22","""2020-01-22T16:00:00.000Z""","FNUB 221600Z 25005KT 7000 VCSHRA FEW020 FEW030CB BKN250 24/// Q1020 20-01-22",0,0,3.3,0,4,0,-14.924444444444443,13.571666666666667
"FNUE","LUENA/MOXICO","AGO","20-01-22","""2020-01-22T16:00:00.000Z""","FNUE 221600Z 30005KT CAVOK 25/22 Q1016 20-01-22",0,0,0,0,0,0,-11.768611111111111,19.897222222222222
"FOOG","PORT-GENTIL","GAB","20-01-22","""2020-01-22T16:00:00.000Z""","FOOG 221600Z 21008KT 9999 SCT013 FEW020CB 31/27 Q1007 20-01-22",0,0,0,0,1.3,0,-0.7192777777777778,8.75136111111111
"FOON","FRANCEVILLE/MVENGUE","GAB","20-01-22","""2020-01-22T16:00:00.000Z""","FOON 221600Z 32005KT 290V360 9999 FEW015 32/24 Q1009 20-01-22",0,0,0,0,0,0,-1.6519444444444444,13.434722222222222
"FPST","SAO TOME/INTERNATIONAL,SAO TOME ISLAND","STP","20-01-22","""2020-01-22T16:00:00.000Z""","FPST 221600Z 14010KT 9999 FEW020CB SCT033 31/26 Q1008 NOSIG 20-01-22",0,0,0,0,1.3,0,0.37777777777777777,6.713055555555556
"FQCH","CHIMOIO","MOZ","20-01-22","""2020-01-22T16:00:00.000Z""","FQCH 221600Z /////KT 9999 SCT015 25/16 Q1014 20-01-22",0,0,0,0,0,0,-19.149722222222223,33.428888888888885
"FQIN","INHAMBANE","MOZ","20-01-22","""2020-01-22T16:00:00.000Z""","FQIN 221600Z 21006KT 9999 SCT020 BKN025 26/20 Q1010 20-01-22",0,0,0,0,0,0,-23.866666666666667,35.416666666666664
"FQMA","MAPUTO","MOZ","20-01-22","""2020-01-22T16:00:00.000Z""","FQMA 221600Z 09010KT 9999 SCT020 27/19 Q1009 NOSIG 20-01-22",0,0,0,0,0,0,-25.920833333333334,32.57263888888889
"FQNP","NAMPULA","MOZ","20-01-22","""2020-01-22T16:00:00.000Z""","FQNP 221600Z 19007KT 160V220 9999 -DZ SCT010 BKN020 BKN100 26/21 Q1008 20-01-22",0,0,0,0,0,0,-15.102777777777778,39.28444444444444
"FQPB","PEMBA","MOZ","20-01-22","""2020-01-22T16:00:00.000Z""","FQPB 221600Z 36003KT 9999 FEW020 BKN100 27/25 Q1007 20-01-22",0,0,0,0,0,0,-12.991647222222221,40.52425
"FQQL","QUELIMANE","MOZ","20-01-22","""2020-01-22T16:00:00.000Z""","FQQL 221600Z 21011KT 9999 SCT020 SCT/// 28/22 Q1007 20-01-22",0,0,0,0,0,0,-17.85,36.86666666666667
"FQTT","TETE CHINGODZI","MOZ","20-01-22","""2020-01-22T16:00:00.000Z""","FQTT 221600Z 00000KT 9999 FEW020 28/20 Q1009 20-01-22",0,0,0,0,0,0,-16.10808888888889,33.640225
"FQVL","VILANKULO","MOZ","20-01-22","""2020-01-22T16:00:00.000Z""","FQVL 221600Z 13012KT 9999 SCT020 28/22 Q1009 20-01-22",0,0,0,0,0,0,-22.016666666666666,35.31666666666667
"FSIA","SEYCHELLES INTERNATIONAL AIRPORT","SYC","20-01-22","""2020-01-22T16:00:00.000Z""","FSIA 221600Z 03006KT 010V070 9999 FEW021 29/25 Q1010 NOSIG 20-01-22",0,0,0,0,0,0,-4.674344444444444,55.521852777777774
"FTTA","SARH","TCD","20-01-22","""2020-01-22T16:00:00.000Z""","FTTA 221600Z 01008KT CAVOK 33/02 Q1012 20-01-22",0,0,0,0,0,0,9.151166666666667,18.379333333333335
"FTTJ","N'DJAMENA/AEROPORT","TCD","20-01-22","""2020-01-22T16:00:00.000Z""","FTTJ 221600Z 01012KT 7000 NSC 31/M07 Q1012 NOSIG 20-01-22",0,0,0,0,0,0,12.124947222222223,15.024819444444445
"FVFA","VICTORIA FALLS","ZWE","20-01-22","""2020-01-22T16:00:00.000Z""","FVFA 221600Z 11006KT 080V140 CAVOK 30/17 Q1011 NOSIG 20-01-22",0,0,0,0,0,0,-18.094166666666666,25.84
"FWKI","LILONGWE/KAMUZU INTERNATIONAL","MWI","20-01-22","""2020-01-22T16:00:00.000Z""","FWKI 221600Z 24005KT 9999 FEW025CB SCT028 24/16 Q1014 NOSIG 20-01-22",0,0,0,0,1.3,0,-13.783333333333333,33.777499999999996
"FYGB","GOBABIS","NAM","20-01-22","""2020-01-22T16:00:00.000Z""","FYGB 221600Z AUTO 08003KT //// // ////// 36/02 Q//// 20-01-22",0,0,0,0,0,0,-22.504722222222224,18.97472222222222
"FYGF","GROOTFONTEIN","NAM","20-01-22","""2020-01-22T16:00:00.000Z""","FYGF 221600Z 35009KT 9999 VCSH FEW040CB FEW050 29/11 Q1016 20-01-22",0,0,0,0,4,0,-19.6,18.133333333333333
"FYKT","KEETMANSHOOP","NAM","20-01-22","""2020-01-22T16:00:00.000Z""","FYKT 221600Z AUTO 28020G31KT //// // ////// 35/M00 Q1011 20-01-22",0,4,0,0,0,0,-26.53888888888889,18.111666666666668
"FYLZ","LUDERITZ","NAM","20-01-22","""2020-01-22T16:00:00.000Z""","FYLZ 221600Z AUTO 21009KT //// // ////// 26/15 Q1011 20-01-22",0,0,0,0,0,0,-26.685277777777777,15.245555555555555
"FYML","MARIENTAL","NAM","20-01-22","""2020-01-22T16:00:00.000Z""","FYML 221600Z AUTO 18016KT //// // ////// 38/01 Q1012 20-01-22",0,2,0,0,0,0,-24.604166666666668,17.925
"FYOA","ONDANGWA","NAM","20-01-22","""2020-01-22T16:00:00.000Z""","FYOA 221600Z 21004KT CAVOK 37/10 Q1010 20-01-22",0,0,0,0,0,0,-17.877222222222223,15.95
"FYOO","OKAUKUEJO","NAM","20-01-22","""2020-01-22T16:00:00.000Z""","FYOO 221600Z AUTO 00000KT //// // ////// 37/08 Q1011 20-01-22",0,0,0,0,0,0,-19.1494444,15.9119444
"FYOW","OTJIWARONGO","NAM","20-01-22","""2020-01-22T16:00:00.000Z""","FYOW 221600Z AUTO 23004KT //// // ////// 35/05 Q1013 20-01-22",0,0,0,0,0,0,-20.4286111,17.1575
"FYWB","WALVIS BAY","NAM","20-01-22","""2020-01-22T16:00:00.000Z""","FYWB 221600Z 36018KT CAVOK 25/16 Q1011 20-01-22",0,2,0,0,0,0,-22.979999999999997,14.645277777777777
"OBBI","BAHRAIN INTERNATIONAL","BHR","20-01-22","""2020-01-22T16:30:00.000Z""","OBBI 221630Z 11011KT 9999 -RA NSC 20/15 Q1015 NOSIG 20-01-22",0,0,0,0,0,0,26.270833333333332,50.63361111111111
"FYWE","WINDHOEK/EROS","NAM","20-01-22","""2020-01-22T16:00:00.000Z""","FYWE 221600Z 28011KT CAVOK 31/00 Q1018 20-01-22",0,0,0,0,0,0,-22.6075,17.079166666666666
"OEAB","ABHA","SAU","20-01-22","""2020-01-22T16:00:00.000Z""","OEAB 221600Z 18010KT 9999 FEW015 12/09 Q1022 NOSIG 20-01-22",0,0,0,0,0,0,18.240277777777777,42.656388888888884
"OEAH","AL AHSA","SAU","20-01-22","""2020-01-22T16:00:00.000Z""","OEAH 221600Z 22006KT 9999 SCT050 BKN100 23/05 Q1014 NOSIG 20-01-22",0,0,0,0,0,0,25.28611111111111,49.486111111111114
"FYWH","HOSEA KUTAKO INTL AIRPORT","NAM","20-01-22","""2020-01-22T16:00:00.000Z""","FYWH 221600Z 26011KT 210V290 9999 FEW050TCU SCT060 33/M02 Q1016 NOSIG 20-01-22",0,0,0,0,1,0,-22.479894444444444,17.47095
"OAKN","KANDAHAR","AFG","20-01-22","""2020-01-22T15:56:00.000Z""","OAKN 221556Z 05014G21KT 9999 CLR 05/M01 A3029 RMK AO2A SLP254 WND DATA ESTMD T00531014 20-01-22",0,2,0,0,0,0,31.505872222222223,65.84779722222221
"OAHR","HERAT","AFG","20-01-22","""2020-01-22T15:55:00.000Z""","OAHR 221555Z VRB02KT 9999 FEW030 SCT090 06/03 Q1025 RMK A3028 BLU 20-01-22",0,0,0,0,0,0,34.21,62.22833333333333
"OAKB","KABUL INTERNATIONAL","AFG","20-01-22","""2020-01-22T15:50:00.000Z""","OAKB 221550Z 32007KT 5000 FU NSC M03/M08 Q1027 NOSIG RMK A3035 WHT WHT 20-01-22",0,0,0,0,0,0,34.56584722222222,69.21235555555556
"OAMS","MAZAR-E-SHARIF","AFG","20-01-22","""2020-01-22T15:50:00.000Z""","OAMS 221550Z 07002KT 9999 FEW200 02/00 Q1029 BLU+WHT 20-01-22",0,0,0,2.5,0,0,36.706944444444446,67.20944444444444
"OEAO","ALULA/PRINCE ABDULMAJEED BIN ABDULAZIZ","SAU","20-01-22","""2020-01-22T16:00:00.000Z""","OEAO 221600Z 36008KT CAVOK 13/M05 Q1020 20-01-22",0,0,0,0,0,0,26.483055555555556,38.118611111111115
"OEGT","GURIAT","SAU","20-01-22","""2020-01-22T16:00:00.000Z""","OEGT 221600Z 30008KT 9999 SCT040 08/01 Q1019 NOSIG 20-01-22",0,0,0,0,0,0,31.411944444444444,37.279444444444444
"OEGS","GASSIM/PRINCE NAIF BIN ABDULAZIZ","SAU","20-01-22","""2020-01-22T16:00:00.000Z""","OEGS 221600Z 29006KT CAVOK 12/00 Q1017 20-01-22",0,0,0,0,0,0,26.302777777777777,43.774166666666666
"OEGN","JAZAN/KING ABDULLAH BIN ABDULAZIZ","SAU","20-01-22","""2020-01-22T16:00:00.000Z""","OEGN 221600Z 28008KT 260V330 9999 SCT030 SCT100 27/19 Q1013 NOSIG 20-01-22",0,0,0,0,0,0,16.90111111111111,42.58583333333333
"OEDR","DHAHRAN/KING ABDULAZIZ AIR BASE","SAU","20-01-22","""2020-01-22T16:00:00.000Z""","OEDR 221600Z 09004KT 9999 SCT030 21/11 Q1014 NOSIG 20-01-22",0,0,0,0,0,0,26.264166666666668,50.152499999999996
"OEDM","AL DAWADMI","SAU","20-01-22","""2020-01-22T16:00:00.000Z""","OEDM 221600Z 36010KT CAVOK 12/00 Q1017 20-01-22",0,0,0,0,0,0,24.449722222222224,44.12111111111111
"OEDF","DAMMAM/KING FAHD INTERNATIONAL","SAU","20-01-22","""2020-01-22T16:00:00.000Z""","OEDF 221600Z 35006KT 9999 BKN040 19/13 Q1015 NOSIG 20-01-22",0,0,0,0,0,0,26.47111111111111,49.797777777777775
"OEBH","BISHA","SAU","20-01-22","""2020-01-22T16:00:00.000Z""","OEBH 221600Z 26006KT CAVOK 20/08 Q1016 NOSIG 20-01-22",0,0,0,0,0,0,19.984166666666667,42.62305555555555
"OEBA","AL BAHA/KING SAUD BIN ABDULAZIZ AIRPORT","SAU","20-01-22","""2020-01-22T16:00:00.000Z""","OEBA 221600Z 18004KT CAVOK 14/04 Q1018 NOSIG 20-01-22",0,0,0,0,0,0,20.296111111111113,41.634166666666665
"OEHL","HAIL","SAU","20-01-22","""2020-01-22T16:00:00.000Z""","OEHL 221600Z 28010KT CAVOK 07/M02 Q1019 20-01-22",0,0,0,0,0,0,27.439722222222223,41.686388888888885
"OEJN","JEDDAH/KING ABDULAZIZ INTERNATIONAL","SAU","20-01-22","""2020-01-22T16:00:00.000Z""","OEJN 221600Z 33014KT CAVOK 21/07 Q1017 NOSIG 20-01-22",0,0,0,0,0,0,21.68111111111111,39.15611111111111
"OEKJ","AL KHARJ","SAU","20-01-22","""2020-01-22T16:00:00.000Z""","OEKJ 221600Z 17008KT CAVOK 21/06 Q1017 20-01-22",0,0,0,0,0,0,24.0608333,47.4108333
"OEMA","MADINAH/PRINCE MOHAMMAD BIN  ABDULAZIZ INTERNATIONAL","SAU","20-01-22","""2020-01-22T16:00:00.000Z""","OEMA 221600Z 33009KT CAVOK 16/M06 Q1018 NOSIG 20-01-22",0,0,0,0,0,0,24.55027777777778,39.70583333333334
"OENG","NEJRAN","SAU","20-01-22","""2020-01-22T16:00:00.000Z""","OENG 221600Z 27010KT 9999 FEW030 25/04 Q1015 NOSIG 20-01-22",0,0,0,0,0,0,17.61138888888889,44.41916666666666
"OEPA","AL QAISUMAH/HAFR AL BATIN","SAU","20-01-22","""2020-01-22T16:00:00.000Z""","OEPA 221600Z 29010KT CAVOK 13/04 Q1017 NOSIG 20-01-22",0,0,0,0,0,0,28.335277777777776,46.125
"OERF","RAFHA","SAU","20-01-22","""2020-01-22T16:00:00.000Z""","OERF 221600Z 28009KT 9999 FEW040 12/00 Q1017 20-01-22",0,0,0,0,0,0,29.62638888888889,43.49055555555556
"OERK","RIYADH/KING KHALED INTERNATIONAL","SAU","20-01-22","""2020-01-22T16:00:00.000Z""","OERK 221600Z 35011KT 9999 FEW035 SCT070 16/00 Q1017 NOSIG 20-01-22",0,0,0,0,0,0,24.962777777777777,46.70805555555556
"OERR","ARAR","SAU","20-01-22","""2020-01-22T16:00:00.000Z""","OERR 221600Z 32009KT 9999 FEW030 SCT100 08/03 Q1016 20-01-22",0,0,0,0,0,0,30.906666666666666,41.138333333333335
"OEWJ","WEJH","SAU","20-01-22","""2020-01-22T16:00:00.000Z""","OEWJ 221600Z 31020KT 8000 FEW040 18/07 Q1019 NOSIG 20-01-22",0,2,0,0,0,0,26.198611111111113,36.476111111111116
"OEWD","WADI AL DAWASIR","SAU","20-01-22","""2020-01-22T16:00:00.000Z""","OEWD 221600Z 31006KT CAVOK 23/11 Q1012 NOSIG 20-01-22",0,0,0,0,0,0,20.504166666666666,45.19888888888889
"OETR","TURAIF","SAU","20-01-22","""2020-01-22T16:00:00.000Z""","OETR 221600Z 30008KT CAVOK 05/02 Q1018 20-01-22",0,0,0,0,0,0,31.692777777777778,38.73111111111111
"OETF","TAIF","SAU","20-01-22","""2020-01-22T16:00:00.000Z""","OETF 221600Z 30020KT CAVOK 12/04 Q1019 NOSIG 20-01-22",0,2,0,0,0,0,21.483333333333334,40.544444444444444
"OETB","TABUK/PRINCE SULTAN BIN ABDULAZIZ","SAU","20-01-22","""2020-01-22T16:00:00.000Z""","OETB 221600Z 32007KT 9999 BKN040 10/M05 Q1020 NOSIG 20-01-22",0,0,0,0,0,0,28.373055555555556,36.62138888888889
"OESK","AL JOUF","SAU","20-01-22","""2020-01-22T16:00:00.000Z""","OESK 221600Z 29008KT 9999 FEW040 SCT100 07/03 Q1021 20-01-22",0,0,0,0,0,0,29.78527777777778,40.099722222222226
"OESH","SHARURAH","SAU","20-01-22","""2020-01-22T16:00:00.000Z""","OESH 221600Z 04007KT CAVOK 27/05 Q1013 NOSIG 20-01-22",0,0,0,0,0,0,17.466944444444444,47.12138888888889
"OERY","KING SALMAN AIR BASE","SAU","20-01-22","""2020-01-22T16:00:00.000Z""","OERY 221600Z 34013KT 9999 FEW035 SCT070 17/00 Q1017 20-01-22",0,0,0,0,0,0,24.721944444444443,46.724722222222226
"OEYN","YENBO/PRINCE ABDULMOHSIN BIN ABDULAZIZ","SAU","20-01-22","""2020-01-22T16:00:00.000Z""","OEYN 221600Z 28011KT CAVOK 18/07 Q1016 NOSIG 20-01-22",0,0,0,0,0,0,24.144166666666667,38.06361111111111
"OIAW","AHWAZ","IRN","20-01-22","""2020-01-22T16:30:00.000Z""","OIAW 221630Z 25006KT 6000 FEW035 BKN080 13/09 Q1016 20-01-22",0,0,0,0,0,0,31.3375,48.76027777777778
"OIBB","BUSHEHR","IRN","20-01-22","""2020-01-22T16:30:00.000Z""","OIBB 221630Z 15014KT 9999 FEW030CB SCT040 OVC090 16/09 Q1015 A3000 20-01-22",0,0,0,0,1.3,0,28.949444444444445,50.83027777777778
"OICC","KERMANSHAH/SHAHID ASHRAFI ESFAHANI","IRN","20-01-22","""2020-01-22T16:30:00.000Z""","OICC 221630Z 16010KT 6000 FEW003 BKN060 01/01 Q1013 A2992 20-01-22",0,0,0,2.5,0,0,34.34805555555556,47.156666666666666
"OIAA","ABADAN","IRN","20-01-22","""2020-01-22T16:00:00.000Z""","OIAA 221600Z 28006KT CAVOK 15/05 Q1016 20-01-22",0,0,0,0,0,0,30.371111111111112,48.22833333333333
"OIAG","AGHAJARI","IRN","20-01-22","""2020-01-22T16:00:00.000Z""","OIAG 221600Z 18014KT 9999 SCT040 14/10 Q1015 20-01-22",0,0,0,0,0,0,30.75,49.68333333333333
"OIAH","GACHSARAN","IRN","20-01-22","""2020-01-22T16:00:00.000Z""","OIAH 221600Z 00000KT 6000 TSRA FEW035CB FEW040 OVC090 09/08 Q1018 20-01-22",0,0,3.3,0,8,0,30.337777777777777,50.82805555555556
"OIAM","BANDAR MAHSHAHR/MAHSHAHR","IRN","20-01-22","""2020-01-22T16:00:00.000Z""","OIAM 221600Z 29010KT 5000 HZ SCT040 15/10 Q1015 20-01-22",0,0,0,0,0,0,30.55888888888889,49.150555555555556
"OIBK","KISH ISLAND/KISH","IRN","20-01-22","""2020-01-22T16:00:00.000Z""","OIBK 221600Z 12006KT 9999 FEW040 19/13 Q1017 20-01-22",0,0,0,0,0,0,26.5275,53.97916666666667
"OIBL","BANDAR LENGHEH","IRN","20-01-22","""2020-01-22T16:00:00.000Z""","OIBL 221600Z 07006KT CAVOK 21/13 Q1017 20-01-22",0,0,0,0,0,0,26.531388888888888,54.8275
"OIFM","ESFAHAN / SHAHID BEHESHTI INTL","IRN","20-01-22","""2020-01-22T16:30:00.000Z""","OIFM 221630Z 13010KT 9999 FEW040 BKN100 04/00 Q1016 A3000 20-01-22",0,0,0,0,0,0,32.75083333333333,51.86277777777778
"OIGG","RASHT/SARDAR-E-JANGAL","IRN","20-01-22","""2020-01-22T16:30:00.000Z""","OIGG 221630Z 24004KT 7000 FEW025 SCT060 06/04 Q1020 20-01-22",0,0,0,0,0,0,37.32333333333334,49.617777777777775
"OIII","TEHRAN/MEHRABAD INTL","IRN","20-01-22","""2020-01-22T16:30:00.000Z""","OIII 221630Z 16012KT 5000 -RA SCT030 OVC090 03/M01 Q1018 A3008 20-01-22",0,0,0,2.5,0,0,35.68888888888888,51.31472222222222
"OIFS","SHAHRE KORD","IRN","20-01-22","""2020-01-22T16:00:00.000Z""","OIFS 221600Z 22012KT 0200 +BLSN FEW020CB SCT030 OVC070 00/00 Q1015 20-01-22",10,0,10,10,1.3,0,32.29722222222222,50.842222222222226
"OIKB","BANDAR ABBASS/INTL","IRN","20-01-22","""2020-01-22T16:30:00.000Z""","OIKB 221630Z 34004KT 9999 FEW100 19/13 Q1018 A3008 20-01-22",0,0,0,0,0,0,27.21861111111111,56.37777777777778
"OIMM","MASHHAD/SHAHID HASHEMI NEJAD INTL","IRN","20-01-22","""2020-01-22T16:30:00.000Z""","OIMM 221630Z 13004KT 8000 NSC M01/M03 Q1022 A3019 20-01-22",0,0,0,2.5,0,0,36.23416666666667,59.644999999999996
"OIIK","GHAZVIN","IRN","20-01-22","""2020-01-22T16:00:00.000Z""","OIIK 221600Z 11004KT 6000 FEW035 OVC080 01/M00 Q1016 20-01-22",0,0,0,2.5,0,0,36.24111111111111,50.0425
"OIIP","KARAJ/PAYAM","IRN","20-01-22","""2020-01-22T16:00:00.000Z""","OIIP 221600Z 10014KT 2000 -SN SCT035 OVC100 02/M01 Q1016 A3002 20-01-22",0,0,6.7,7.5,0,0,35.77972222222222,50.82277777777778
"OIKK","KERMAN","IRN","20-01-22","""2020-01-22T16:00:00.000Z""","OIKK 221600Z 00000KT 9999 FEW035CB SCT040 BKN100 08/M04 Q1021 A3015 20-01-22",0,0,0,0,1.3,0,30.274444444444445,56.95111111111111
"OIKQ","GHESHM ISLAND/DAYRESTAN","IRN","20-01-22","""2020-01-22T16:00:00.000Z""","OIKQ 221600Z 08006KT 9999 FEW030 21/16 Q1017 20-01-22",0,0,0,0,0,0,26.751944444444444,55.89722222222222
"OIMB","BIRJAND","IRN","20-01-22","""2020-01-22T16:00:00.000Z""","OIMB 221600Z 10014KT 9999 SCT035 04/01 Q1021 20-01-22",0,0,0,0,0,0,32.89805555555556,59.26611111111111
"OIMN","BOJNORD","IRN","20-01-22","""2020-01-22T16:00:00.000Z""","OIMN 221600Z 00000KT CAVOK M01/M07 Q1020 20-01-22",0,0,0,0,0,0,37.48916666666667,57.30638888888888
"OINE","KALALEH","IRN","20-01-22","""2020-01-22T16:00:00.000Z""","OINE 221600Z 00000KT CAVOK 06/01 Q1020 20-01-22",0,0,0,0,0,0,37.375,55.45194444444445
"OING","GORGAN","IRN","20-01-22","""2020-01-22T16:00:00.000Z""","OING 221600Z 00000KT CAVOK 05/03 Q1022 20-01-22",0,0,0,0,0,0,36.91138888888889,54.39805555555556
"OINN","NOSHAHR","IRN","20-01-22","""2020-01-22T16:00:00.000Z""","OINN 221600Z 16004KT 9999 FEW026 BKN190 08/04 Q1020 20-01-22",0,0,0,0,0,0,36.663333333333334,51.46472222222223
"OINR","RAMSAR","IRN","20-01-22","""2020-01-22T16:00:00.000Z""","OINR 221600Z 00000KT 9999 FEW030 08/06 Q1019 20-01-22",0,0,0,0,0,0,36.909166666666664,50.68
"OINZ","SARI/DASHT-E-NAZ","IRN","20-01-22","""2020-01-22T16:00:00.000Z""","OINZ 221600Z 15004KT CAVOK 04/02 Q1020 20-01-22",0,0,0,0,0,0,36.63583333333333,53.19361111111111
"OISF","FASA","IRN","20-01-22","""2020-01-22T16:00:00.000Z""","OISF 221600Z 00000KT 7000 -RA FEW030CB SCT035 OVC090 08/07 Q1019 A3010 20-01-22",0,0,0,0,1.3,0,28.892777777777777,53.72361111111111
"OISS","SHIRAZ/SHAHID DASTGHAIB INTL","IRN","20-01-22","""2020-01-22T16:30:00.000Z""","OISS 221630Z 14008KT 4000 RA BR FEW010 FEW030CB SCT035 OVC070 04/03 Q1021 A3015 20-01-22",0,0,3.3,0,1.3,1,29.540277777777778,52.58861111111111
"OITT","TABRIZ/INTL","IRN","20-01-22","""2020-01-22T16:30:00.000Z""","OITT 221630Z 03006KT 9999 FEW030 M05/M08 Q1018 A3009 20-01-22",0,0,0,0,0,0,38.13388888888889,46.235
"OIYY","YAZD/SHAHID SADOOGHI","IRN","20-01-22","""2020-01-22T16:30:00.000Z""","OIYY 221630Z 00000KT 5000 HZ FEW040 SCT200 07/01 Q1018 20-01-22",0,0,0,0,0,0,31.90611111111111,54.27638888888889
"OIZH","ZAHEDAN/INTL","IRN","20-01-22","""2020-01-22T16:30:00.000Z""","OIZH 221630Z 03004KT CAVOK 05/03 Q1024 A3024 20-01-22",0,0,0,0,0,0,29.473333333333333,60.90333333333333
"OITL","ARDABIL","IRN","20-01-22","""2020-01-22T16:00:00.000Z""","OITL 221600Z 10004KT CAVOK M06/M08 Q1016 20-01-22",0,0,0,2.5,0,0,38.32666666666667,48.424166666666665
"OITR","UROMIYEH","IRN","20-01-22","""2020-01-22T16:00:00.000Z""","OITR 221600Z 00000KT 9999 SCT035 BKN090 M02/M06 Q1017 20-01-22",0,0,0,0,0,0,37.671388888888885,45.06916666666667
"OIZB","ZABOL","IRN","20-01-22","""2020-01-22T16:00:00.000Z""","OIZB 221600Z 34010KT CAVOK 11/06 Q1024 20-01-22",0,0,0,0,0,0,31.098333333333333,61.54388888888889
"OIZI","IRAN SHAHR","IRN","20-01-22","""2020-01-22T16:00:00.000Z""","OIZI 221600Z 04004KT 9999 FEW040 SCT100 18/08 Q1020 20-01-22",0,0,0,0,0,0,27.228888888888886,60.721111111111114
"OIBP","PARS SPECIAL ZONE/PERSIAN GULF","IRN","20-01-22","""2020-01-22T16:00:00.000Z""","OIBP 221600Z 00000KT 9999 SCT040 BKN090 19/15 Q1017 A3004 20-01-22",0,0,0,0,0,0,27.379444444444445,52.73777777777778
"OIIE","TEHRAN/IMAM KHOMAINI INTL","IRN","20-01-22","""2020-01-22T16:00:00.000Z""","OIIE 221600Z 09016KT 9999 SCT040 BKN100 05/M02 Q1019 20-01-22",0,2,0,0,0,0,35.41611111111111,51.15222222222222
"OIZJ","JASK","IRN","20-01-22","""2020-01-22T16:00:00.000Z""","OIZJ 221600Z 09017KT 7000 SCT035 BKN080 21/17 Q1018 20-01-22",0,2,0,0,0,0,25.6536111,57.7988889
"OIMC","SARAKHS","IRN","20-01-22","""2020-01-22T16:00:00.000Z""","OIMC 221600Z 10014KT CAVOK 03/01 Q1024 20-01-22",0,0,0,0,0,0,36.488055555555555,61.07
"OISL","LAR","IRN","20-01-22","""2020-01-22T16:00:00.000Z""","OISL 221600Z 13004KT 9999 SCT040 13/06 Q1018 20-01-22",0,0,0,0,0,0,27.673055555555557,54.38722222222222
"OISY","YASOUJ","IRN","20-01-22","""2020-01-22T16:00:00.000Z""","OISY 221600Z 00000KT 3000 TSRA FEW030CB SCT035 OVC070 01/01 Q1018 20-01-22",0,0,3.3,2.5,8,0,30.696944444444444,51.55
"OITM","MARAGHEH/SAHAND","IRN","20-01-22","""2020-01-22T16:00:00.000Z""","OITM 221600Z 10004KT 7000 FEW035 M05/M07 Q1015 20-01-22",0,0,0,2.5,0,0,37.34805555555556,46.13305555555556
"OJAI","AMMAN/QUEEN ALIA","JOR","20-01-22","""2020-01-22T16:00:00.000Z""","OJAI 221600Z 28010KT 4000 BR SCT030 BKN035 06/05 Q1021 NOSIG 20-01-22",0,0,0,0,0,0,31.722555555555555,35.99321388888889
"OJAM","AMMAN/MARKA","JOR","20-01-22","""2020-01-22T16:00:00.000Z""","OJAM 221600Z 30007KT 4000 HZ FEW025 SCT030 06/04 Q1020 NOSIG 20-01-22",0,0,0,0,0,0,31.972702777777776,35.991569444444444
"OKBK","KUWAIT/INTL AIRPORT","KWT","20-01-22","""2020-01-22T16:00:00.000Z""","OKBK 221600Z 27008KT CAVOK 16/M01 Q1017 NOSIG 20-01-22",0,0,0,0,0,0,29.226766666666666,47.97995277777778
"OMRK","RAS AL KHAIMAH INTERNATIONAL","ARE","20-01-22","""2020-01-22T16:00:00.000Z""","OMRK 221600Z 10012KT CAVOK 22/15 Q1017 A3006 20-01-22",0,0,0,0,0,0,25.613333333333333,55.93888888888888
"OMFJ","FUJAIRAH INTERNATIONAL","ARE","20-01-22","""2020-01-22T16:00:00.000Z""","OMFJ 221600Z 16001KT 9999 FEW025 23/15 Q1018 A3007 20-01-22",0,0,0,0,0,0,25.112222222222222,56.32416666666667
"OMDW","DUBAI/AL MAKTOUM INTERNATIONAL","ARE","20-01-22","""2020-01-22T16:00:00.000Z""","OMDW 221600Z 36007KT CAVOK 19/15 Q1018 NOSIG 20-01-22",0,0,0,0,0,0,24.918333333333333,55.175555555555555
"OMDB","DUBAI INTERNATIONAL","ARE","20-01-22","""2020-01-22T16:00:00.000Z""","OMDB 221600Z 03007KT 360V070 CAVOK 23/16 Q1017 NOSIG 20-01-22",0,0,0,0,0,0,25.252777777777776,55.364444444444445
"OMAL","AL AIN INTERNATIONAL","ARE","20-01-22","""2020-01-22T16:00:00.000Z""","OMAL 221600Z 14004KT CAVOK 22/03 Q1018 NOSIG 20-01-22",0,0,0,0,0,0,24.261666666666667,55.60916666666667
"OMAD","ABU DHABI/AL BATEEN EXECUTIVE AIRPORT","ARE","20-01-22","""2020-01-22T16:00:00.000Z""","OMAD 221600Z 03007KT CAVOK 20/14 Q1017 NOSIG 20-01-22",0,0,0,0,0,0,24.428333333333335,54.45805555555556
"OMAA","ABU DHABI INTERNATIONAL","ARE","20-01-22","""2020-01-22T16:00:00.000Z""","OMAA 221600Z 02009KT CAVOK 20/12 Q1016 NOSIG 20-01-22",0,0,0,0,0,0,24.43305555555556,54.651111111111106
"OLBA","RAFFIC HARIRI INTL BEIRUT","LBN","20-01-22","""2020-01-22T16:00:00.000Z""","OLBA 221600Z 34009KT 310V010 8000 -RA BKN030 13/05 Q1023 NOSIG 20-01-22",0,0,0,0,0,0,33.819050000000004,35.490027777777776
"OMSJ","SHARJAH INTERNATIONAL","ARE","20-01-22","""2020-01-22T16:00:00.000Z""","OMSJ 221600Z 36005KT CAVOK 21/16 Q1017 NOSIG 20-01-22",0,0,0,0,0,0,25.329166666666666,55.51611111111111
"OPMT","MULTAN/INTL.","PAK","20-01-22","""2020-01-22T16:30:00.000Z""","OPMT 221630Z 00000KT 4000 FU NSC 13/09 Q1023 NOSIG 20-01-22",0,0,0,0,0,0,30.203222222222223,71.41911111111112
"OPPS","PESHAWAR/BKIAP INTL.","PAK","20-01-22","""2020-01-22T16:30:00.000Z""","OPPS 221630Z 23004KT 5000 HZ SKC FEW040 10/03 Q1024 20-01-22",0,0,0,0,0,0,33.99391388888889,71.51458333333333
"OPKC","KARACHI/JIAP","PAK","20-01-22","""2020-01-22T16:25:00.000Z""","OPKC 221625Z 03007KT 5000 HZ NSC 17/05 Q1022 NOSIG 20-01-22",0,0,0,0,0,0,24.908558333333332,67.16276111111112
"OPLA","LAHORE/ALLAP","PAK","20-01-22","""2020-01-22T16:25:00.000Z""","OPLA 221625Z 00000KT 4000 FU NSC 13/07 Q1022 RMK QFE996 RMK A30.17 20-01-22",0,0,0,0,0,0,31.52156111111111,74.40457500000001
"OPNH","NAWABSHAH","PAK","20-01-22","""2020-01-22T16:00:00.000Z""","OPNH 221600Z 31506KT 4000 FU NSC 16/06 Q1022 NOSIG 20-01-22",0,0,0,0,0,0,26.219441666666665,68.39005277777778
"OPSK","SUKKUR","PAK","20-01-22","""2020-01-22T16:00:00.000Z""","OPSK 221600Z 00000KT 3000 HZ NSC 14/09 Q1022 NOSIG 20-01-22",0,0,0,0,0,0,27.722016666666665,68.79182777777777
"OPST","SIALKOT INTERNATIONAL","PAK","20-01-22","""2020-01-22T16:00:00.000Z""","OPST 221600Z 31006KT 4000 FU NSC 09/06 Q1022 NOSIG RH80 20-01-22",0,0,0,0,0,0,32.535738888888886,74.36383055555555
"OOMS","MUSCAT/MUSCAT INTL","OMN","20-01-22","""2020-01-22T15:50:00.000Z""","OOMS 221550Z 08011KT CAVOK 24/18 Q1016 NOSIG 20-01-22",0,0,0,0,0,0,23.592858333333332,58.281797222222224
"OOSA","SALALAH","OMN","20-01-22","""2020-01-22T15:50:00.000Z""","OOSA 221550Z 13008KT 9999 FEW030 25/16 Q1016 NOSIG 20-01-22",0,0,0,0,0,0,17.03872777777778,54.091297222222224
"OTBD","DOHA INTERNATIONAL","QAT","20-01-22","""2020-01-22T16:30:00.000Z""","OTBD 221630Z AUTO 09009KT CAVOK 20/15 Q1016 NOSIG 20-01-22",0,0,0,0,0,0,25.261058333333335,51.56509444444444
"ORBI","BAGHDAD INTERNATIONAL AIRPORT","IRQ","20-01-22","""2020-01-22T16:00:00.000Z""","ORBI 221600Z 21005KT 9999 SCT030 BKN060 09/08 Q1014 NOSIG 20-01-22",0,0,0,0,0,0,33.26253888888889,44.23457777777778
"ORER","ERBIL INTL AIRPORT","IRQ","20-01-22","""2020-01-22T16:00:00.000Z""","ORER 221600Z VRB02KT 7000 NSC 08/05 Q1016 NOSIG 20-01-22",0,0,0,0,0,0,36.238055555555555,43.946666666666665
"ORMM","BASRAH INTL AIRPORT","IRQ","20-01-22","""2020-01-22T16:00:00.000Z""","ORMM 221600Z 24010KT CAVOK 13/04 Q1016 NOSIG 20-01-22",0,0,0,0,0,0,30.549069444444445,47.66214166666666
"ORNI","AL NAJAF","IRQ","20-01-22","""2020-01-22T16:00:00.000Z""","ORNI 221600Z 31008KT 7000 FEW025CB BKN030 09/08 Q1015 TEMPO -TS SHRA 20-01-22",0,0,0,0,1.3,0,31.989722222222223,44.40416666666667
"OSDI","DAMASCUS/INTL","SYR","20-01-22","""2020-01-22T16:00:00.000Z""","OSDI 221600Z 11010KT 9999 FEW030 08/04 Q1019 20-01-22",0,0,0,0,0,0,33.41083333333333,36.513333333333335
"OSLK","BASSEL AL ASSAD INTL. LATTAKIA","SYR","20-01-22","""2020-01-22T16:00:00.000Z""","OSLK 221600Z 03006KT 9999 FEW030 10/05 Q1020 20-01-22",0,0,0,0,0,0,35.40990277777777,35.94783611111111
"UAAA","ALMATY","KAZ","20-01-22","""2020-01-22T16:30:00.000Z""","UAAA 221630Z VRB01MPS 0700 R05L/1900N R05R/1900 -SN FZFG OVC033 M04/M05 Q1027 R88/6/0150 NOSIG 20-01-22",4,0,10,10,0,0,43.355555555555554,77.04388888888889
"UACC","ASTANA","KAZ","20-01-22","""2020-01-22T16:30:00.000Z""","UACC 221630Z 21013MPS 1800 R22/P2000 SN BLSN SCT012 OVC030 M06/M08 Q1011 R22/4/2045 TEMPO 22013G18MPS 0600 SN BLSN RMK QFE727/0969 20-01-22",0,0,10,10,0,1,51.0225,71.46611111111112
"UADD","TARAZ","KAZ","20-01-22","""2020-01-22T16:30:00.000Z""","UADD 221630Z 23002MPS 9999 SCT040 OVC100 M01/M04 Q1025 R13/0///65 NOSIG RMK QFE711/0948 20-01-22",0,0,0,0,0,0,42.85416666666667,71.30277777777778
"UAII","SHYMKENT","KAZ","20-01-22","""2020-01-22T16:30:00.000Z""","UAII 221630Z 22002MPS 9000 NSC M02/M03 Q1027 R10/0///70 NOSIG RMK QFE735/0980 20-01-22",0,0,0,2.5,0,0,42.365,69.47555555555556
"UAKK","KARAGANDA","KAZ","20-01-22","""2020-01-22T16:30:00.000Z""","UAKK 221630Z 23013MPS 0900 R23/2000 SHSN BLSN OVC017CB M07/M09 Q1015 R23/820552 NOSIG RMK QFE715/0953 20-01-22",0,0,10,10,8,0,49.67166666666667,73.33527777777778
"UARR","URALSK","KAZ","20-01-22","""2020-01-22T16:30:00.000Z""","UARR 221630Z 25006MPS 9999 BKN010 OVC026 01/M00 Q0995 R22/220550 NOSIG RMK QFE743/0990 20-01-22",0,0,0,2.5,0,0,51.151944444444446,51.54388888888889
"UASP","PAVLODAR","KAZ","20-01-22","""2020-01-22T16:30:00.000Z""","UASP 221630Z 21008MPS 9999 -SN DRSN SCT049 OVC070 M05/M08 Q1016 R21/710260 NOSIG RMK QFE750/1001 20-01-22",0,0,10,10,0,0,52.195277777777775,77.07333333333332
"UATE","AKTAU","KAZ","20-01-22","""2020-01-22T16:30:00.000Z""","UATE 221630Z 26009G14MPS 240V300 9999 BKN023CB OVC043 07/03 Q1014 R30/2///60 NOSIG RMK QFE759/1012 20-01-22",0,2,0,0,3.3,0,43.86,51.090833333333336
"UATG","ATYRAU","KAZ","20-01-22","""2020-01-22T16:30:00.000Z""","UATG 221630Z 25009MPS 5000 BR BKN008 OVC020CB 01/01 Q1006 R32/82//55 NOSIG RMK QFE756/1009 20-01-22",0,0,0,7.5,4,0,47.121944444444445,51.82
"UATT","AKTOBE","KAZ","20-01-22","""2020-01-22T16:30:00.000Z""","UATT 221630Z 25011MPS 3400 -SN BLSN BKN008 OVC036 M01/M02 Q0995 R13/390137 NOSIG RMK QFE727/0969 20-01-22",0,0,10,10,0,1,50.24583333333334,57.20666666666667
"UAUU","KOSTANAY","KAZ","20-01-22","""2020-01-22T16:30:00.000Z""","UAUU 221630Z 20013MPS 0300 R15/1000N +SN BLSN BKN009 OVC040 M04/M05 Q0990 R15/890140 NOSIG RMK QFE726/0969 20-01-22",10,0,10,10,0,1,53.20722222222223,63.54888888888889
"UBBB","HEYDAR ALIYEV INTERNATIONAL AIRPORT","AZE","20-01-22","""2020-01-22T16:30:00.000Z""","UBBB 221630Z 15002KT CAVOK 03/00 Q1017 R88/D NOSIG 20-01-22",0,0,0,0,0,0,40.469722222222224,50.05138888888889
"UAOO","KYZYLORDA","KAZ","20-01-22","""2020-01-22T16:00:00.000Z""","UAOO 221600Z 22008MPS 9999 BKN046 M01/M07 Q1023 NOSIG RMK QFE755/1007 20-01-22",0,0,0,0,0,0,44.70638888888889,65.59083333333332
"UBBG","GANJA","AZE","20-01-22","""2020-01-22T16:30:00.000Z""","UBBG 221630Z 27014KT 9999 SCT100 06/M05 Q1019 R30/CLRD// NOSIG 20-01-22",0,0,0,0,0,0,40.73888888888889,46.32
"UBBN","NAKHCHIVAN","AZE","20-01-22","""2020-01-22T16:30:00.000Z""","UBBN 221630Z 01006KT 8000 FEW080 M02/M04 Q1018 R14R/CLRD// NOSIG RMK MT OBSC QFE689 20-01-22",0,0,0,2.5,0,0,39.18873333333333,45.457280555555556
"UCFM","BISHKEK/MANAS","KGZ","20-01-22","""2020-01-22T16:30:00.000Z""","UCFM 221630Z 10001MPS 0350 0300S R08/1000U -SN FZFG SCT010 OVC033 M04/M04 Q1026 R08/520294 TEMPO 0150 SN FZFG BKN002 20-01-22",0,0,10,10,0,1,43.06127222222222,74.47750833333333
"UCFO","OSH","KGZ","20-01-22","""2020-01-22T16:30:00.000Z""","UCFO 221630Z VRB01MPS 0650 0500W R12/1200N FZFG VV004 M02/M02 Q1028 R12/2///95 TEMPO 0200 FZFG 20-01-22",4,0,10,10,0,0,40.60899722222222,72.79321388888889
"UGKO","KUTAISI/KOPITNARI","GEO","20-01-22","""2020-01-22T16:30:00.000Z""","UGKO 221630Z 19003KT 160V220 9999 SCT027 OVC048 04/03 Q1025 R25/29//50 NOSIG 20-01-22",0,0,0,0,0,0,42.176825,42.48271388888889
"UGTB","TBILISI/TBILISI","GEO","20-01-22","""2020-01-22T16:30:00.000Z""","UGTB 221630Z 31022G32KT CAVOK 04/M03 Q1021 NOSIG 20-01-22",0,6,0,0,0,0,41.669155555555555,44.95479166666667
"UBBL","LENKORAN","AZE","20-01-22","""2020-01-22T16:00:00.000Z""","UBBL 221600Z 00000KT 9999 NSC 02/M01 Q1021 R33/CLRD// NOSIG RMK MT OP 20-01-22",0,0,0,0,0,0,38.75861111111111,48.80638888888888
"UBBQ","GABALA","AZE","20-01-22","""2020-01-22T16:00:00.000Z""","UBBQ 221600Z 29004KT 9999 SCT180 03/M03 Q1018 R16/////// NOSIG RMK MT OP 20-01-22",0,0,0,0,0,0,40.80888888888889,47.72527777777778
"UBBY","ZAGATALA","AZE","20-01-22","""2020-01-22T16:00:00.000Z""","UBBY 221600Z 09006KT 9999 FEW050 BKN100 02/M01 Q1020 R33/CLRD// NOSIG RMK MT OP 20-01-22",0,0,0,0,0,0,41.56222222222222,46.66722222222222
"UDSG","GYUMRI","ARM","20-01-22","""2020-01-22T16:30:00.000Z""","UDSG 221630Z VRB01KT 9000 FEW049 M06/M12 Q1017 R02/CLRD70 NOSIG 20-01-22",0,0,0,0,0,0,40.75055555555556,43.85944444444445
"UDYZ","YEREVAN","ARM","20-01-22","""2020-01-22T16:30:00.000Z""","UDYZ 221630Z VRB01KT 9999 NSC M01/M07 Q1019 R09/010070 NOSIG 20-01-22",0,0,0,0,0,0,40.14722222222222,44.395833333333336
"UEEE","YAKUTSK","RUS","20-01-22","""2020-01-22T16:30:00.000Z""","UEEE 221630Z 35002MPS 1800 R23L/P2000N BR NSC M38/M42 Q1016 R23L/450145 NOSIG RMK QFE753 20-01-22",0,0,0,10,0,0,62.093333333333334,129.77333333333334
"UGSB","BATUMI","GEO","20-01-22","""2020-01-22T16:30:00.000Z""","UGSB 221630Z 12008KT 9999 FEW036 BKN070 05/03 Q1026 R13/29//55 NOSIG 20-01-22",0,0,0,0,0,0,41.61017777777778,41.59943888888889
"UHHH","KHABAROVSK/NOVY","RUS","20-01-22","""2020-01-22T16:30:00.000Z""","UHHH 221630Z 25006MPS CAVOK M15/M19 Q1021 R23L/420150 NOSIG RMK QFE759/1012 20-01-22",0,0,0,0,0,0,48.528055555555554,135.18805555555556
"UASK","UST-KAMENOGORSK","KAZ","20-01-22","""2020-01-22T16:00:00.000Z""","UASK 221600Z 24006MPS 2700 SHSN DRSN BKN020CB OVC042 M04/M05 Q1024 R30/450340 NOSIG RMK QFE743/0990 20-01-22",0,0,10,10,6.7,0,50.03666666666666,82.49361111111111
"UHBB","BLAGOVESHCHENSK/IGNATYEVO","RUS","20-01-22","""2020-01-22T16:00:00.000Z""","UHBB 221600Z 18002MPS 8000 NSC M21/M25 Q1020 R36/420250 NOSIG RMK QFE747/0997 20-01-22",0,0,0,0,0,0,50.425555555555555,127.41250000000001
"UHMA","ANADYR/UGOLNY","RUS","20-01-22","""2020-01-22T16:00:00.000Z""","UHMA 221600Z 01002MPS 340V040 CAVOK M33/M36 Q1011 R01/////// NOSIG RMK TDZ R01/01002G03MPS END R01/04002MPS QFE755/1006 20-01-22",0,0,0,0,0,0,64.735,177.73833333333332
"UHMM","MAGADAN/SOKOL","RUS","20-01-22","""2020-01-22T16:00:00.000Z""","UHMM 221600Z 03002MPS 290V090 9999 NSC M40/M44 Q1010 RMK QFE743 20-01-22",0,0,0,0,0,0,59.91111111111111,150.72055555555556
"ULMM","MURMANSK","RUS","20-01-22","""2020-01-22T16:30:00.000Z""","ULMM 221630Z 31006MPS 1600 1300SE R31/P2000U SHSN BLSN SCT009 BKN019CB M05/M07 Q0995 R31///99// TEMPO 29011G19MPS 0200 +SHSN BLSN VV001 RMK OBST OBSC QFE739 20-01-22",0,0,10,10,6.7,1,68.78166666666667,32.75111111111111
"ULLI","SANKT-PETERBURG/PULKOVO","RUS","20-01-22","""2020-01-22T16:30:00.000Z""","ULLI 221630Z 32010G15MPS 9999 BKN040 M00/M07 Q1005 R88/090060 NOSIG 20-01-22",0,2,0,0,0,0,59.80027777777777,30.2625
"ULAA","ARKHANGELSK/TALAGI","RUS","20-01-22","""2020-01-22T16:30:00.000Z""","ULAA 221630Z 34005MPS 300V030 9999 BKN017CB M04/M07 Q0988 R26/590339 NOSIG RMK QFE739/0986 20-01-22",0,0,0,0,3.3,0,64.60027777777778,40.71666666666667
"UIUU","ULAN-UDE/MUKHINO","RUS","20-01-22","""2020-01-22T16:30:00.000Z""","UIUU 221630Z 26004MPS 9999 SCT046CB M16/M19 Q1026 R26/820550 NOSIG RMK QFE725/0967 20-01-22",0,0,0,0,2,0,51.80777777777777,107.43833333333333
"UIII","IRKUTSK","RUS","20-01-22","""2020-01-22T16:30:00.000Z""","UIII 221630Z VRB01MPS CAVOK M20/M22 Q1028 R30/490142 NOSIG RMK QFE726/0968 20-01-22",0,0,0,0,0,0,52.26722222222222,104.39472222222223
"UIBB","BRATSK","RUS","20-01-22","""2020-01-22T16:30:00.000Z""","UIBB 221630Z AUTO 26002MPS 220V280 9999 // NCD M26/M28 Q1024 RMK QFE724/0966 20-01-22",0,0,0,0,0,0,56.370555555555555,101.69861111111112
"UIAA","CHITA/KADALA","RUS","20-01-22","""2020-01-22T16:30:00.000Z""","UIAA 221630Z AUTO 22003MPS 9999 NCD M18/M27 Q1017 RMK QFE704/0939 20-01-22",0,0,0,0,0,0,52.02611111111111,113.30499999999999
"UHWW","VLADIVOSTOK/KNEVICHI","RUS","20-01-22","""2020-01-22T16:30:00.000Z""","UHWW 221630Z 22002MPS 6000 NSC M16/M19 Q1024 R25L/0///70 NOSIG RMK QFE767 20-01-22",0,0,0,0,0,0,43.39805555555556,132.14888888888888
"UHSS","YUZHNO-SAKHALINSK/KHOMUTOVO","RUS","20-01-22","""2020-01-22T16:00:00.000Z""","UHSS 221600Z 30001MPS 5000 FU BKN038CB M10/M12 Q1016 R19/490550 NOSIG RMK QFE760/1014 20-01-22",0,0,0,0,3.3,0,46.88861111111111,142.7175
"UHPP","PETROPAVLOVSK-KAMCHATSKY/YELIZOVO","RUS","20-01-22","""2020-01-22T16:00:00.000Z""","UHPP 221600Z 01006MPS 9999 NSC M18/M24 Q1007 R34L/CLRD70 NOSIG RMK QFE752/1002 20-01-22",0,0,0,0,0,0,53.169444444444444,158.45055555555555
"ULWC","CHEREPOVETS","RUS","20-01-22","""2020-01-22T16:30:00.000Z""","ULWC 221630Z 32002MPS 8000 -SHSN BKN020CB M02/M04 Q0992 R03/490538 NOSIG RMK QFE735/0980 20-01-22",0,0,10,10,4,0,59.27611111111111,38.01888888888889
"UNTT","TOMSK/BOGASHEVO","RUS","20-01-22","""2020-01-22T16:30:00.000Z""","UNTT 221630Z 18005MPS 4800 -SHSN SCT018CB BKN029 M10/M12 Q1014 R21/490140 NOSIG RMK QFE746 20-01-22",0,0,10,10,3.3,0,56.38305555555556,85.21055555555556
"UNOO","OMSK/TSENTRALNY","RUS","20-01-22","""2020-01-22T16:30:00.000Z""","UNOO 221630Z 20007MPS 9999 BKN033CB M05/M08 Q1004 R25/390136 NOSIG RMK QFE745 20-01-22",0,0,0,0,3.3,0,54.967222222222226,73.31027777777777
"UNNT","NOVOSIBIRSK/TOLMACHEVO","RUS","20-01-22","""2020-01-22T16:30:00.000Z""","UNNT 221630Z 18006MPS 8000 -SN OVC033 M07/M09 Q1014 R25/390138 R16/390136 NOSIG RMK QFE751/1001 20-01-22",0,0,6.7,7.5,0,0,55.03333333333333,82.59916666666666
"UNKL","KRASNOYARSK/YEMELYANOVO","RUS","20-01-22","""2020-01-22T16:30:00.000Z""","UNKL 221630Z 00000MPS 5000 BR NSC M25/M28 Q1021 R29/810260 NOSIG RMK QFE740 20-01-22",0,0,0,10,0,0,56.17305555555555,92.49333333333334
"UNEE","KEMEROVO","RUS","20-01-22","""2020-01-22T16:30:00.000Z""","UNEE 221630Z 14003MPS 2600 -SN BR OVC043 M10/M11 Q1016 R23/451040 NOSIG RMK QFE739 20-01-22",0,0,6.7,7.5,0,0,55.269999999999996,86.10749999999999
"UNBB","BARNAUL/MIKHAYLOVKA","RUS","20-01-22","""2020-01-22T16:30:00.000Z""","UNBB 221630Z 21005MPS 9999 BKN040 M07/M09 Q1017 R24/420248 NOSIG RMK QFE741 20-01-22",0,0,0,2.5,0,0,53.36333333333334,83.53972222222222
"UNAA","ABAKAN","RUS","20-01-22","""2020-01-22T16:30:00.000Z""","UNAA 221630Z 00000MPS 6000 NSC M19/M21 Q1024 R02/810155 NOSIG RMK QFE745 20-01-22",0,0,0,0,0,0,53.74,91.38527777777779
"UMKK","KALININGRAD/KHRABROVO","RUS","20-01-22","""2020-01-22T16:30:00.000Z""","UMKK 221630Z 34009MPS 9999 BKN032 05/M01 Q1022 R24/190095 NOSIG RMK QFE765/1020 20-01-22",0,0,0,0,0,0,54.89,20.592499999999998
"URKA","ANAPA/VITYAZEVO","RUS","20-01-22","""2020-01-22T16:30:00.000Z""","URKA 221630Z 23010G15MPS 9999 BKN019 08/04 Q1014 R22/010065 NOSIG RMK QFE755/1007 20-01-22",0,2,0,0,0,0,45.00222222222222,37.34722222222222
"URKK","KRASNODAR/PASHKOVSKIY","RUS","20-01-22","""2020-01-22T16:30:00.000Z""","URKK 221630Z 22011MPS 9999 BKN027CB BKN046 07/03 Q1013 R23L/290060 NOSIG RMK QFE756 20-01-22",0,0,0,0,3.3,0,45.03472222222222,39.17027777777778
"URML","MAKHACHKALA/UYTASH","RUS","20-01-22","""2020-01-22T16:30:00.000Z""","URML 221630Z 19003MPS 130V260 9999 NSC 05/M00 Q1015 R14/01//70 NOSIG RMK QFE761/1015 20-01-22",0,0,0,0,0,0,42.81679722222223,47.652408333333334
"URMM","MINERALNYYE VODY","RUS","20-01-22","""2020-01-22T16:30:00.000Z""","URMM 221630Z 06001MPS 9999 NSC 02/M04 Q1012 R30/090070 NOSIG RMK QFE730/0974 20-01-22",0,0,0,0,0,0,44.22680555555556,43.08302777777778
"URMO","VLADIKAVKAZ/BESLAN","RUS","20-01-22","""2020-01-22T16:30:00.000Z""","URMO 221630Z 09004MPS 9999 BKN/// M01/M04 Q1011 R09/010070 NOSIG RMK QFE715/0953 20-01-22",0,0,0,0,0,0,43.20527777777778,44.60666666666667
"URMT","STAVROPOL/SHPAKOVSKOYE","RUS","20-01-22","""2020-01-22T16:30:00.000Z""","URMT 221630Z 29010MPS 9999 FEW027 03/M02 Q1009 R25/190060 NOSIG RMK QFE718 20-01-22",0,0,0,0,0,0,45.10916666666667,42.112500000000004
"URSS","SOCHI","RUS","20-01-22","""2020-01-22T16:30:00.000Z""","URSS 221630Z 13005G10MPS 9999 SCT023CB OVC043 06/01 Q1023 WS ALL RWY R02/010070 R06/010070 NOSIG RMK R06/13006G09MPS MT OBSC QFE766 20-01-22",0,2,0,0,2,0,43.44444444444444,39.94694444444444
"URWA","ASTRAKHAN","RUS","20-01-22","""2020-01-22T16:30:00.000Z""","URWA 221630Z 24008MPS 9999 OVC019 03/M00 Q1008 R27/290055 NOSIG RMK QFE758/1011 20-01-22",0,0,0,0,0,0,46.28333333333333,48.006388888888885
"URWI","ELISTA","RUS","20-01-22","""2020-01-22T16:30:00.000Z""","URWI 221630Z 27008MPS 7000 OVC009 02/01 Q1007 R27/190055 TEMPO 29011G18MPS 1000 -SHRASN BR BKN003 BKN020CB 20-01-22",0,0,0,2.5,0,0,46.374722222222225,44.323888888888895
"URMN","NALCHIK","RUS","20-01-22","""2020-01-22T16:00:00.000Z""","URMN 221600Z 26002MPS 9999 NSC 01/M04 Q1010 R24/010070 NOSIG RMK QFE721 20-01-22",0,0,0,0,0,0,43.513333333333335,43.63666666666666
"URWW","VOLGOGRAD/GUMRAK","RUS","20-01-22","""2020-01-22T16:30:00.000Z""","URWW 221630Z 26008MPS 9999 BKN008 01/M00 Q1001 R24/290060 NOSIG RMK OBST OBSC 20-01-22",0,0,0,2.5,0,0,48.780277777777776,44.33555555555556
"USTR","TYUMEN/ROSHCHINO","RUS","20-01-22","""2020-01-22T16:30:00.000Z""","USTR 221630Z 17008MPS 9000 -SN DRSN BKN013 M03/M05 Q0986 R21/390045 R30/390045 TEMPO 1000 SN BLSN VV004 RMK QFE730/0974 20-01-22",0,0,10,10,0,0,57.16833333333333,65.31611111111111
"USSS","YEKATERINBURG/KOLTSOVO","RUS","20-01-22","""2020-01-22T16:30:00.000Z""","USSS 221630Z 16004MPS 9999 -SN SCT039 M04/M05 Q0980 R08L/490235 NOSIG RMK QFE715/0954 20-01-22",0,0,6.7,7.5,0,0,56.74305555555556,60.80305555555555
"USRR","SURGUT","RUS","20-01-22","""2020-01-22T16:30:00.000Z""","USRR 221630Z 16004MPS 130V190 9999 SCT007 M13/M14 Q0996 R07/39//35 NOSIG RMK QFE742 20-01-22",0,0,0,2.5,0,0,61.34388888888889,73.40222222222222
"USPP","PERM/BOLSHOE SAVINO","RUS","20-01-22","""2020-01-22T16:30:00.000Z""","USPP 221630Z 22004MPS 1900 FZRA SN BKN022 M01/M02 Q0977 R21/491031 TEMPO 0700 +FZRA SN VV004 RMK QFE723 20-01-22",0,0,10,10,0,0,57.91444444444444,56.021388888888886
"USNN","NIZHNEVARTOVSK","RUS","20-01-22","""2020-01-22T16:30:00.000Z""","USNN 221630Z 16005MPS 9999 -SN OVC009 M13/M15 Q1000 R21/450539 NOSIG RMK QFE745 20-01-22",0,0,6.7,7.5,0,0,60.948611111111106,76.48055555555555
"USHH","KHANTY-MANSIYSK","RUS","20-01-22","""2020-01-22T16:30:00.000Z""","USHH 221630Z 15006G11MPS 2700 -SN BLSN SCT013 M10/M12 Q0988 R06/390035 TEMPO 1000 SN OVC004 20-01-22",0,2,10,10,0,1,61.02861111111111,69.08611111111111
"USCM","MAGNITOGORSK","RUS","20-01-22","""2020-01-22T16:30:00.000Z""","USCM 221630Z 23006MPS 5000 -SN OVC018 M02/M04 Q0984 R18/420349 TEMPO 20014MPS RMK QFE701 20-01-22",0,0,6.7,7.5,0,0,53.393055555555556,58.75555555555555
"USCC","CHELYABINSK/BALANDINO","RUS","20-01-22","""2020-01-22T16:30:00.000Z""","USCC 221630Z 20007MPS 5000 -SHSN BKN012CB M03/M05 Q0982 R09/490345 NOSIG RMK QFE716 20-01-22",0,0,10,10,4,0,55.30583333333333,61.50361111111111
"UUBP","BRYANSK","RUS","20-01-22","""2020-01-22T16:00:00.000Z""","UUBP 221600Z 28005MPS 6000 -SHSN BKN007 OVC015CB 00/M01 Q0999 R34/510150 NOSIG RMK QFE732/0976 20-01-22",0,0,10,10,6,0,53.214444444444446,34.17583333333333
"UUBW","RAMENSKOYE","RUS","20-01-22","""2020-01-22T16:30:00.000Z""","UUBW 221630Z 32005MPS 9999 -SHSN BKN030CB 00/M02 Q0994 R30/210050 TEMPO 1000 SHSN BKN012CB 20-01-22",0,0,10,10,4,0,55.55277777777778,38.14972222222222
"UUWW","MOSCOW/VNUKOVO","RUS","20-01-22","""2020-01-22T16:30:00.000Z""","UUWW 221630Z 32006MPS 9999 BKN014 M01/M04 Q0995 R01/510245 NOSIG 20-01-22",0,0,0,0,0,0,55.59916666666667,37.27305555555555
"UUOO","VORONEZH/CHERTOVITSKOYE","RUS","20-01-22","""2020-01-22T16:30:00.000Z""","UUOO 221630Z 27002MPS 4800 -SN OVC005 00/00 Q0996 R30/590438 NOSIG RMK QFE734 20-01-22",0,0,6.7,7.5,0,1,51.815,39.22972222222222
"UUOK","KURSK/VOSTOCHNY","RUS","20-01-22","""2020-01-22T16:30:00.000Z""","UUOK 221630Z 30006MPS 9999 OVC012 02/M00 Q0999 R30/290050 NOSIG RMK QFE731/0975 20-01-22",0,0,0,2.5,0,0,51.75055555555556,36.29555555555555
"UUOB","BELGOROD","RUS","20-01-22","""2020-01-22T16:30:00.000Z""","UUOB 221630Z 28007MPS 3300 -SN BR OVC004 00/M01 Q1000 R29/290055 NOSIG 20-01-22",0,0,6.7,7.5,0,1,50.64388888888889,36.59
"UUMO","OSTAFYEVO","RUS","20-01-22","""2020-01-22T16:30:00.000Z""","UUMO 221630Z 32007MPS 9999 BKN018 M01/M04 Q0994 R26/590542 NOSIG RMK QFE731/0974 20-01-22",0,0,0,0,0,0,55.5075,37.50416666666667
"UUEE","MOSCOW/SHEREMETYEVO","RUS","20-01-22","""2020-01-22T16:30:00.000Z""","UUEE 221630Z 32006MPS 9999 -SHSN BKN007CB M01/M03 Q0994 R24L/520245 R24R/550230 TEMPO 0700 +SHSN BKN015CB 20-01-22",0,0,10,10,4,0,55.972500000000004,37.41305555555555
"UUDL","YAROSLAVL/TUNOSHNA","RUS","20-01-22","""2020-01-22T16:30:00.000Z""","UUDL 221630Z 30004MPS CAVOK M02/M04 Q0991 R23/590739 NOSIG RMK QFE735 20-01-22",0,0,0,2.5,0,0,57.56055555555555,40.1575
"UUDD","MOSCOW/DOMODEDOVO","RUS","20-01-22","""2020-01-22T16:30:00.000Z""","UUDD 221630Z 30005MPS 9999 SCT014CB M00/M03 Q0994 RESHSN R32L///99// R32R/550237 NOSIG 20-01-22",0,0,0,0,2,0,55.40861111111111,37.906388888888884
"UUYY","SYKTYVKAR","RUS","20-01-22","""2020-01-22T16:30:00.000Z""","UUYY 221630Z 30004MPS 9999 OVC021 M03/M06 Q0978 R36/520242 NOSIG RMK QFE725/0966 20-01-22",0,0,0,0,0,0,61.646966666666664,50.845105555555556
"UWGG","NIZHNY NOVGOROD/STRIGINO","RUS","20-01-22","""2020-01-22T16:30:00.000Z""","UWGG 221630Z 24002MPS 9999 SCT016 M03/M04 Q0989 R36R/550147 TEMPO 0300 +SHSN BKN004CB 20-01-22",0,0,0,2.5,0,0,56.230000000000004,43.784166666666664
"UWKD","KAZAN","RUS","20-01-22","""2020-01-22T16:30:00.000Z""","UWKD 221630Z 27006MPS CAVOK M04/M06 Q0986 R29/810050 NOSIG RMK QFE729/0972 20-01-22",0,0,0,2.5,0,0,55.606944444444444,49.280277777777776
"UWKE","BEGISHEVO","RUS","20-01-22","""2020-01-22T16:30:00.000Z""","UWKE 221630Z 25005G10MPS 9999 DRSN BKN020 M02/M05 Q0984 R21/421050 NOSIG RMK QFE721/0962 20-01-22",0,2,10,10,0,0,55.56472222222222,52.0925
"UWKS","CHEBOKSARY","RUS","20-01-22","""2020-01-22T16:30:00.000Z""","UWKS 221630Z 27005MPS 9999 SCT010CB M03/M04 Q0986 R24/690338 TEMPO 0400 +SHSN BLSN VV002 RMK QFE726 20-01-22",0,0,0,2.5,2,0,56.09027777777778,47.34722222222222
"UWOO","ORENBURG","RUS","20-01-22","""2020-01-22T16:30:00.000Z""","UWOO 221630Z 24006MPS 9999 -RA OVC007 01/M00 Q0992 R26/891036 NOSIG RMK QFE734/0978 MOD ICE INC 0210M-1500M 20-01-22",0,0,0,2.5,0,0,51.795833333333334,55.45666666666667
"UWUU","UFA","RUS","20-01-22","""2020-01-22T16:30:00.000Z""","UWUU 221630Z 24008MPS 9999 -SN OVC015 00/M01 Q0984 R14R/421038 NOSIG 20-01-22",0,0,6.7,7.5,0,0,54.55777777777777,55.87388888888889
"UWWW","SAMARA/KURUMOCH","RUS","20-01-22","""2020-01-22T16:30:00.000Z""","UWWW 221630Z 26003MPS 9999 SCT033 M02/M05 Q0990 R33/510245 NOSIG RMK QFE732/0977 20-01-22",0,0,0,0,0,0,53.50111111111111,50.153888888888886
"UWLW","ULYANOVSK/VOSTOCHNY","RUS","20-01-22","""2020-01-22T16:00:00.000Z""","UWLW 221600Z 27006MPS 8000 NSC M01/M05 Q0989 R20/320148 NOSIG RMK QFE737 20-01-22",0,0,0,0,0,0,54.39944444444444,48.801111111111105
"UWOR","ORSK","RUS","20-01-22","""2020-01-22T16:00:00.000Z""","UWOR 221600Z 25013MPS 1500 1000W SN BLSN OVC013 M02/M03 Q0992 R25/850245 NOSIG RMK QFE721/0961 20-01-22",0,0,10,10,0,1,51.072500000000005,58.59583333333334
"UKBB","KYIV/BORYSPIL","UKR","20-01-22","""2020-01-22T16:30:00.000Z""","UKBB 221630Z 29005MPS 9999 -RASN OVC012 02/01 Q1008 R88/290050 TEMPO 29010G15MPS 20-01-22",0,0,10,7.5,0,0,50.344722222222224,30.893333333333334
"UKLL","L'VIV","UKR","20-01-22","""2020-01-22T16:30:00.000Z""","UKLL 221630Z 29007MPS 8000 -SHSN BKN005 BKN020CB M00/M01 Q1021 R31/510342 TEMPO 29010G17MPS 1400 FZRA BKN003 BKN017CB 20-01-22",0,0,10,10,4,0,49.80972222222222,23.958333333333332
"UKLI","IVANO-FRANKIVS'K","UKR","20-01-22","""2020-01-22T16:30:00.000Z""","UKLI 221630Z 28006MPS 250V320 9999 BKN026 02/M03 Q1021 R28/090070 NOSIG 20-01-22",0,0,0,0,0,0,48.88388888888889,24.684444444444445
"UKKM","KYIV/ANTONOV-2","UKR","20-01-22","""2020-01-22T16:30:00.000Z""","UKKM 221630Z AUTO 29008G13MPS 9999 // ///013/// 02/02 Q1009 20-01-22",0,2,0,2.5,0,0,50.60027777777778,30.19361111111111
"UKKK","KYIV/ZHULIANY","UKR","20-01-22","""2020-01-22T16:30:00.000Z""","UKKK 221630Z 29008MPS 9999 BKN011 OVC019 02/01 Q1009 R26/290150 TEMPO 30011G18MPS 20-01-22",0,0,0,2.5,0,0,50.401944444444446,30.451944444444443
"UKHH","KHARKIV/OSNOVA","UKR","20-01-22","""2020-01-22T16:30:00.000Z""","UKHH 221630Z 29006MPS 8000 -RA BKN007 OVC015 01/01 Q1001 R25/290079 NOSIG 20-01-22",0,0,0,2.5,0,0,49.926944444444445,36.29
"UKDR","KRYVYI RIH/LOZUVATKA","UKR","20-01-22","""2020-01-22T16:30:00.000Z""","UKDR 221630Z 28008MPS 9999 OVC021 02/M03 Q1009 R18/09//65 NOSIG 20-01-22",0,0,0,0,0,0,48.04416666666666,33.20805555555556
"UKDE","ZAPORIZHZHIA/MOKRAYA","UKR","20-01-22","""2020-01-22T16:30:00.000Z""","UKDE 221630Z 28007MPS 250V310 9999 OVC019 03/M00 Q1008 R20L/190060 NOSIG 20-01-22",0,0,0,0,0,0,47.867222222222225,35.315
"UKDD","DNIPROPETROVS'K","UKR","20-01-22","""2020-01-22T16:30:00.000Z""","UKDD 221630Z 29007MPS 7000 BKN010 BKN018CB 01/M00 Q1007 R26/290056 TEMPO 28010G16MPS 20-01-22",0,0,0,2.5,3.3,0,48.35722222222223,35.10055555555556
"UKLN","CHERNIVTSI","UKR","20-01-22","""2020-01-22T16:30:00.000Z""","UKLN 221630Z 30009G14MPS 260V350 9999 BKN035CB 04/M04 Q1019 R33/09//70 TEMPO 32013G18MPS 20-01-22",0,2,0,0,3.3,0,48.259166666666665,25.979999999999997
"EVLA","LIEPAJA","LVA","20-01-22","""2020-01-22T16:50:00.000Z""","EVLA 221650Z AUTO 33010KT 300V010 9999 FEW030/// BKN045/// 04/00 Q1020 20-01-22",0,0,0,0,0,0,56.5175,21.096944444444443
"EVRA","RIGA","LVA","20-01-22","""2020-01-22T16:50:00.000Z""","EVRA 221650Z 34018KT 9999 SCT022CB SCT026 BKN034 04/M01 Q1015 R36/290195 NOSIG 20-01-22",0,2,0,0,2,0,56.92361111111111,23.97111111111111
"EVVA","VENTSPILS","LVA","20-01-22","""2020-01-22T16:50:00.000Z""","EVVA 221650Z AUTO 33018KT 9999 BKN033 BKN040 05/M00 Q1020 20-01-22",0,2,0,0,0,0,57.35777777777778,21.54416666666667
"UKOO","ODESA","UKR","20-01-22","""2020-01-22T16:30:00.000Z""","UKOO 221630Z 31009MPS CAVOK 09/M03 Q1014 R34/090060 NOSIG 20-01-22",0,0,0,0,0,0,46.42666666666666,30.67638888888889
"UMGG","HOMIEL","BLR","20-01-22","""2020-01-22T16:30:00.000Z""","UMGG 221630Z 30007G10MPS 9999 BKN051CB OVC100 01/M00 Q1005 R28/290050 NOSIG 20-01-22",0,2,0,2.5,3.3,0,52.526944444444446,31.016666666666666
"UKLU","UZHHOROD","UKR","20-01-22","""2020-01-22T16:00:00.000Z""","UKLU 221600Z 00000MPS 5000 BR OVC017 M01/M02 Q1027 R10/790218 NOSIG 20-01-22",0,0,0,7.5,0,0,48.63444444444444,22.263333333333332
"UMII","VICIEBSK","BLR","20-01-22","""2020-01-22T16:00:00.000Z""","UMII 221600Z 31003G06MPS 9000 BKN033CB M01/M01 Q1004 TEMPO 1000 SHSN BKN003 20-01-22",0,2,0,2.5,3.3,0,55.12638888888889,30.349722222222223
"UMMS","MINSK-2","BLR","20-01-22","""2020-01-22T16:41:00.000Z""","UMMS 221641Z 32007MPS 9000 -SHRASN BKN016CB 00/M01 Q1009 R31R/690533 R31L/////// NOSIG 20-01-22",0,0,10,7.5,4,0,53.8825,28.030833333333334
"UTDD","DUSHANBE","TJK","20-01-22","""2020-01-22T16:30:00.000Z""","UTDD 221630Z 11002MPS 2800 BR FU NSC M03/M04 Q1031 R09/19//60 NOSIG RMK QFE704/0939 20-01-22",0,0,0,7.5,0,0,38.54333333333333,68.825
"UTAA","ASHGABAT","TKM","20-01-22","""2020-01-22T16:00:00.000Z""","UTAA 221600Z 13006KT 6000 NSC 01/M00 Q1023 R88/CLRD70 NOSIG 20-01-22",0,0,0,2.5,0,0,37.99166666666667,58.36194444444445
"UTAK","TURKMENBASHI","TKM","20-01-22","""2020-01-22T16:00:00.000Z""","UTAK 221600Z 170082KT 9999 SCT033 06/04 Q1020 R16R/CLRD70 NOSIG 20-01-22",0,0,0,0,0,0,40.06333333333333,53.007222222222225
"UTAM","MARY","TKM","20-01-22","""2020-01-22T16:00:00.000Z""","UTAM 221600Z 11004KT 6000 NSC 01/M01 Q1027 R88/CLRD70 NOSIG 20-01-22",0,0,0,2.5,0,0,37.62166666666667,61.89666666666667
"UTAT","DASHOGUZ","TKM","20-01-22","""2020-01-22T16:00:00.000Z""","UTAT 221600Z 18012KT CAVOK 02/M04 Q1022 R26/CLRD70 NOSIG 20-01-22",0,0,0,0,0,0,41.76166666666666,59.84166666666667
"UTAV","TURKMENABAT","TKM","20-01-22","""2020-01-22T16:00:00.000Z""","UTAV 221600Z 09006KT 9999 BKN027 01/M00 Q1028 R13/CLRD70 NOSIG 20-01-22",0,0,0,2.5,0,0,39.083333333333336,63.61333333333334
"UTDL","KHUJAND","TJK","20-01-22","""2020-01-22T16:30:00.000Z""","UTDL 221630Z 10003MPS 8000 SCT020 M02/M03 Q1029 R26/29//50 NOSIG RMK QFE733/0978 20-01-22",0,0,0,2.5,0,0,40.215,69.69666666666667
"UTST","TERMEZ","UZB","20-01-22","""2020-01-22T16:30:00.000Z""","UTST 221630Z 06006KT 9999 FEW026 02/M01 Q1032 R88/CLRD70 NOSIG 20-01-22",0,0,0,0,0,0,37.28666666666666,67.30833333333334
"UTSS","SAMARKAND","UZB","20-01-22","""2020-01-22T16:30:00.000Z""","UTSS 221630Z 07002KT 6000 OVC010 M02/M05 Q1027 R09/70D NOSIG 20-01-22",0,0,0,0,0,0,39.7,66.98333333333333
"UTSK","KARSHI","UZB","20-01-22","""2020-01-22T16:30:00.000Z""","UTSK 221630Z 06006KT 3500 BR NSC M01/M02 Q1028 R16/CLRD70 20-01-22",0,0,0,7.5,0,0,38.80333333333333,65.77333333333333
"UTSB","BUKHARA","UZB","20-01-22","""2020-01-22T16:30:00.000Z""","UTSB 221630Z 11004KT 9999 BKN025 M01/M02 Q1029 R01/CLRD70 NOSIG 20-01-22",0,0,0,2.5,0,0,39.775,64.48333333333333
"UTSA","NAVOI","UZB","20-01-22","""2020-01-22T16:30:00.000Z""","UTSA 221630Z 10004KT 9999 BKN027 M02/M03 Q1028 R07/CLRD70 NOSIG 20-01-22",0,0,0,2.5,0,0,40.11666666666667,65.17166666666667
"UTNU","URGENCH","UZB","20-01-22","""2020-01-22T16:30:00.000Z""","UTNU 221630Z 17010KT 9999 OVC047 03/M05 Q1024 R13/CLRD70 NOSIG 20-01-22",0,0,0,0,0,0,41.583333333333336,60.644999999999996
"UTNN","NUKUS","UZB","20-01-22","""2020-01-22T16:30:00.000Z""","UTNN 221630Z 15010KT CAVOK 02/M04 Q1021 R33/CLRD60 NOSIG 20-01-22",0,0,0,0,0,0,42.48833333333334,59.623333333333335
"UTFF","FERGANA","UZB","20-01-22","""2020-01-22T16:30:00.000Z""","UTFF 221630Z 02002KT 4300 BR BKN014 01/M02 Q1029 R18/29//50 20-01-22",0,0,0,7.5,0,1,40.358333333333334,71.745
"UTTT","TASHKENT-UZHNY","UZB","20-01-22","""2020-01-22T16:30:00.000Z""","UTTT 221630Z 08004KT 4000 BR NSC M01/M02 Q1028 R08R/19//60 NOSIG 20-01-22",0,0,0,7.5,0,0,41.25666666666667,69.28166666666667
"ZBAA","BEIJING/CAPITAL","CHN","20-01-22","""2020-01-22T16:30:00.000Z""","ZBAA 221630Z 02001MPS CAVOK M06/M09 Q1025 NOSIG 20-01-22",0,0,0,0,0,0,40.07333333333334,116.59833333333333
"ZGGG","GUANGZHOU/BAIYUN","CHN","20-01-22","""2020-01-22T16:30:00.000Z""","ZGGG 221630Z 00000MPS 6000 BKN060 21/17 Q1017 NOSIG 20-01-22",0,0,0,0,0,0,23.393333333333334,113.30833333333334
"ZBYN","TAIYUAN/WUSU","CHN","20-01-22","""2020-01-22T16:30:00.000Z""","ZBYN 221630Z 00000MPS 6000 NSC M05/M08 Q1023 NOSIG 20-01-22",0,0,0,0,0,0,37.748333333333335,112.63
"ZBTJ","TIANJIN/BINHAI","CHN","20-01-22","""2020-01-22T16:30:00.000Z""","ZBTJ 221630Z 21002MPS 1200 R16R/P2000U R16L/P2000U BR BCFG NSC M03/M04 Q1025 NOSIG 20-01-22",0,0,0,2.5,0,0,39.123333333333335,117.345
"ZBSJ","SHIJIAZHUANG/ZHENGDING","CHN","20-01-22","""2020-01-22T16:00:00.000Z""","ZBSJ 221600Z 23001MPS 2500 BR NSC M05/M06 Q1025 NOSIG 20-01-22",0,0,0,7.5,0,0,38.281666666666666,114.69833333333334
"ZBHH","HUHHOT/BAITA","CHN","20-01-22","""2020-01-22T16:00:00.000Z""","ZBHH 221600Z 06002MPS 030V110 4500 BR NSC M14/M16 Q1023 NOSIG 20-01-22",0,0,0,7.5,0,0,40.848333333333336,111.82333333333332
"ZGHA","CHANGSHA/HUANGHUA","CHN","20-01-22","""2020-01-22T16:00:00.000Z""","ZGHA 221600Z 36003MPS 4500 BR SCT005 BKN016 OVC040 07/07 Q1022 NOSIG 20-01-22",0,0,0,0,0,1,28.19,113.21833333333333
"ZGKL","GUILIN/LIANGJIANG","CHN","20-01-22","""2020-01-22T16:00:00.000Z""","ZGKL 221600Z 00000MPS 0550 R01/0550 FG FEW002 OVC030 15/15 Q1017 NOSIG 20-01-22",4,0,0,0,0,1,25.216666666666665,110.03833333333333
"ZGNN","NANNING/WUXU","CHN","20-01-22","""2020-01-22T16:00:00.000Z""","ZGNN 221600Z 24002MPS 210V280 CAVOK 19/18 Q1016 NOSIG 20-01-22",0,0,0,0,0,0,22.610000000000003,108.17333333333333
"ZGOW","JIEYANG/CHAOSHAN","CHN","20-01-22","""2020-01-22T16:00:00.000Z""","ZGOW 221600Z VRB01MPS 4500 BR FEW011 BKN019 19/17 Q1019 NOSIG 20-01-22",0,0,0,0,0,1,23.553333333333335,116.50166666666667
"ZGSZ","SHENZHEN/BAOAN","CHN","20-01-22","""2020-01-22T16:00:00.000Z""","ZGSZ 221600Z 16001MPS 7000 BKN030 20/19 Q1018 NOSIG 20-01-22",0,0,0,0,0,0,22.638333333333332,113.81166666666667
"ZPPP","KUNMING/CHANGSHUI","CHN","20-01-22","""2020-01-22T16:00:00.000Z""","ZPPP 221600Z 22004MPS CAVOK 08/M00 Q1021 NOSIG 20-01-22",0,0,0,0,0,0,25.105,102.94166666666668
"ZMUB","ULAANBAATAR/CHINGGIS KHAAN","MNG","20-01-22","""2020-01-22T16:00:00.000Z""","ZMUB 221600Z VRB01MPS CAVOK M28/M32 Q1019 NOSIG RMK QFE656.8 66 20-01-22",0,0,0,0,0,0,47.8425,106.7675
"ZLXY","XI'AN/XIANYANG","CHN","20-01-22","""2020-01-22T16:00:00.000Z""","ZLXY 221600Z 27002MPS 2800 BR NSC M03/M05 Q1023 NOSIG 20-01-22",0,0,0,7.5,0,0,34.44499999999999,108.75
"ZLLL","LANZHOU/ZHONGCHUAN","CHN","20-01-22","""2020-01-22T16:00:00.000Z""","ZLLL 221600Z 02002MPS CAVOK M11/M15 Q1021 NOSIG 20-01-22",0,0,0,0,0,0,36.516666666666666,103.62166666666666
"ZJSY","SANYA/PHOENIX","CHN","20-01-22","""2020-01-22T16:00:00.000Z""","ZJSY 221600Z 10003MPS CAVOK 21/19 Q1017 NOSIG 20-01-22",0,0,0,0,0,0,18.301666666666666,109.41333333333334
"ZJHK","HAIKOU/MEILAN","CHN","20-01-22","""2020-01-22T16:00:00.000Z""","ZJHK 221600Z 13002MPS 090V160 1100 R09/P2000 BR BKN002 20/20 Q1016 NOSIG 20-01-22",0,0,0,0,0,1,19.933333333333334,110.46000000000001
"ZHHH","WUHAN/TIANHE","CHN","20-01-22","""2020-01-22T16:00:00.000Z""","ZHHH 221600Z 07003MPS 3500 BR SCT020 06/04 Q1024 NOSIG 20-01-22",0,0,0,0,0,0,30.785,114.20666666666666
"ZHCC","ZHENGZHOU/XINZHENG","CHN","20-01-22","""2020-01-22T16:00:00.000Z""","ZHCC 221600Z VRB01MPS 2000 BR NSC M00/M01 Q1025 NOSIG 20-01-22",0,0,0,7.5,0,0,34.51833333333333,113.83999999999999
"ZSAM","XIAMEN/GAOQI","CHN","20-01-22","""2020-01-22T16:00:00.000Z""","ZSAM 221600Z VRB01MPS 2500 BR BKN020 18/16 Q1019 NOSIG 20-01-22",0,0,0,0,0,0,24.545,118.12666666666667
"ZSPD","SHANGHAI/PUDONG","CHN","20-01-22","""2020-01-22T16:30:00.000Z""","ZSPD 221630Z 28003MPS 3500 BR SCT007 OVC033 09/08 Q1021 NOSIG 20-01-22",0,0,0,0,0,1,31.145,121.79333333333334
"ZSHC","HANGZHOU/XIAOSHAN","CHN","20-01-22","""2020-01-22T16:30:00.000Z""","ZSHC 221630Z VRB01MPS 2800 -RA BR SCT006 BKN020 08/07 Q1022 NOSIG 20-01-22",0,0,0,0,0,1,30.22833333333333,120.43333333333334
"ZSSS","SHANGHAI/HONGQIAO","CHN","20-01-22","""2020-01-22T16:30:00.000Z""","ZSSS 221630Z 29003MPS 260V320 2500 BR BKN006 09/08 Q1021 NOSIG 20-01-22",0,0,0,0,0,1,31.196666666666665,121.335
"ZUCK","CHONGQING/JIANGBEI","CHN","20-01-22","""2020-01-22T16:00:00.000Z""","ZUCK 221600Z 01003MPS 6000 NSC 11/07 Q1019 NOSIG 20-01-22",0,0,0,0,0,0,29.72,106.64
"ZSQD","QINGDAO/LIUTING","CHN","20-01-22","""2020-01-22T16:00:00.000Z""","ZSQD 221600Z VRB01MPS 6000 NSC 02/01 Q1025 NOSIG 20-01-22",0,0,0,2.5,0,0,36.265,120.37333333333332
"ZSFZ","FUZHOU/CHANGLE","CHN","20-01-22","""2020-01-22T16:00:00.000Z""","ZSFZ 221600Z 22003MPS 190V270 2800 BR NSC 15/13 Q1018 BECMG TL1730 3100 20-01-22",0,0,0,0,0,0,25.933333333333334,119.665
"ZSOF","HEFEI/XINQIAO","CHN","20-01-22","""2020-01-22T16:00:00.000Z""","ZSOF 221600Z 28002MPS 1600 BR BKN004 OVC040 06/06 Q1024 BECMG TL1730 1400 20-01-22",0,0,0,0,0,1,31.986666666666668,116.97500000000001
"ZSNJ","NANJING/LUKOU","CHN","20-01-22","""2020-01-22T16:00:00.000Z""","ZSNJ 221600Z VRB01MPS 0500 R06/1100U R07/1900D FG VV002 07/07 Q1023 NOSIG 20-01-22",0,0,0,0,0,0,31.743333333333336,118.86333333333333
"ZSNB","NINGBO/LISHE","CHN","20-01-22","""2020-01-22T16:00:00.000Z""","ZSNB 221600Z 36002MPS 340V040 3200 -RA BR SCT009 BKN026 09/08 Q1022 NOSIG 20-01-22",0,0,0,0,0,1,29.826666666666668,121.46333333333334
"ZUGY","GUIYANG/LONGDONGBAO","CHN","20-01-22","""2020-01-22T16:00:00.000Z""","ZUGY 221600Z 01004MPS 330V030 9999 FEW007 SCT016 BKN030 07/06 Q1018 NOSIG 20-01-22",0,0,0,0,0,0,26.53666666666667,106.8
"ZYTX","SHENYANG/TAOXIAN","CHN","20-01-22","""2020-01-22T16:30:00.000Z""","ZYTX 221630Z 18001MPS 2000 BR OVC026 M01/M03 Q1023 NOSIG 20-01-22",0,0,0,7.5,0,0,41.641666666666666,123.485
"ZYTL","DALIAN/ZHOUSHUIZI","CHN","20-01-22","""2020-01-22T16:30:00.000Z""","ZYTL 221630Z 29001MPS 4000 BR SCT033 00/M00 Q1025 NOSIG 20-01-22",0,0,0,7.5,0,0,38.96666666666667,121.53999999999999
"ZWWW","URUMQI/DIWOPU","CHN","20-01-22","""2020-01-22T16:30:00.000Z""","ZWWW 221630Z 00000MPS 1400 R25/P2000N BR NSC M12/M14 Q1029 NOSIG 20-01-22",0,0,0,7.5,0,0,43.90833333333333,87.47500000000001
"RCTP","TAIBEI CITY/TAIBEI INTL AP","CHN","20-01-22","""2020-01-22T16:30:00.000Z""","RCTP 221630Z VRB01KT 5000 BR FEW010 SCT060 BKN090 18/17 Q1019 NOSIG RMK A3011 20-01-22",0,0,0,0,0,0,25.080277777777777,121.23222222222222
"ZUUU","CHENGDU/SHUANGLIU","CHN","20-01-22","""2020-01-22T16:00:00.000Z""","ZUUU 221600Z 00000MPS 5000 BR NSC 10/06 Q1020 NOSIG 20-01-22",0,0,0,0,0,0,30.58,103.94833333333334
"ZWSH","KASHI/KASHI","CHN","20-01-22","""2020-01-22T16:00:00.000Z""","ZWSH 221600Z 31003MPS 9000 BKN040 M04/M11 Q1023 NOSIG 20-01-22",0,0,0,0,0,0,39.544999999999995,76.02166666666666
"ZYCC","CHANGCHUN/LONGJIA","CHN","20-01-22","""2020-01-22T16:00:00.000Z""","ZYCC 221600Z VRB01MPS 2000 BR OVC030 M16/M18 Q1021 NOSIG 20-01-22",0,0,0,10,0,0,43.998333333333335,125.68833333333333
"ZYHB","HARBIN/TAIPING","CHN","20-01-22","""2020-01-22T16:00:00.000Z""","ZYHB 221600Z VRB01MPS 3000 HZ NSC M20/M22 Q1023 NOSIG 20-01-22",0,0,0,0,0,0,45.625,126.25166666666667
"RCSS","TAIBEI/SONGSHAN","CHN","20-01-22","""2020-01-22T16:00:00.000Z""","RCSS 221600Z VRB02KT 8000 NSC 20/17 Q1019 NOSIG RMK A3010 20-01-22",0,0,0,0,0,0,25.06972222222222,121.5525
"RCKH","GAOXIONG","CHN","20-01-22","""2020-01-22T16:00:00.000Z""","RCKH 221600Z VRB03KT 6000 FEW015 SCT035 BKN100 22/18 Q1018 NOSIG RMK A3007 20-01-22",0,0,0,0,0,0,22.576944444444443,120.35027777777778
"RJBB","KANSAI INTL","JPN","20-01-22","""2020-01-22T16:50:00.000Z""","RJBB 221650Z AUTO 07013KT 1800 -RA BR SCT028 BKN043 BKN045 08/08 Q1022 RMK A3020 20-01-22",0,0,0,0,0,0,34.43416666666666,135.23277777777778
"RJAA","NARITA INTL","JPN","20-01-22","""2020-01-22T16:30:00.000Z""","RJAA 221630Z 33001KT 9999 FEW020 BKN120 04/M01 Q1023 NOSIG RMK 1CU020 7AC120 A3023 20-01-22",0,0,0,0,0,0,35.765277777777776,140.38555555555556
"RCMQ","QINGQUANGANG","CHN","20-01-22","""2020-01-22T16:00:00.000Z""","RCMQ 221600Z 00000KT 3200 BR FEW008 BKN060 18/16 Q1019 RMK A3009 20-01-22",0,0,0,0,0,1,24.265,120.62083333333332
"RJAH","HYAKURI","JPN","20-01-22","""2020-01-22T16:00:00.000Z""","RJAH 221600Z 03003KT 360V070 9999 FEW020 BKN130 BKN180 03/M00 Q1024 20-01-22",0,0,0,0,0,0,36.181666666666665,140.41472222222222
"RJCC","SAPPORO/NEW CHITOSE","JPN","20-01-22","""2020-01-22T16:30:00.000Z""","RJCC 221630Z 35008KT 6000 -SHSNRA FEW004 SCT006 BKN020 00/00 Q1019 RMK 1ST004 4ST006 6CU020 A3011 20-01-22",0,0,3.3,10,0,0,42.775277777777774,141.6925
"RJFF","FUKUOKA","JPN","20-01-22","""2020-01-22T16:51:00.000Z""","RJFF 221651Z AUTO 15009KT 5000 RA BR FEW019 SCT032 BKN050 //////TCU 13/12 Q1017 RMK A3006 RI007 TCU 20KM SW MOV UNKNOWN P/RR 20-01-22",0,0,3.3,0,0,0,33.58444444444444,130.45166666666665
"RJFR","KITAKYUSHU","JPN","20-01-22","""2020-01-22T16:40:00.000Z""","RJFR 221640Z VRB09KT 3000 SHRA BR FEW003 SCT004 BKN005 11/10 Q1018 RMK 1ST003 4ST004 7ST005 A3007 20-01-22",0,0,3.3,0,0,1,33.845555555555556,131.035
"RJGG","CHUBU CENTRAIR INTL","JPN","20-01-22","""2020-01-22T16:30:00.000Z""","RJGG 221630Z 35010KT 9999 -RA FEW030 BKN060 08/04 Q1025 NOSIG 20-01-22",0,0,0,0,0,0,34.858333333333334,136.8052777777778
"RJNK","KANAZAWA/KOMATSU","JPN","20-01-22","""2020-01-22T16:00:00.000Z""","RJNK 221600Z 15006KT 9999 -RA FEW020 BKN050 BKN070 07/05 Q1024 20-01-22",0,0,0,0,0,0,36.39388888888889,136.4075
"RJNG","GIFU","JPN","20-01-22","""2020-01-22T15:41:00.000Z""","RJNG 221541Z 03003KT 010V070 9999 -RA FEW030 BKN045 BKN060 08/04 Q1025 RMK 1SC030 5SC045 7SC060 A3028 20-01-22",0,0,0,0,0,0,35.394444444444446,136.86944444444444
"RJOH","MIHO","JPN","20-01-22","""2020-01-22T16:00:00.000Z""","RJOH 221600Z 13004KT 9999 -RA FEW030 BKN035 OVC045 08/07 Q1022 20-01-22",0,0,0,0,0,0,35.49333333333333,133.23916666666665
"RJOI","IWAKUNI","JPN","20-01-22","""2020-01-22T15:55:00.000Z""","RJOI 221555Z 04012KT 4000 +SHRA BR FEW005 BKN007 OVC014 08/07 A3018 RMK SLP218 P0026 T00830067 20-01-22",0,0,3.3,0,0,1,34.14491666666667,132.246975
"RJOZ","OZUKI","JPN","20-01-22","""2020-01-22T16:02:00.000Z""","RJOZ 221602Z 10005KT 070V140 5000 SHRA BR FEW003 SCT008 OVC015 11/10 Q1018 RMK 1ST003 4ST008 8CU015 A3008 20-01-22",0,0,3.3,0,0,0,34.04694444444444,131.05222222222224
"RJTT","TOKYO INTL","JPN","20-01-22","""2020-01-22T16:30:00.000Z""","RJTT 221630Z VRB01KT 9999 FEW020 BKN170 07/00 Q1024 NOSIG RMK 1CU020 7AC170 A3025 20-01-22",0,0,0,0,0,0,35.55333333333333,139.78111111111113
"ROAH","NAHA","JPN","20-01-22","""2020-01-22T16:30:00.000Z""","ROAH 221630Z 14003KT 9999 FEW020 BKN/// 18/15 Q1022 RMK 1CU020 A3018 20-01-22",0,0,0,0,0,0,26.195833333333333,127.64583333333334
"RJTY","YOKOTA","JPN","20-01-22","""2020-01-22T15:56:00.000Z""","RJTY 221556Z AUTO 25003KT 10SM OVC180 04/00 A3027 RMK AO2 SLP261 T00410004 FZRANO $ 20-01-22",0,0,0,0,0,0,35.748491666666666,139.34848333333335
"RKJB","MUAN","KOR","20-01-22","""2020-01-22T16:00:00.000Z""","RKJB 221600Z AUTO 02003KT 2200 BR ///031/// 05/05 Q1019 20-01-22",0,0,0,0,0,0,34.99138888888889,126.38277777777778
"RKNY","YANGYANG","KOR","20-01-22","""2020-01-22T16:00:00.000Z""","RKNY 221600Z AUTO 24006KT 9999 NCD 04/M07 Q1021 20-01-22",0,0,0,0,0,0,38.061388888888885,128.66916666666665
"RKPC","JEJU INTL","KOR","20-01-22","""2020-01-22T16:00:00.000Z""","RKPC 221600Z 27006KT 6000 FEW015 BKN025 OVC080 13/12 Q1018 NOSIG 20-01-22",0,0,0,0,0,0,33.51222222222222,126.49277777777777
"RKPK","GIMHAE INTL","KOR","20-01-22","""2020-01-22T16:00:00.000Z""","RKPK 221600Z 32008KT 3200 -RA BR BKN015 OVC025 06/05 Q1020 20-01-22",0,0,0,0,0,0,35.18055555555555,128.93805555555556
"RKJK","GUNSAN","KOR","20-01-22","""2020-01-22T15:56:00.000Z""","RKJK 221556Z AUTO 07007KT 10SM OVC060 05/04 A3012 RMK AO2 RAE10 SLP204 P0000 T00480044 $ 20-01-22",0,0,0,0,0,0,35.90376666666666,126.61589444444444
"RODN","KADENA","JPN","20-01-22","""2020-01-22T15:56:00.000Z""","RODN 221556Z AUTO 00000KT 10SM CLR 16/13 A3018 RMK AO2 SLP227 T01570132 $ 20-01-22",0,0,0,0,0,0,26.355611111111113,127.76763888888888
"ROTM","FUTENMA","JPN","20-01-22","""2020-01-22T15:56:00.000Z""","ROTM 221556Z 18004KT 10SM CLR 19/14 A3020 RMK AO2 SLP212 T01940139 $ 20-01-22",0,0,0,0,0,0,26.274272222222223,127.7565
"RKSI","INCHEON INTL","KOR","20-01-22","""2020-01-22T16:30:00.000Z""","RKSI 221630Z 08002KT CAVOK 03/M06 Q1023 NOSIG 20-01-22",0,0,0,0,0,0,37.462500000000006,126.43916666666667
"RKSM","SEOUL","KOR","20-01-22","""2020-01-22T16:00:00.000Z""","RKSM 221600Z 02001KT 9999 BKN180 01/M04 A3020 20-01-22",0,0,0,0,0,0,37.44583333333333,127.11416666666666
"RKSS","GIMPO","KOR","20-01-22","""2020-01-22T16:00:00.000Z""","RKSS 221600Z 05002KT CAVOK 01/M04 Q1022 NOSIG 20-01-22",0,0,0,0,0,0,37.55694444444444,126.7975
"RKTN","DAEGU INTL","KOR","20-01-22","""2020-01-22T16:00:00.000Z""","RKTN 221600Z 11002KT 3200 -RA BR SCT007 BKN012 OVC030 03/03 Q1022 RMK CIG012 SLP222 8/7// 9/8// WR24 20-01-22",0,0,0,7.5,0,1,35.89416666666666,128.6588888888889
"RKTU","CHEONGJU","KOR","20-01-22","""2020-01-22T16:00:00.000Z""","RKTU 221600Z 05002KT CAVOK 02/M04 Q1022 RMK CIG085 SLP222 8/028 9/061 20-01-22",0,0,0,0,0,0,36.71638888888889,127.49916666666667
"RPLB","SUBIC BAY,SUBIC BAY FREEPORT ZONE","PHL","20-01-22","""2020-01-22T16:00:00.000Z""","RPLB 221600Z 11008KT 9999 FEW020 24/18 Q1017 NOSIG RMK A3003 20-01-22",0,0,0,0,0,0,14.794447222222223,120.27136388888889
"RPLC","DIOSDADO MACAPAGAL, PAMPANGA","PHL","20-01-22","""2020-01-22T16:00:00.000Z""","RPLC 221600Z 30004KT 9999 FEW020 BKN300 22/18 Q1017 NOSIG RMK A3003 20-01-22",0,0,0,0,0,0,15.18598888888889,120.56032222222223
"RKSO","OSAN","KOR","20-01-22","""2020-01-22T15:58:00.000Z""","RKSO 221558Z 00000KT 7SM BKN200 M01/M02 A3018 RMK AO2A SLP224 T10081018 $ 20-01-22",0,0,0,2.5,0,0,37.091569444444445,127.029475
"RKSG","PYEONGTAEK","KOR","20-01-22","""2020-01-22T15:56:00.000Z""","RKSG 221556Z 33003KT 10SM BKN150 01/M02 A3020 RMK AO2A SLP225 T00090024 $ 20-01-22",0,0,0,0,0,0,36.96233333333333,127.03107222222222
"VAAH","AHMEDABAD","IND","20-01-22","""2020-01-22T16:30:00.000Z""","VAAH 221630Z 02006KT 4000 FU NSC 20/09 Q1019 NOSIG 20-01-22",0,0,0,0,0,0,23.07111111111111,72.62638888888888
"VABB","MUMBAI","IND","20-01-22","""2020-01-22T16:30:00.000Z""","VABB 221630Z 02005KT 3500 FU NSC 27/17 Q1016 NOSIG 20-01-22",0,0,0,0,0,0,19.091666666666665,72.86611111111111
"VANP","NAGPUR","IND","20-01-22","""2020-01-22T16:30:00.000Z""","VANP 221630Z 00000KT 4000 HZ NSC 22/18 Q1018 NOSIG 20-01-22",0,0,0,0,0,0,21.091944444444444,79.04833333333333
"VECC","KOLKATA","IND","20-01-22","""2020-01-22T16:30:00.000Z""","VECC 221630Z 00000KT 2600 HZ NSC 19/15 Q1016 NOSIG 20-01-22",0,0,0,0,0,0,22.653888888888886,88.44666666666667
"RPLL","NINOY AQUINO INTERNATIONAL AIRPORT, MANILA","PHL","20-01-22","""2020-01-22T16:00:00.000Z""","RPLL 221600Z 10005KT 070V140 9999 FEW025 SCT100 25/21 Q1016 NOSIG RMK A3000 20-01-22",0,0,0,0,0,0,14.509905555555555,121.01369166666667
"RPMD","FRANCISCO BANGOY, DAVAO","PHL","20-01-22","""2020-01-22T16:00:00.000Z""","RPMD 221600Z 36006KT 9999 FEW016 BKN090 OVC290 26/22 Q1014 RMK A2994 20-01-22",0,0,0,0,0,0,7.125522222222222,125.64577777777778
"RPVM","MACTAN-CEBU/LAPU-LAPU","PHL","20-01-22","""2020-01-22T16:00:00.000Z""","RPVM 221600Z 05011KT 9999 FEW020 27/21 Q1015 RMK A2997 20-01-22",0,0,0,0,0,0,10.307541666666667,123.9794388888889
"VEPT","PATNA","IND","20-01-22","""2020-01-22T16:30:00.000Z""","VEPT 221630Z 00000KT 2000 BR NSC 12/12 Q1017 NOSIG 20-01-22",0,0,0,0,0,0,25.59361111111111,85.09194444444444
"VERC","RANCHI","IND","20-01-22","""2020-01-22T16:30:00.000Z""","VERC 221630Z 00000KT 3000 HZ SCT018 18/14 Q1020 NOSIG 20-01-22",0,0,0,0,0,0,23.31416666666667,85.32111111111111
"VIAR","AMRITSAR","IND","20-01-22","""2020-01-22T16:30:00.000Z""","VIAR 221630Z 00000KT 3500 BR NSC 10/07 Q1022 NOSIG 20-01-22",0,0,0,0,0,0,31.704722222222223,74.80194444444444
"VIDP","DELHI (IGI)","IND","20-01-22","""2020-01-22T16:30:00.000Z""","VIDP 221630Z 26005KT 1500 R28/P2000 R29/P2000 BR FEW100 12/10 Q1020 NOSIG 20-01-22",0,0,0,0,0,0,28.56861111111111,77.11222222222221
"VIJP","JAIPUR","IND","20-01-22","""2020-01-22T16:30:00.000Z""","VIJP 221630Z VRB03KT 2500 HZ FEW100 16/06 Q1022 NOSIG 20-01-22",0,0,0,0,0,0,26.824166666666667,75.8025
"VILK","LUCKNOW","IND","20-01-22","""2020-01-22T16:30:00.000Z""","VILK 221630Z VRB02KT 1500 R27/2000 RMID/2000 R09/2000 BR NSC 13/11 Q1019 NOSIG 20-01-22",0,0,0,0,0,0,26.761944444444445,80.88333333333334
"VOBL","BANGALORE INTL. AIRPORT","IND","20-01-22","""2020-01-22T16:30:00.000Z""","VOBL 221630Z 10005KT 6000 FEW015 20/19 Q1021 NOSIG 20-01-22",0,0,0,0,0,0,13.19888888888889,77.70555555555556
"VOCB","COIMBATORE","IND","20-01-22","""2020-01-22T16:30:00.000Z""","VOCB 221630Z 09008KT 5000 HZ FEW015 26/16 Q1017 NOSIG 20-01-22",0,0,0,0,0,0,11.026944444444446,77.04166666666667
"VOCI","COCHIN INTL.","IND","20-01-22","""2020-01-22T16:30:00.000Z""","VOCI 221630Z 10004KT 4000 HZ NSC 27/23 Q1013 NOSIG 20-01-22",0,0,0,0,0,0,10.15388888888889,76.40694444444445
"VDPP","PHNOM PENH","KHM","20-01-22","""2020-01-22T16:30:00.000Z""","VDPP 221630Z 18006KT 9000 NSC 28/23 Q1013 20-01-22",0,0,0,0,0,0,11.546666666666667,104.84416666666667
"VOCL","CALICUT","IND","20-01-22","""2020-01-22T16:30:00.000Z""","VOCL 221630Z 19003KT 5000 HZ FEW015 27/21 Q1013 NOSIG 20-01-22",0,0,0,0,0,0,11.137777777777778,75.95055555555555
"VOHS","HYDERABAD INTL. AIRPORT","IND","20-01-22","""2020-01-22T16:30:00.000Z""","VOHS 221630Z 12003KT 5000 HZ NSC 19/15 Q1020 NOSIG 20-01-22",0,0,0,0,0,0,17.240555555555556,78.42888888888889
"VOMM","CHENNAI","IND","20-01-22","""2020-01-22T16:30:00.000Z""","VOMM 221630Z 07007KT 5000 HZ FEW020 27/21 Q1017 NOSIG 20-01-22",0,0,0,0,0,0,12.995,80.17555555555556
"VOTR","TIRUCHIRAPPALLI","IND","20-01-22","""2020-01-22T16:30:00.000Z""","VOTR 221630Z 07005KT 5000 BR FEW018 26/22 Q1016 NOSIG 20-01-22",0,0,0,0,0,0,10.765555555555556,78.715
"VOTV","THIRUVANANTHAPURAM","IND","20-01-22","""2020-01-22T16:30:00.000Z""","VOTV 221630Z 33004KT 3000 HZ FEW015 29/25 Q1012 NOSIG 20-01-22",0,0,0,0,0,0,8.479444444444445,76.92
"VYMD","MANDALAY INTERNATIONAL","MMR","20-01-22","""2020-01-22T16:30:00.000Z""","VYMD 221630Z 00000KT 6000 NSC 15/13 Q1014 NOSIG 20-01-22",0,0,0,0,0,0,21.701072222222223,95.97745555555555
"VCBI","KATUNAYAKE/BANDARANAIKE INTERNATIONAL AIRPORT COLOMBO","LKA","20-01-22","""2020-01-22T16:10:00.000Z""","VCBI 221610Z 05009KT 9999 SCT017 FEW019CB 27/25 Q1014 NOSIG RMK S/SW 20-01-22",0,0,0,0,1.3,0,7.180188888888889,79.8853
"VOHY","HYDERABAD","IND","20-01-22","""2020-01-22T16:00:00.000Z""","VOHY 221600Z 06002KT 5000 HZ NSC 22/18 Q1021 NOSIG 20-01-22",0,0,0,0,0,0,17.453055555555554,78.45805555555556
"VNKT","KATHMANDU","NPL","20-01-22","""2020-01-22T16:50:00.000Z""","VNKT 221650Z 00000KT 7000 FEW015 07/03 Q1020 NOSIG 20-01-22",0,0,0,0,0,0,27.697158333333334,85.357925
"VDSR","SIEM REAP","KHM","20-01-22","""2020-01-22T16:30:00.000Z""","VDSR 221630Z 01001KT 9000 FEW017 24/22 Q1012 20-01-22",0,0,0,0,0,0,13.410905555555557,103.81233333333333
"VGHS","HAZRAT SHAHJALAL INTERNATIONAL AIRPORT, DHAKA","BGD","20-01-22","""2020-01-22T16:30:00.000Z""","VGHS 221630Z 00000KT 3500 HZ NSC 18/13 Q1018 NOSIG 20-01-22",0,0,0,0,0,0,23.84334722222222,90.39778333333334
"VHHH","HONG KONG/INTERNATIONAL","CHN","20-01-22","""2020-01-22T16:30:00.000Z""","VHHH 221630Z VRB02KT 9999 FEW022 21/18 Q1018 NOSIG 20-01-22",0,0,0,0,0,0,22.30888888888889,113.91472222222222
"VLVT","VIENTIANE(WATTAY)","LAO","20-01-22","""2020-01-22T16:30:00.000Z""","VLVT 221630Z 32002KT 3000 BR NSC 23/21 Q1013 NOSIG 20-01-22",0,0,0,0,0,0,17.988319444444446,102.56325833333334
"VMMC","MACAO/INTL AIRPORT","CHN","20-01-22","""2020-01-22T16:30:00.000Z""","VMMC 221630Z 12003KT 090V150 9000 FEW015 SCT035 20/19 Q1018 NOSIG 20-01-22",0,0,0,0,0,0,22.149444444444445,113.59138888888889
"VTBD","BANGKOK/DON MUEANG INTL AIRPORT","THA","20-01-22","""2020-01-22T16:30:00.000Z""","VTBD 221630Z 21005KT 8000 FEW020 SCT100 27/24 Q1013 NOSIG 20-01-22",0,0,0,0,0,0,13.914444444444445,100.60555555555555
"VGEG","SHAH AMANAT INTL. CHITTAGONG","BGD","20-01-22","""2020-01-22T16:00:00.000Z""","VGEG 221600Z 33004KT 3500 HZ NSC 21/11 Q1017 N0SIG 20-01-22",0,0,0,0,0,0,22.257022222222222,91.82220833333334
"VRMM","IBRAHIM NASIR INTERNATIONAL AIRPORT","MDV","20-01-22","""2020-01-22T16:00:00.000Z""","VRMM 221600Z 07019KT 9999 SCT017TCU BKN270 29/26 Q1011 TEMPO FEW018CB 20-01-22",0,2,0,0,1.7,0,4.191666666666667,73.52916666666667
"VTBS","BANGKOK/SUVARNABHUMI INTL AIRPORT","THA","20-01-22","""2020-01-22T16:30:00.000Z""","VTBS 221630Z 20005KT 160V220 8000 NSC 27/24 Q1013 NOSIG 20-01-22",0,0,0,0,0,0,13.685833333333333,100.74888888888889
"VTBU","RAYONG/U-TAPAO PATTAYA INTL  AIRPORT","THA","20-01-22","""2020-01-22T16:30:00.000Z""","VTBU 221630Z 19004KT 7000 FEW020 27/23 Q1014 NOSIG 20-01-22",0,0,0,0,0,0,12.679611111111111,101.00491666666667
"VTCC","CHIANG MAI/CHIANG MAI INTL.  AIRPORT","THA","20-01-22","""2020-01-22T16:30:00.000Z""","VTCC 221630Z 29003KT CAVOK 21/14 Q1017 NOSIG 20-01-22",0,0,0,0,0,0,18.77138888888889,98.96277777777777
"VTCT","CHIANG RAI/MAE FAH LUANG-CHIANG RAI INTL AIRPORT","THA","20-01-22","""2020-01-22T16:00:00.000Z""","VTCT 221600Z VRB02KT CAVOK 18/16 Q1015 NOSIG 20-01-22",0,0,0,0,0,0,19.952222222222222,99.88305555555554
"VTSP","PHUKET/PHUKET INTL AIRPORT","THA","20-01-22","""2020-01-22T16:30:00.000Z""","VTSP 221630Z VRB01KT 9000 FEW020 25/23 Q1014 NOSIG 20-01-22",0,0,0,0,0,0,8.112499999999999,98.30916666666667
"VTSG","KRABI","THA","20-01-22","""2020-01-22T16:00:00.000Z""","VTSG 221600Z 07005KT 9999 FEW020 25/22 Q1014 NOSIG 20-01-22",0,0,0,0,0,0,8.100163888888888,98.9853138888889
"VTSS","SONGKHLA/HAT YAI INTL AIRPORT","THA","20-01-22","""2020-01-22T16:30:00.000Z""","VTSS 221630Z 00000KT 9999 FEW020 SCT100 26/25 Q1014 NOSIG 20-01-22",0,0,0,0,0,0,6.932777777777778,100.39500000000001
"VVCR","KHANH HOA/CAM RANH INTERNATIONAL","VNM","20-01-22","""2020-01-22T16:30:00.000Z""","VVCR 221630Z 35003KT 9999 FEW015 SCT050 24/22 Q1016 NOSIG 20-01-22",0,0,0,0,0,0,11.99546111111111,109.21841388888889
"VTUD","UDON THANI","THA","20-01-22","""2020-01-22T16:00:00.000Z""","VTUD 221600Z 00000KT 7000 NSC 24/19 Q1014 NOSIG 20-01-22",0,0,0,0,0,0,17.38643611111111,102.78824722222222
"VTUI","SAKON NAKHON/BAN KHAI","THA","20-01-22","""2020-01-22T16:00:00.000Z""","VTUI 221600Z 00000KT 5000 BR NSC 23/21 Q1014 NOSIG 20-01-22",0,0,0,0,0,0,17.195141666666668,104.11862777777777
"VTUK","KHON KAEN","THA","20-01-22","""2020-01-22T16:00:00.000Z""","VTUK 221600Z VRB02KT 8000 NSC 26/19 Q1014 NOSIG 20-01-22",0,0,0,0,0,0,16.464552777777776,102.782275
"VTUU","UBON RATCHATHANI","THA","20-01-22","""2020-01-22T16:00:00.000Z""","VTUU 221600Z 00000KT 7000 NSC 24/19 Q1014 NOSIG 20-01-22",0,0,0,0,0,0,15.251275,104.87022777777777
"VVCT","CAN THO/CAN THO INTERNATIONAL","VNM","20-01-22","""2020-01-22T16:30:00.000Z""","VVCT 221630Z 12003KT CAVOK 26/23 Q1014 NOSIG 20-01-22",0,0,0,0,0,0,10.084025,105.710025
"WAAA","MAKASSAR/SULTAN HASANUDDIN","IDN","20-01-22","""2020-01-22T16:30:00.000Z""","WAAA 221630Z 11002KT 8000 FEW019 26/25 Q1011 NOSIG 20-01-22",0,0,0,0,0,0,-5.060833333333333,119.55444444444444
"VYYY","YANGON INTERNATIONAL","MMR","20-01-22","""2020-01-22T16:30:00.000Z""","VYYY 221630Z 23006KT 6000 NSC 25/20 Q1014 NOSIG 20-01-22",0,0,0,0,0,0,16.907266666666665,96.13323888888888
"VVTS","HO CHI MINH/TAN SON NHAT INTERNATIONAL","VNM","20-01-22","""2020-01-22T16:30:00.000Z""","VVTS 221630Z 14010KT 9999 FEW020 28/19 Q1013 NOSIG 20-01-22",0,0,0,0,0,0,10.820555555555556,106.66083333333334
"VVPB","HUE/PHU BAI INTERNATIONAL","VNM","20-01-22","""2020-01-22T16:30:00.000Z""","VVPB 221630Z 20002KT 8000 FEW020 SCT050 22/21 Q1016 NOSIG 20-01-22",0,0,0,0,0,0,16.400683333333333,107.70249444444445
"VVNB","HA NOI/NOI BAI INTERNATIONAL","VNM","20-01-22","""2020-01-22T16:30:00.000Z""","VVNB 221630Z 11007KT 7000 FEW031 BKN039 22/20 Q1016 NOSIG 20-01-22",0,0,0,0,0,0,21.221666666666664,105.80555555555556
"VVDN","DA NANG/DA NANG INTERNATIONAL","VNM","20-01-22","""2020-01-22T16:30:00.000Z""","VVDN 221630Z 22002KT 8000 FEW013 SCT060 24/20 Q1017 NOSIG 20-01-22",0,0,0,0,0,0,16.04388888888889,108.20027777777779
"WADD","BALI INTL/NGURAH RAI","IDN","20-01-22","""2020-01-22T16:30:00.000Z""","WADD 221630Z VRB01KT 9999 SCT017 28/26 Q1011 NOSIG 20-01-22",0,0,0,0,0,0,-8.747499999999999,115.16916666666667
"VVPQ","KIEN GIANG/PHU QUOC INTERNATIONAL","VNM","20-01-22","""2020-01-22T16:00:00.000Z""","VVPQ 221600Z 08001KT CAVOK 24/23 Q1014 NOSIG 20-01-22",0,0,0,0,0,0,10.169722222222221,103.99305555555556
"WABB","BIAK/FRANS KAISIEPO","IDN","20-01-22","""2020-01-22T16:00:00.000Z""","WABB 221600Z 00000KT 9999 FEW018 24/24 Q1012 NOSIG 20-01-22",0,0,0,0,0,0,-1.1918083333333334,136.10989166666667
"WADL","PRAYA/LOMBOK INTERNATIONAL","IDN","20-01-22","""2020-01-22T16:30:00.000Z""","WADL 221630Z 00000KT 7000 SCT016 27/23 Q1013 NOSIG 20-01-22",0,0,0,0,0,0,-8.7575,116.27666666666667
"WAMM","MANADO/SAMRATULANGI","IDN","20-01-22","""2020-01-22T16:30:00.000Z""","WAMM 221630Z 09001KT 9000 FEW023 22/22 Q1013 NOSIG 20-01-22",0,0,0,0,0,0,1.5455555555555553,124.92500000000001
"WIBB","PEKANBARU/SULTAN SYARIF KASIM II","IDN","20-01-22","""2020-01-22T16:30:00.000Z""","WIBB 221630Z 00000KT 8000 FEW016 26/25 Q1012 20-01-22",0,0,0,0,0,0,0.4633333333333333,101.44666666666667
"WIII","JAKARTA INTL/SOEKARNO-HATTA","IDN","20-01-22","""2020-01-22T16:30:00.000Z""","WIII 221630Z 32003KT 3000 HZ FEW020 27/25 Q1012 NOSIG 20-01-22",0,0,0,0,0,0,-6.123611111111111,106.66111111111111
"WAOO","BANJARMASIN/SYAMSUDIN NOOR","IDN","20-01-22","""2020-01-22T16:30:00.000Z""","WAOO 221630Z AUTO 19001KT 9999 SCT046 BKN055 BKN110 27/24 Q1011 20-01-22",0,0,0,0,0,0,-3.4397222222222226,114.75277777777778
"WBGG","KUCHING/INTL","MYS","20-01-22","""2020-01-22T16:30:00.000Z""","WBGG 221630Z VRB02KT 9999 FEW001 BKN300 26/25 Q1012 NOSIG 20-01-22",0,0,0,0,0,0,1.485277777777778,110.345
"WIMM","MEDAN/KUALANAMU","IDN","20-01-22","""2020-01-22T16:30:00.000Z""","WIMM 221630Z 00000KT 2000 BR SCT018 25/25 Q1012 NOSIG 20-01-22",0,0,0,0,0,0,3.6422222222222222,98.88527777777779
"WIPP","PALEMBANG/SULTAN MAHMUD BADARUDDIN II","IDN","20-01-22","""2020-01-22T16:30:00.000Z""","WIPP 221630Z 00000KT 6000 SCT010 FEW012CB 26/24 Q1013 RMK CB TONE 20-01-22",0,0,0,0,1.3,0,-2.9012249999999997,104.70004444444444
"WBGB","BINTULU","MYS","20-01-22","""2020-01-22T16:00:00.000Z""","WBGB 221600Z 00000KT 9999 FEW016 SCT150 BKN300 25/25 Q1012 20-01-22",0,0,0,0,0,0,3.1241666666666665,113.01972222222223
"WBGR","MIRI","MYS","20-01-22","""2020-01-22T16:00:00.000Z""","WBGR 221600Z VRB02KT 9999 FEW016 BKN300 25/25 Q1011 20-01-22",0,0,0,0,0,0,4.3225,113.98722222222223
"WBKK","KOTA KINABALU/INTL","MYS","20-01-22","""2020-01-22T16:30:00.000Z""","WBKK 221630Z 14004KT 9999 FEW015 BKN280 24/20 Q1011 NOSIG 20-01-22",0,0,0,0,0,0,5.9447222222222225,116.05305555555556
"WBSB","BRUNEI/INTL","BRN","20-01-22","""2020-01-22T16:30:00.000Z""","WBSB 221630Z 04001KT 9999 FEW014 BKN300 27/25 Q1011 NOSIG 20-01-22",0,0,0,0,0,0,4.9442,114.92835277777779
"WBGS","SIBU","MYS","20-01-22","""2020-01-22T16:00:00.000Z""","WBGS 221600Z 00000KT 9999 SCT016 BKN300 25/25 Q1012 20-01-22",0,0,0,0,0,0,2.2641166666666668,111.98258611111112
"WMAU","MERSING","MYS","20-01-22","""2020-01-22T16:00:00.000Z""","WMAU 221600Z AUTO VRB08KT //// // 27/25 Q//// QFF1014 20-01-22",0,0,0,0,0,0,2.3833333,103.865
"WBKW","TAWAU","MYS","20-01-22","""2020-01-22T16:00:00.000Z""","WBKW 221600Z VRB02KT 9999 FEW016 BKN300 23/22 Q1013 20-01-22",0,0,0,0,0,0,4.3133333333333335,118.12194444444444
"WBKT","KUDAT","MYS","20-01-22","""2020-01-22T16:00:00.000Z""","WBKT 221600Z 12005KT 050V190 9999 FEW014 SCT140 BKN280 26/24 Q1013 20-01-22",0,0,0,0,0,0,6.9233333,116.8372222
"WBKS","SANDAKAN","MYS","20-01-22","""2020-01-22T16:00:00.000Z""","WBKS 221600Z 10003KT 060V130 9999 FEW016 26/22 Q1013 20-01-22",0,0,0,0,0,0,5.901666666666667,118.04861111111111
"WBKL","LABUAN (RMAF)","MYS","20-01-22","""2020-01-22T16:00:00.000Z""","WBKL 221600Z 09004KT 060V130 9999 FEW014 SCT140 BKN290 27/22 Q1011 20-01-22",0,0,0,0,0,0,5.301666666666667,115.24833333333333
"WMBA","SITIAWAN","MYS","20-01-22","""2020-01-22T16:00:00.000Z""","WMBA 221600Z 00000KT 9999 FEW033 27/25 Q1013 20-01-22",0,0,0,0,0,0,4.2163889,100.6986111
"WMKK","SEPANG/KL INTERNATIONAL AIRPORT","MYS","20-01-22","""2020-01-22T16:30:00.000Z""","WMKK 221630Z 10003KT 050V160 9000 FEW017CB 27/24 Q1013 NOSIG 20-01-22",0,0,0,0,1.3,0,2.743333333333333,101.69805555555556
"WMKA","ALOR STAR/SULTAN ABDUL  HALIM","MYS","20-01-22","""2020-01-22T16:00:00.000Z""","WMKA 221600Z 06004KT 360V120 9999 FEW028 28/24 Q1013 20-01-22",0,0,0,0,0,0,6.194472222222222,100.40083333333334
"WMKL","PULAU LANGKAWI/INTL","MYS","20-01-22","""2020-01-22T16:00:00.000Z""","WMKL 221600Z 04006KT 350V110 9999 FEW026 29/25 Q1013 20-01-22",0,0,0,0,0,0,6.339449999999999,99.73356111111111
"WMKJ","JOHOR BAHRU/SULTAN ISMAIL","MYS","20-01-22","""2020-01-22T16:00:00.000Z""","WMKJ 221600Z VRB02KT 9999 FEW023 26/24 Q1013 20-01-22",0,0,0,0,0,0,1.6405555555555555,103.67027777777778
"WMKI","IPOH/SULTAN AZLAN SHAH","MYS","20-01-22","""2020-01-22T16:00:00.000Z""","WMKI 221600Z 00000KT 7000 FEW029 27/24 Q1013 20-01-22",0,0,0,0,0,0,4.569166666666667,101.09305555555555
"WMKE","KERTEH (PETRONAS)","MYS","20-01-22","""2020-01-22T16:00:00.000Z""","WMKE 221600Z AUTO 02005KT 300V070 //// // ////// 27/25 Q1014 20-01-22",0,0,0,0,0,0,4.5375,103.42666666666668
"WMKD","KUANTAN (RMAF)","MYS","20-01-22","""2020-01-22T16:00:00.000Z""","WMKD 221600Z VRB02KT 9999 FEW024 25/24 Q1014 NOSIG 20-01-22",0,0,0,0,0,0,3.769722222222222,103.20944444444444
"WMKC","KOTA BHARU/SULTAN ISMAIL PETRA","MYS","20-01-22","""2020-01-22T16:00:00.000Z""","WMKC 221600Z 07010KT 9999 FEW020 27/24 Q1014 20-01-22",0,0,0,0,0,0,6.167777777777778,102.29083333333332
"WMKB","BUTTERWORTH (RMAF)","MYS","20-01-22","""2020-01-22T16:00:00.000Z""","WMKB 221600Z 00000KT 9000 FEW024 27/24 Q1013 NOSIG 20-01-22",0,0,0,0,0,0,5.467472222222223,100.3916638888889
"WMKM","MALACCA","MYS","20-01-22","""2020-01-22T16:00:00.000Z""","WMKM 221600Z 03003KT 300V090 9999 FEW030 27/23 Q1014 20-01-22",0,0,0,0,0,0,2.2630555555555554,102.2525
"WMKP","PENANG/INTL","MYS","20-01-22","""2020-01-22T16:30:00.000Z""","WMKP 221630Z VRB01KT 9000 FEW025 28/24 Q1013 NOSIG 20-01-22",0,0,0,0,0,0,5.295555555555556,100.27222222222223
"WSSS","SINGAPORE/CHANGI","SGP","20-01-22","""2020-01-22T16:30:00.000Z""","WSSS 221630Z 03004KT 320V070 9999 FEW018 BKN300 27/24 Q1014 NOSIG 20-01-22",0,0,0,0,0,0,1.3592111111111111,103.98932500000001
"YAMB","AMBERLEY","AUS","20-01-22","""2020-01-22T16:30:00.000Z""","YAMB 221630Z AUTO 31005KT 9999 // NCD 24/21 Q1010 20-01-22",0,0,0,0,0,0,-27.640555555555554,152.71194444444444
"WMKN","KUALA TERENGGANU/SULTAN  MAHMUD","MYS","20-01-22","""2020-01-22T16:00:00.000Z""","WMKN 221600Z 05007KT 010V130 9999 SCT022 27/25 Q1014 20-01-22",0,0,0,0,0,0,5.381388888888888,103.10472222222222
"WMSA","SUBANG/SULTAN ABDUL AZIZ SHAH","MYS","20-01-22","""2020-01-22T16:00:00.000Z""","WMSA 221600Z 00000KT 8000 -RA FEW026 28/26 Q1013 20-01-22",0,0,0,0,0,0,3.131111111111111,101.54805555555555
"WSAP","PAYA LEBAR (RSAF)","SGP","20-01-22","""2020-01-22T16:00:00.000Z""","WSAP 221600Z 05006KT 9999 FEW018 BKN300 27/25 Q1013 20-01-22",0,0,0,0,0,0,1.3557222222222223,103.90277777777779
"WSSL","SELETAR","SGP","20-01-22","""2020-01-22T16:00:00.000Z""","WSSL 221600Z 03005KT CAVOK 26/24 Q1013 20-01-22",0,0,0,0,0,0,1.4169555555555555,103.86764444444444
"YABA","ALBANY","AUS","20-01-22","""2020-01-22T16:00:00.000Z""","YABA 221600Z AUTO 23005KT 9999 // BKN018 BKN034 16/14 Q1015 20-01-22",0,0,0,0,0,0,-34.94333333333333,117.80888888888889
"YARG","ARGYLE","AUS","20-01-22","""2020-01-22T16:00:00.000Z""","YARG 221600Z AUTO 35007KT 9999 // SCT077 BKN096 28/24 Q1007 20-01-22",0,0,0,0,0,0,-16.636944444444445,128.45138888888889
"YBHM","HAMILTON ISLAND","AUS","20-01-22","""2020-01-22T16:52:00.000Z""","YBHM 221652Z AUTO 04004KT 9999 // SCT016 BKN023 28/25 Q1010 20-01-22",0,0,0,0,0,0,-20.358055555555556,148.95166666666665
"YBMA","MOUNT ISA","AUS","20-01-22","""2020-01-22T16:30:00.000Z""","YBMA 221630Z AUTO 02007KT 9999 // NCD 26/25 Q1007 RF00.0/007.0 20-01-22",0,0,0,0,0,0,-20.663888888888888,139.4886111111111
"YBAS","ALICE SPRINGS","AUS","20-01-22","""2020-01-22T16:30:00.000Z""","YBAS 221630Z AUTO 36007KT 9999 // BKN125 33/13 Q1005 RF00.0/000.0 20-01-22",0,0,0,0,0,0,-23.806944444444444,133.90222222222224
"YBBN","BRISBANE/BRISBANE INTL","AUS","20-01-22","""2020-01-22T16:30:00.000Z""","YBBN 221630Z 01014KT 9999 BKN011 SCT016 27/25 Q1011 TEMPO 1630/1900 9999 BKN010 20-01-22",0,0,0,0,0,0,-27.384166666666665,153.1175
"YBCG","GOLD COAST","AUS","20-01-22","""2020-01-22T16:30:00.000Z""","YBCG 221630Z AUTO 36010KT 8000 // SCT015 BKN023 OVC030 24/23 Q1011 20-01-22",0,0,0,0,0,0,-28.16444444444444,153.50472222222223
"YBCS","CAIRNS/CAIRNS INTL","AUS","20-01-22","""2020-01-22T16:30:00.000Z""","YBCS 221630Z AUTO 28001KT 9999 // NCD 26/25 Q1008 RF00.0/000.0 FM1630 VRB03KT 9999 -SHRA SCT020 SCT035 INTER 1730/1930 3000 SHRA BKN018 20-01-22",0,0,0,0,0,0,-16.885833333333334,145.7552777777778
"YBHI","BROKEN HILL","AUS","20-01-22","""2020-01-22T16:00:00.000Z""","YBHI 221600Z AUTO 21013KT 9999 // NCD 22/10 Q1000 20-01-22",0,0,0,0,0,0,-32.00138888888889,141.47166666666666
"YBDV","BIRDSVILLE","AUS","20-01-22","""2020-01-22T16:00:00.000Z""","YBDV 221600Z AUTO 01012KT //// // ////// 33/13 Q1002 20-01-22",0,0,0,0,0,0,-25.8975,139.3475
"YBCV","CHARLEVILLE","AUS","20-01-22","""2020-01-22T16:00:00.000Z""","YBCV 221600Z AUTO 36014KT 9999 // NCD 31/17 Q1008 20-01-22",0,0,0,0,0,0,-26.41333333333333,146.2625
"YAYE","AYERS ROCK","AUS","20-01-22","""2020-01-22T16:00:00.000Z""","YAYE 221600Z AUTO 19006KT 9999 // NCD 31/10 Q1006 20-01-22",0,0,0,0,0,0,-25.18611111111111,130.97555555555556
"YBRM","BROOME/BROOME INTL","AUS","20-01-22","""2020-01-22T16:30:00.000Z""","YBRM 221630Z AUTO 29011KT 9999 // SCT021 29/25 Q1007 RF00.0/000.0 20-01-22",0,0,0,0,0,0,-17.949722222222224,122.22777777777777
"YBTL","TOWNSVILLE/TOWNSVILLE INTL","AUS","20-01-22","""2020-01-22T16:30:00.000Z""","YBTL 221630Z AUTO 04008KT 9999 // SCT018 BKN060 28/26 Q1009 20-01-22",0,0,0,0,0,0,-19.2525,146.76527777777778
"YBRK","ROCKHAMPTON","AUS","20-01-22","""2020-01-22T16:30:00.000Z""","YBRK 221630Z AUTO 02005KT 9999 // NCD 27/24 Q1010 RF00.0/000.0 20-01-22",0,0,0,0,0,0,-23.381944444444446,150.4752777777778
"YBWP","WEIPA","AUS","20-01-22","""2020-01-22T16:00:00.000Z""","YBWP 221600Z AUTO 36004KT 9999 // NCD 25/24 Q1009 20-01-22",0,0,0,0,0,0,-12.67861111111111,141.92527777777778
"YBUD","BUNDABERG","AUS","20-01-22","""2020-01-22T16:00:00.000Z""","YBUD 221600Z AUTO 01008KT 9999 // NCD 27/24 Q1011 20-01-22",0,0,0,0,0,0,-24.903888888888886,152.3186111111111
"YBMK","MACKAY","AUS","20-01-22","""2020-01-22T16:00:00.000Z""","YBMK 221600Z AUTO 01005KT 9999 // NCD 27/24 Q1010 20-01-22",0,0,0,0,0,0,-21.171666666666667,149.1797222222222
"YBPN","PROSPERPINE/WHITSUNDAY","AUS","20-01-22","""2020-01-22T16:00:00.000Z""","YBPN 221600Z AUTO 20002KT 9999 // SCT024 25/23 Q1010 20-01-22",0,0,0,0,0,0,-20.495,148.55222222222224
"YBOK","OAKEY","AUS","20-01-22","""2020-01-22T16:00:00.000Z""","YBOK 221600Z AUTO 03009KT 9999 // NCD 23/21 Q1012 20-01-22",0,0,0,0,0,0,-27.411388888888887,151.73527777777775
"YBNA","BALLINA/BYRON GATEWAY","AUS","20-01-22","""2020-01-22T16:00:00.000Z""","YBNA 221600Z AUTO 01008KT 9999 // OVC012 26/24 Q1010 20-01-22",0,0,0,0,0,0,-28.833888888888886,153.5625
"YBWX","BARROW ISLAND","AUS","20-01-22","""2020-01-22T16:00:00.000Z""","YBWX 221600Z AUTO 27013KT //// // ////// 26/23 Q1007 20-01-22",0,0,0,0,0,0,-20.864444444444445,115.40611111111112
"YCDU","CEDUNA","AUS","20-01-22","""2020-01-22T16:32:00.000Z""","YCDU 221632Z AUTO 28018G28KT 9999 // SCT024 SCT048 OVC057 19/14 Q1004 20-01-22",0,4,0,0,0,0,-32.13055555555555,133.7097222222222
"YCIN","CURTIN","AUS","20-01-22","""2020-01-22T16:30:00.000Z""","YCIN 221630Z AUTO 31005KT 9999 // NCD 27/25 Q1007 RF00.0/000.0 20-01-22",0,0,0,0,0,0,-17.58138888888889,123.82833333333333
"YCFS","COFFS HARBOUR","AUS","20-01-22","""2020-01-22T16:30:00.000Z""","YCFS 221630Z AUTO 06009KT 9999 // NCD 25/22 Q1008 RF00.0/000.0 20-01-22",0,0,0,0,0,0,-30.320555555555554,153.11638888888888
"YCAR","CARNARVON","AUS","20-01-22","""2020-01-22T16:00:00.000Z""","YCAR 221600Z AUTO 18019G29KT 9999 // NCD 23/19 Q1010 20-01-22",0,4,0,0,0,0,-24.880555555555556,113.67222222222223
"YCCY","CLONCURRY","AUS","20-01-22","""2020-01-22T16:00:00.000Z""","YCCY 221600Z AUTO 00000KT //// // NCD 26/24 Q1007 20-01-22",0,0,0,0,0,0,-20.66861111111111,140.50444444444443
"YCBP","COOBER PEDY","AUS","20-01-22","""2020-01-22T16:00:00.000Z""","YCBP 221600Z AUTO 19024KT 9999 // NCD 23/// Q1005 20-01-22",0,4,0,0,0,0,-29.040000000000003,134.72083333333333
"YCBB","COONABARABRAN","AUS","20-01-22","""2020-01-22T16:00:00.000Z""","YCBB 221600Z AUTO 35014KT 9999 // NCD 25/17 Q1009 20-01-22",0,0,0,0,0,0,-31.3325,149.26722222222224
"YCBA","COBAR","AUS","20-01-22","""2020-01-22T16:00:00.000Z""","YCBA 221600Z AUTO 01009KT 9999 // NCD 27/M04 Q1002 20-01-22",0,0,0,0,0,0,-31.538333333333334,145.7938888888889
"YCAS","CASINO","AUS","20-01-22","""2020-01-22T16:00:00.000Z""","YCAS 221600Z AUTO 03006KT 360V060 //// // ////// 26/23 Q1009 20-01-22",0,0,0,0,0,0,-28.883333333333333,153.06666666666666
"YCNM","COONAMBLE","AUS","20-01-22","""2020-01-22T16:00:00.000Z""","YCNM 221600Z AUTO 02013KT //// // ////// 29/17 Q1005 20-01-22",0,0,0,0,0,0,-30.983333333333334,148.37555555555556
"YGLA","GLADSTONE","AUS","20-01-22","""2020-01-22T16:35:00.000Z""","YGLA 221635Z AUTO 02007KT 9999 // SCT015 28/24 Q1010 20-01-22",0,0,0,0,0,0,-23.869722222222222,151.2227777777778
"YGEL","GERALDTON","AUS","20-01-22","""2020-01-22T16:30:00.000Z""","YGEL 221630Z AUTO 15015KT 9999 // OVC025 20/14 Q1015 RF00.0/000.0 20-01-22",0,0,0,0,0,0,-28.796111111111113,114.7075
"YFRT","FORREST","AUS","20-01-22","""2020-01-22T16:30:00.000Z""","YFRT 221630Z AUTO 22006KT 9999 // NCD 17/11 Q1009 RF00.0/000.0 20-01-22",0,0,0,0,0,0,-30.838055555555556,128.11499999999998
"YGTE","GROOTE EYLANDT","AUS","20-01-22","""2020-01-22T16:00:00.000Z""","YGTE 221600Z AUTO 34009KT 9999 // SCT026 29/24 Q1006 20-01-22",0,0,0,0,0,0,-13.973333333333333,136.4608333333333
"YGFN","GRAFTON","AUS","20-01-22","""2020-01-22T16:00:00.000Z""","YGFN 221600Z AUTO 03007KT 9999 // NCD 26/23 Q1009 20-01-22",0,0,0,0,0,0,-29.759444444444444,153.03
"YCOM","COOMA-SNOWY MOUNTAINS","AUS","20-01-22","""2020-01-22T16:00:00.000Z""","YCOM 221600Z AUTO 04011KT 9999 // NCD 19/03 Q1004 20-01-22",0,0,0,0,0,0,-36.300555555555555,148.9738888888889
"YESP","ESPERANCE","AUS","20-01-22","""2020-01-22T16:00:00.000Z""","YESP 221600Z AUTO 21014KT 9999 // SCT016 SCT021 BKN032 16/14 Q1013 20-01-22",0,0,0,0,0,0,-33.68444444444444,121.82277777777777
"YEML","EMERALD","AUS","20-01-22","""2020-01-22T16:00:00.000Z""","YEML 221600Z AUTO 05011KT 9999 // SCT068 28/22 Q1010 20-01-22",0,0,0,0,0,0,-23.5675,148.17916666666665
"YDBY","DERBY","AUS","20-01-22","""2020-01-22T16:00:00.000Z""","YDBY 221600Z AUTO 27010KT 9999 // NCD 28/25 Q1007 20-01-22",0,0,0,0,0,0,-17.37,123.66055555555556
"YGTH","GRIFFITH","AUS","20-01-22","""2020-01-22T16:00:00.000Z""","YGTH 221600Z AUTO 35017KT 9999 // NCD 33/01 Q0997 20-01-22",0,2,0,0,0,0,-34.25083333333333,146.06722222222223
"YHID","HORN ISLAND","AUS","20-01-22","""2020-01-22T16:30:00.000Z""","YHID 221630Z AUTO 00000KT 9999 // NCD 26/24 Q1010 20-01-22",0,0,0,0,0,0,-10.586388888888889,142.29
"YMER","MERIMBULA","AUS","20-01-22","""2020-01-22T16:30:00.000Z""","YMER 221630Z AUTO 00000KT 2600 // NCD 19/19 Q0999 20-01-22",0,0,0,0,0,0,-36.90861111111111,149.9013888888889
"YMEK","MEEKATHARRA","AUS","20-01-22","""2020-01-22T16:00:00.000Z""","YMEK 221600Z AUTO 17010KT 9999 // NCD 27/05 Q1012 20-01-22",0,0,0,0,0,0,-26.611666666666668,118.54777777777778
"YMDG","MUDGEE","AUS","20-01-22","""2020-01-22T16:00:00.000Z""","YMDG 221600Z AUTO 03006KT 9999 // NCD 16/07 Q1007 20-01-22",0,0,0,0,0,0,-32.5625,149.61111111111111
"YLRE","LONGREACH","AUS","20-01-22","""2020-01-22T16:00:00.000Z""","YLRE 221600Z AUTO 01012KT 9999 // NCD 26/23 Q1008 20-01-22",0,0,0,0,0,0,-23.434166666666666,144.2802777777778
"YLIS","LISMORE","AUS","20-01-22","""2020-01-22T16:00:00.000Z""","YLIS 221600Z AUTO 00000KT 9999 // NCD 24/22 Q1009 20-01-22",0,0,0,0,0,0,-28.826666666666668,153.2575
"YLEC","LEIGH CREEK","AUS","20-01-22","""2020-01-22T16:00:00.000Z""","YLEC 221600Z AUTO 20015KT 9999 // NCD 23/09 Q1003 20-01-22",0,0,0,0,0,0,-30.598333333333333,138.42583333333332
"YKRY","KINGAROY","AUS","20-01-22","""2020-01-22T16:00:00.000Z""","YKRY 221600Z AUTO 02007KT 9999 // SCT014 24/22 Q1013 20-01-22",0,0,0,0,0,0,-26.580833333333334,151.84111111111113
"YHUG","HUGHENDEN","AUS","20-01-22","""2020-01-22T16:00:00.000Z""","YHUG 221600Z AUTO 07008KT 9999 -RA SCT110 24/22 Q1010 RERA 20-01-22",0,0,0,0,0,0,-20.815,144.2252777777778
"YMIA","MILDURA","AUS","20-01-22","""2020-01-22T16:00:00.000Z""","YMIA 221600Z AUTO 24004KT 210V270 9999 // SCT050 OVC120 17/12 Q1000 20-01-22",0,0,0,0,0,0,-34.22916666666667,142.08555555555557
"YPJT","PERTH/JANDAKOT","AUS","20-01-22","""2020-01-22T16:30:00.000Z""","YPJT 221630Z AUTO 18008KT 9999 // NCD 18/14 Q1017 RF00.0/000.0 20-01-22",0,0,0,0,0,0,-32.097500000000004,115.88111111111111
"YPGV","GOVE","AUS","20-01-22","""2020-01-22T16:30:00.000Z""","YPGV 221630Z AUTO 30009KT 9999 // NCD 27/24 Q1008 RF00.0/006.0 20-01-22",0,0,0,0,0,0,-12.269444444444446,136.81833333333333
"YMOR","MOREE","AUS","20-01-22","""2020-01-22T16:00:00.000Z""","YMOR 221600Z AUTO 03014KT 9999 // NCD 26/17 Q1008 20-01-22",0,0,0,0,0,0,-29.49888888888889,149.84472222222223
"YOLD","OLYMPIC DAM","AUS","20-01-22","""2020-01-22T16:00:00.000Z""","YOLD 221600Z AUTO 21015KT 9999 // NCD 22/09 Q1004 20-01-22",0,0,0,0,0,0,-30.485,136.87666666666667
"YNWN","NEWMAN","AUS","20-01-22","""2020-01-22T16:00:00.000Z""","YNWN 221600Z AUTO 20006KT 9999 // NCD 30/07 Q1009 20-01-22",0,0,0,0,0,0,-23.41777777777778,119.80277777777778
"YNTN","NORMANTON","AUS","20-01-22","""2020-01-22T16:00:00.000Z""","YNTN 221600Z AUTO 02007KT 9999 // NCD 29/26 Q1007 20-01-22",0,0,0,0,0,0,-17.685,141.07027777777776
"YNBR","NARRABRI","AUS","20-01-22","""2020-01-22T16:00:00.000Z""","YNBR 221600Z AUTO 01019KT 9999 // NCD 29/16 Q1007 20-01-22",0,2,0,0,0,0,-30.319166666666668,149.82722222222222
"YNAR","NARRANDERA","AUS","20-01-22","""2020-01-22T16:00:00.000Z""","YNAR 221600Z AUTO 36022KT 9999 // NCD 32/01 Q0997 20-01-22",0,4,0,0,0,0,-34.702222222222225,146.51222222222222
"YMTG","MOUNT GAMBIER","AUS","20-01-22","""2020-01-22T16:00:00.000Z""","YMTG 221600Z AUTO 36010KT 9999 -SHRA SCT072 OVC099 11/10 Q0995 20-01-22",0,0,3.3,0,0,0,-37.745555555555555,140.78527777777776
"YPMQ","PORT MACQUARIE","AUS","20-01-22","""2020-01-22T15:58:00.000Z""","YPMQ 221558Z AUTO 36005KT 9999 // SCT006 SCT110 24/23 Q1007 20-01-22",0,0,0,0,0,0,-31.435833333333335,152.86333333333332
"YMHB","HOBART","AUS","20-01-22","""2020-01-22T16:53:00.000Z""","YMHB 221653Z AUTO 35006KT 8000 RA SCT040 BKN046 OVC052 14/13 Q0994 20-01-22",0,0,3.3,0,0,0,-42.836111111111116,147.5102777777778
"YMLT","LAUNCESTON","AUS","20-01-22","""2020-01-22T16:37:00.000Z""","YMLT 221637Z AUTO 36009KT 9999 RA SCT004 BKN046 BKN064 13/13 Q0996 20-01-22",0,0,3.3,0,0,0,-41.54527777777778,147.21416666666664
"YMAV","AVALON","AUS","20-01-22","""2020-01-22T16:30:00.000Z""","YMAV 221630Z AUTO 31006KT 4600 // SCT040 OVC052 12/12 Q0998 20-01-22",0,0,0,0,0,0,-38.03944444444444,144.46944444444443
"YPCC","COCOS (KEELING) ISLANS INTL","AUS","20-01-22","""2020-01-22T16:30:00.000Z""","YPCC 221630Z AUTO 12011KT 9999 // SCT034 28/23 Q1013 RF00.0/002.2 20-01-22",0,0,0,0,0,0,-12.188333333333334,96.83
"YPAD","ADELAIDE/ADELAIDE INTL","AUS","20-01-22","""2020-01-22T16:30:00.000Z""","YPAD 221630Z 29008KT 9999 FEW010 OVC130 16/13 Q0999 INTER 1630/1930 28020G35KT 5000 SHRA FEW015 BKN020 20-01-22",0,0,0,0,0,0,-34.94499999999999,138.53055555555557
"YMML","MELBOURNE/MELBOURNE INTL","AUS","20-01-22","""2020-01-22T16:30:00.000Z""","YMML 221630Z 23005KT 9999 -RA SCT005 BKN010 13/12 Q0998 FM1830 01010KT 9999 -RA FEW015 BKN025 TEMPO 1600/1730 4000 RA BKN005 TEMPO 1730/1930 4000 RA BKN012 FM1800 MOD TURB BLW 5000FT 20-01-22",0,0,0,0,0,0,-37.67333333333333,144.84333333333333
"YMEN","ESSENDON","AUS","20-01-22","""2020-01-22T16:30:00.000Z""","YMEN 221630Z AUTO 25007KT 9999 -RA BKN005 OVC009 OVC015 13/13 Q0997 20-01-22",0,0,0,0,0,0,-37.72805555555556,144.90194444444444
"YPDN","DARWIN/DARWIN INTL","AUS","20-01-22","""2020-01-22T16:30:00.000Z""","YPDN 221630Z AUTO 27009KT 9999 // SCT019 SCT034 SCT040 28/26 Q1007 20-01-22",0,0,0,0,0,0,-12.414722222222222,130.87666666666667
"YPBO","PARABURDOO","AUS","20-01-22","""2020-01-22T16:00:00.000Z""","YPBO 221600Z AUTO 14007KT 9999 // NCD 33/05 Q1009 20-01-22",0,0,0,0,0,0,-23.171111111111113,117.74527777777777
"YMAY","ALBURY","AUS","20-01-22","""2020-01-22T16:00:00.000Z""","YMAY 221600Z AUTO 14003KT 9999 // NCD 24/13 Q0996 20-01-22",0,0,0,0,0,0,-36.06777777777778,146.95805555555555
"YPEA","PEARCE","AUS","20-01-22","""2020-01-22T16:30:00.000Z""","YPEA 221630Z AUTO 19007KT 9999 // NCD 17/14 Q1017 20-01-22",0,0,0,0,0,0,-31.66777777777778,116.015
"YPXM","CHRISTMAS ISLAND","AUS","20-01-22","""2020-01-22T16:30:00.000Z""","YPXM 221630Z AUTO 18003KT 9999 // NCD 24/24 Q1013 RF00.0/004.2 20-01-22",0,0,0,0,0,0,-10.450555555555555,105.69027777777778
"YPWR","WOOMERA","AUS","20-01-22","""2020-01-22T16:30:00.000Z""","YPWR 221630Z AUTO 24019KT 9999 // NCD 19/09 Q1004 RF00.0/000.0 20-01-22",0,2,0,0,0,0,-31.144166666666667,136.81694444444443
"YPTN","TINDAL","AUS","20-01-22","""2020-01-22T16:30:00.000Z""","YPTN 221630Z AUTO 34006KT 9999 // OVC018 OVC059 27/25 Q1006 20-01-22",0,0,0,0,0,0,-14.521111111111113,132.3777777777778
"YPPH","PERTH/PERTH INTL","AUS","20-01-22","""2020-01-22T16:30:00.000Z""","YPPH 221630Z 20010KT 9999 FEW032 19/14 Q1017 NOSIG 20-01-22",0,0,0,0,0,0,-31.940277777777776,115.96694444444445
"YPPD","PORT HEDLAND","AUS","20-01-22","""2020-01-22T16:30:00.000Z""","YPPD 221630Z AUTO 27012KT 9999 // NCD 28/25 Q1006 RF00.0/000.0 20-01-22",0,0,0,0,0,0,-20.37777777777778,118.62638888888888
"YPLM","LEARMONTH","AUS","20-01-22","""2020-01-22T16:30:00.000Z""","YPLM 221630Z AUTO 22015KT 9999 // NCD 23/18 Q1008 RF00.0/000.0 20-01-22",0,0,0,0,0,0,-22.235555555555557,114.0886111111111
"YPKU","KUNUNURRA","AUS","20-01-22","""2020-01-22T16:30:00.000Z""","YPKU 221630Z AUTO 33011KT 250V330 9999 // BKN051 BKN072 OVC115 27/25 Q1006 20-01-22",0,0,0,0,0,0,-15.778055555555556,128.70749999999998
"YPKG","KALGOORLIE-BOULDER","AUS","20-01-22","""2020-01-22T16:30:00.000Z""","YPKG 221630Z AUTO 21006KT 9999 // NCD 21/09 Q1012 RF00.0/000.0 20-01-22",0,0,0,0,0,0,-30.789444444444445,121.46166666666667
"YRMD","RICHMOND (QLD)","AUS","20-01-22","""2020-01-22T16:00:00.000Z""","YRMD 221600Z AUTO 06005KT 9999 // BKN060 27/23 Q1008 20-01-22",0,0,0,0,0,0,-20.701944444444443,143.1147222222222
"YSCB","CANBERRA","AUS","20-01-22","""2020-01-22T16:30:00.000Z""","YSCB 221630Z AUTO 27003KT 9999 // NCD 24/02 Q1004 RF00.0/000.0 20-01-22",0,0,0,0,0,0,-35.306822222222216,149.19503333333333
"YSTW","TAMWORTH","AUS","20-01-22","""2020-01-22T16:30:00.000Z""","YSTW 221630Z AUTO 33011KT 9999 // NCD 28/16 Q1009 RF00.0////./ 20-01-22",0,0,0,0,0,0,-31.083888888888886,150.84666666666666
"YSSY","SYDNEY/SYDNEY (KINGSFORD SMITH) INTL","AUS","20-01-22","""2020-01-22T16:30:00.000Z""","YSSY 221630Z 03005KT CAVOK 23/18 Q1003 FM1630 MOD TURB BLW 5000FT 20-01-22",0,0,0,0,0,0,-33.94611111111111,151.1772222222222
"YSRI","RICHMOND (NSW)","AUS","20-01-22","""2020-01-22T16:30:00.000Z""","YSRI 221630Z AUTO 00000KT 9999 // NCD 19/17 Q1004 RF00.0/000.0 20-01-22",0,0,0,0,0,0,-33.60055555555556,150.78083333333333
"YSNF","NORFOLK ISLAND","AUS","20-01-22","""2020-01-22T16:30:00.000Z""","YSNF 221630Z AUTO 09007KT 9999 // NCD 20/15 Q1017 RF00.0/000.0 20-01-22",0,0,0,0,0,0,-29.0425,167.93805555555556
"YSDU","DUBBO","AUS","20-01-22","""2020-01-22T16:30:00.000Z""","YSDU 221630Z AUTO 02011KT 9999 // NCD 26/05 Q1005 RF00.0/000.0 20-01-22",0,0,0,0,0,0,-32.21666666666667,148.57472222222222
"YSNW","NOWRA","AUS","20-01-22","""2020-01-22T16:00:00.000Z""","YSNW 221600Z AUTO 00000KT 9999 // NCD 19/16 Q1002 20-01-22",0,0,0,0,0,0,-34.94888888888889,150.53694444444443
"YSWG","WAGGA WAGGA","AUS","20-01-22","""2020-01-22T16:00:00.000Z""","YSWG 221600Z AUTO 01017KT 9999 // NCD 30/01 Q0998 20-01-22",0,2,0,0,0,0,-35.165277777777774,147.46638888888887
"YTEF","TELFER","AUS","20-01-22","""2020-01-22T16:00:00.000Z""","YTEF 221600Z AUTO 32009KT 9999 // NCD 32/25 Q1006 20-01-22",0,0,0,0,0,0,-21.715,122.2286111111111
"YTNK","TENNANT CREEK","AUS","20-01-22","""2020-01-22T16:00:00.000Z""","YTNK 221600Z AUTO 02007KT 9999 // NCD 27/23 Q1007 20-01-22",0,0,0,0,0,0,-19.634444444444444,134.18333333333334
"NZAA","AUCKLAND INTL","NZL","20-01-22","""2020-01-22T16:30:00.000Z""","NZAA 221630Z AUTO 14003KT 9999 SCT031/// 17/15 Q1017 NOSIG 20-01-22",0,0,0,0,0,0,-37.00805555555556,174.79166666666666
"NZCH","CHRISTCHURCH INTL","NZL","20-01-22","""2020-01-22T16:30:00.000Z""","NZCH 221630Z AUTO 25001KT 9999 SCT003/// 11/11 Q1010 TEMPO 0500 FG BKN004 20-01-22",0,0,0,0,0,0,-43.489444444444445,172.53444444444443
"NZWN","WELLINGTON INTL","NZL","20-01-22","""2020-01-22T16:30:00.000Z""","NZWN 221630Z AUTO 01023G33KT 9999 OVC017/// 18/15 Q1013 TEMPO BKN014 20-01-22",0,6,0,0,0,0,-41.327222222222225,174.8052777777778
"YWLM","WILLIAMTOWN","AUS","20-01-22","""2020-01-22T16:30:00.000Z""","YWLM 221630Z AUTO 34006KT 9999 // NCD 24/19 Q1004 20-01-22",0,0,0,0,0,0,-32.79493055555555,151.83447222222225
"YTRE","TAREE","AUS","20-01-22","""2020-01-22T16:00:00.000Z""","YTRE 221600Z AUTO 00000KT //// // ////// 22/22 Q1006 20-01-22",0,0,0,0,0,0,-31.88861111111111,152.51388888888889
"YWGT","WANGARATTA","AUS","20-01-22","""2020-01-22T16:00:00.000Z""","YWGT 221600Z AUTO 01001KT 9999 // SCT056 23/14 Q0995 20-01-22",0,0,0,0,0,0,-36.41583333333333,146.30694444444447
"YWHA","WHYALLA","AUS","20-01-22","""2020-01-22T16:00:00.000Z""","YWHA 221600Z AUTO 28013KT 9999 // OVC091 20/10 Q1002 20-01-22",0,0,0,0,0,0,-33.05888888888889,137.51444444444445
"NZSP","SOUTH POLE STATION (ANTARCTIC)","NZL","20-01-22","""2020-01-22T15:50:00.000Z""","NZSP 221550Z 10006KT 9999 FEW050 M29/ A2908 RMK CLN AIR 11006KT ALL WNDS GRID SDG/HDG 20-01-22",0,0,0,0,0,0,-89.98201666666667,-144.5087861111111
"NFFN","NADI/INTL","FJI","20-01-22","""2020-01-22T16:00:00.000Z""","NFFN 221600Z 13007KT 9999 FEW030 21/19 Q1008 NOSIG 20-01-22",0,0,0,0,0,0,-17.75638888888889,177.44361111111112
"NFNA","NAUSORI/INTL","FJI","20-01-22","""2020-01-22T16:00:00.000Z""","NFNA 221600Z 35004KT 9999 FEW020 20/20 Q1008 20-01-22",0,0,0,0,0,0,-18.044722222222223,178.55944444444447
"NFTF","FUA'AMOTU INTL.","TON","20-01-22","""2020-01-22T16:00:00.000Z""","NFTF 221600Z VRB02KT 9999 FEW017 23/23 Q1009 20-01-22",0,0,0,0,0,0,-21.24105,-175.13963055555556
"NGFU","FUNAFUTI/INTL","TUV","20-01-22","""2020-01-22T16:00:00.000Z""","NGFU 221600Z 23007KT 9999 VCHS SCT018TCU OVC110 28/25 Q1006 20-01-22",0,0,0,0,1.7,0,-8.525144444444445,179.19573888888888
"NVVV","PORT VILA/BAUERFIELD","VUT","20-01-22","""2020-01-22T16:00:00.000Z""","NVVV 221600Z 02002KT 9999 FEW020 20/19 Q1010 20-01-22",0,0,0,0,0,0,-17.699325,168.31979444444445
"NSTU","PAGO PAGO INTL","USA","20-01-22","""2020-01-22T16:50:00.000Z""","NSTU 221650Z 00000KT 11SM FEW018CB SCT040 BKN100 26/23 A2972 RMK CB SE SLP066 T02550233 20-01-22",0,0,0,0,1.3,0,-14.331658333333333,-170.71150277777775
"NCRG","RAROTONGA INTL.","COK","20-01-22","""2020-01-22T16:30:00.000Z""","NCRG 221630Z AUTO 36008KT 320V030 9999 +DZ BKN017/// BKN022/// BKN100/// 27/25 Q1009 20-01-22",0,0,0,0,0,0,-21.200875,-159.79495
"NTAA","TAHITI FAAA","FRA","20-01-22","""2020-01-22T16:30:00.000Z""","NTAA 221630Z 06009KT 9999 FEW020 27/22 Q1014 NOSIG 20-01-22",0,0,0,0,0,0,-17.55666666666667,-149.61138888888888
"NWWW","NOUMEA LA TONTOUTA","FRA","20-01-22","""2020-01-22T16:30:00.000Z""","NWWW 221630Z AUTO 11001KT CAVOK 21/18 Q1012 NOSIG 20-01-22",0,0,0,0,0,0,-22.01638888888889,166.2161111111111
"NCAI","AITUTAKI","COK","20-01-22","""2020-01-22T16:00:00.000Z""","NCAI 221600Z AUTO NIL 20-01-22",0,0,0,0,0,0,-18.830055555555557,-159.76488333333333
"NFTV","VAVA'U","TON","20-01-22","""2020-01-22T16:00:00.000Z""","NFTV 221600Z 00000KT 9999 FEW020 17/17 Q1008 RMK GRASS DEW 20-01-22",0,0,0,0,0,0,-18.585580555555556,-173.96804444444444
"NIUE","NIUE INTL","NZL","20-01-22","""2020-01-22T16:00:00.000Z""","NIUE 221600Z AUTO 00000KT //// // ///////// 20/19 Q1008 20-01-22",0,0,0,0,0,0,-19.07777777777778,-169.92666666666665
"NSFA","FALEOLO/INTL","WSM","20-01-22","""2020-01-22T16:00:00.000Z""","NSFA 221600Z 00000KT 9999 FEW024 SCT040 BKN130 25/24 Q1006 RMK NIL 20-01-22",0,0,0,0,0,0,-13.829666666666666,-171.99716666666666
"NCPY","PENRHYN","COK","20-01-22","""2020-01-22T16:00:00.000Z""","NCPY 221600Z AUTO NIL 20-01-22",0,0,0,0,0,0,-9.00611111111111,-158.03631666666666